{"type":"FeatureCollection","properties":{"site_id":"bird-rock-reef","dataset_name":"California Aquatic Resources Inventory (CARI) v3.3","source_url":"https://www.sfei.org/data/california-aquatic-resource-inventory-cari-gis-data","dataset_date":"2026-02-19","resolution_meters":null,"provenance":"official-gis","outline_kind":"rocky-intertidal","geometry_status":"exploratory","disclaimer":"Static modeled rocky-intertidal habitat context, not a tide-specific waterline, surveyed boundary, navigational chart, safe route, or real-time access condition.","coordinate":{"latitude":32.811482,"longitude":-117.270771},"selection_radius_meters":350.0,"selection_method":"Original CARI Rocky Shore polygons intersecting a local-radius buffer; geometry is selected, not crop-clipped.","simplify_meters":1.0,"source":{"dataset_name":"California Aquatic Resources Inventory (CARI) v3.3","publisher":"San Francisco Estuary Institute","endpoint":"https://services2.arcgis.com/Uq9r85Potqm3MfRV/arcgis/rest/services/biosds2835_fpu/FeatureServer/0/query","dataset_url":"https://www.sfei.org/data/california-aquatic-resource-inventory-cari-gis-data","license":"GPL-3.0-or-later","license_url":"https://www.gnu.org/licenses/gpl-3.0.html","citation":"San Francisco Estuary Institute (SFEI). 2026. California Aquatic Resource Inventory (CARI), version 3.3. Accessed 2026-09-18.","accessed_at":"2026-09-18T16:45:11.040761+00:00"}},"features":[{"type":"Feature","id":"224623","properties":{"site_id":"bird-rock-reef","source_feature_id":224623,"source_dataset":"California Aquatic Resources Inventory (CARI) v3.3","source_class":"Marine Rocky Shore Natural Intertidal","source_legcode":"RS","source_attributes":{"OBJECTID":224623,"clickcode":"WMNrnIN","clicklabel":"Marine Rocky Shore Natural Intertidal","name":null,"orig_dataset":"Elevation Modeled Polygons via ESI Classification","orig_class":"6A/2A","organization":"San Francisco Estuary Institute (SFEI)","orig_dataset_pubyear":2022,"process_adjustment":null,"source_data":"ESI Classification; NOAA VDatum; USGS Modeled Dune Toe; 2016 El Nino DEM; USGS CoNED Topobathy DEM","source_estimatedyear":2016,"orig_scale":null,"legend_headings":"Estuarine and Marine","legcode":"RS","leglabellevel1":"Rocky Shore","leglabellevel2":"Rocky Shore","major_class":"Wetland","wetland_class":"Marine","anthropogenic_modifier":"Natural","wetland_type":"Rocky","wetland_subtype":"none","tidal_modifier":"Intertidal","vegetation_modifier":"Non-vegetated","salinity_modifier":"Saline","salinity_source":"CARI Marine","salinity_additional_information":"Wetland Mapping classified Marine","lastupdate":1770120526000,"CARI_id":224623,"Shape__Area":52.5703125,"Shape__Length":35.776418588823034}},"geometry":{"type":"Polygon","coordinates":[[[-117.272582558281,32.8131102505689],[-117.272561137953,32.8130922555601],[-117.27256102746,32.8130561734238],[-117.272592992213,32.8130290423535],[-117.272614356846,32.8130289955445],[-117.27262523185,32.8130921166434],[-117.272582558281,32.8131102505689]]]}},{"type":"Feature","id":"224624","properties":{"site_id":"bird-rock-reef","source_feature_id":224624,"source_dataset":"California Aquatic Resources Inventory (CARI) v3.3","source_class":"Marine Rocky Shore Natural Intertidal","source_legcode":"RS","source_attributes":{"OBJECTID":224624,"clickcode":"WMNrnIN","clicklabel":"Marine Rocky Shore Natural Intertidal","name":null,"orig_dataset":"Elevation Modeled Polygons via ESI Classification","orig_class":"6A/2A","organization":"San Francisco Estuary Institute (SFEI)","orig_dataset_pubyear":2022,"process_adjustment":null,"source_data":"ESI Classification; NOAA VDatum; USGS Modeled Dune Toe; 2016 El Nino DEM; USGS CoNED Topobathy DEM","source_estimatedyear":2016,"orig_scale":null,"legend_headings":"Estuarine and Marine","legcode":"RS","leglabellevel1":"Rocky Shore","leglabellevel2":"Rocky Shore","major_class":"Wetland","wetland_class":"Marine","anthropogenic_modifier":"Natural","wetland_type":"Rocky","wetland_subtype":"none","tidal_modifier":"Intertidal","vegetation_modifier":"Non-vegetated","salinity_modifier":"Saline","salinity_source":"CARI Marine","salinity_additional_information":"Wetland Mapping classified Marine","lastupdate":1770120526000,"CARI_id":224624,"Shape__Area":69.6171875,"Shape__Length":42.91064388466388}},"geometry":{"type":"Polygon","coordinates":[[[-117.271982374077,32.812462072359],[-117.2719609268,32.8124350566205],[-117.271939563065,32.8124351026748],[-117.271939508268,32.81241706223],[-117.271960845053,32.8124079948195],[-117.271960789357,32.8123899536143],[-117.27201417354,32.812380817497],[-117.272035565122,32.8123897912917],[-117.272035647767,32.8124168530983],[-117.272014310982,32.8124259197529],[-117.272014392729,32.8124529815485],[-117.271982374077,32.812462072359]]]}},{"type":"Feature","id":"224625","properties":{"site_id":"bird-rock-reef","source_feature_id":224625,"source_dataset":"California Aquatic Resources Inventory (CARI) v3.3","source_class":"Marine Rocky Shore Natural Intertidal","source_legcode":"RS","source_attributes":{"OBJECTID":224625,"clickcode":"WMNrnIN","clicklabel":"Marine Rocky Shore Natural Intertidal","name":null,"orig_dataset":"Elevation Modeled Polygons via ESI Classification","orig_class":"6A/2A","organization":"San Francisco Estuary Institute (SFEI)","orig_dataset_pubyear":2022,"process_adjustment":null,"source_data":"ESI Classification; NOAA VDatum; USGS Modeled Dune Toe; 2016 El Nino DEM; USGS CoNED Topobathy DEM","source_estimatedyear":2016,"orig_scale":null,"legend_headings":"Estuarine and Marine","legcode":"RS","leglabellevel1":"Rocky Shore","leglabellevel2":"Rocky Shore","major_class":"Wetland","wetland_class":"Marine","anthropogenic_modifier":"Natural","wetland_type":"Rocky","wetland_subtype":"none","tidal_modifier":"Intertidal","vegetation_modifier":"Non-vegetated","salinity_modifier":"Saline","salinity_source":"CARI Marine","salinity_additional_information":"Wetland Mapping classified Marine","lastupdate":1770120526000,"CARI_id":224625,"Shape__Area":34598.5,"Shape__Length":2646.8542663771}},"geometry":{"type":"Polygon","coordinates":[[[-117.272744473323,32.8136601554413],[-117.272765810108,32.8136510874027],[-117.272797883556,32.8136600384198],[-117.272819578769,32.8137682387506],[-117.272803338127,32.8137772946977],[-117.272776850402,32.8137683316128],[-117.272755430973,32.8137503367373],[-117.27275532048,32.8137142541132],[-117.272733900152,32.8136962599818],[-117.272712563367,32.8137053272608],[-117.272691364025,32.8137596758026],[-117.272712756505,32.8137684705285],[-117.272712893049,32.8138135735901],[-117.272659536715,32.8138317307727],[-117.272659675055,32.8138768338021],[-117.272638393966,32.8139039419643],[-117.272659867295,32.8139395534067],[-117.272638552968,32.8139561877784],[-117.272617084131,32.8139220296707],[-117.272574353968,32.8139221232876],[-117.272553099828,32.8139582511258],[-117.272595924314,32.8139894595325],[-117.272473353685,32.81408020295],[-117.272285904032,32.8139137294689],[-117.272285821387,32.8138866673633],[-117.272269797239,32.8138867028472],[-117.272210838112,32.8138191762704],[-117.272157152095,32.8137290871515],[-117.271996380609,32.8135535351493],[-117.271948269537,32.8135401078523],[-117.271841158914,32.8134456244692],[-117.271825162614,32.8134546796942],[-117.271766162164,32.8133736220347],[-117.271621704982,32.8132927500264],[-117.271578949666,32.8132838223768],[-117.271418303944,32.8131488611184],[-117.271407538533,32.8131218236943],[-117.271380806467,32.8131128605432],[-117.271353935162,32.8130587947244],[-117.271295020052,32.8130047990863],[-117.27127349013,32.812950722632],[-117.271246743691,32.8129372491899],[-117.271069747732,32.8126940768383],[-117.27106967946,32.8126715254038],[-117.271021500116,32.8126355472848],[-117.271021444421,32.8126175061257],[-117.271000080687,32.8126175521799],[-117.271000039364,32.8126040213082],[-117.270973347722,32.8126085889779],[-117.27098400264,32.8125995457466],[-117.270925073157,32.8125410395353],[-117.270914267323,32.8125004695287],[-117.270849901236,32.8124104032326],[-117.270855201296,32.8123968602495],[-117.27081770382,32.8123608593696],[-117.270780056324,32.8122752443504],[-117.270688848577,32.8121401328272],[-117.270656732907,32.8121176507112],[-117.270651310676,32.8120906008934],[-117.270512005332,32.8119465718752],[-117.270469058675,32.8118744995216],[-117.270233314693,32.8116314518561],[-117.270174304362,32.8115458844539],[-117.270131494249,32.8115189144916],[-117.270045697054,32.8114063422548],[-117.269986795419,32.8113568552119],[-117.269975991381,32.8113162861746],[-117.269933222591,32.8113028472146],[-117.269927743766,32.8112577564686],[-117.269890316358,32.8112443054197],[-117.269890207662,32.811208224043],[-117.269852711982,32.8111721562416],[-117.269970064297,32.8111225656334],[-117.269970172993,32.8111584379101],[-117.270013010056,32.8111944279522],[-117.270023828467,32.8112395081603],[-117.270055928865,32.8112574801393],[-117.270088165808,32.8113205541765],[-117.270163158066,32.8113925575197],[-117.270173977375,32.8114376376273],[-117.270227496305,32.8114736041514],[-117.270227551102,32.8114916455427],[-117.270248915734,32.8114915994879],[-117.270259679348,32.8115186381631],[-117.270280961336,32.8114915300283],[-117.270259569754,32.8114825553878],[-117.270270196824,32.8114644920998],[-117.270312979987,32.8114824406284],[-117.270302379867,32.8115095246061],[-117.270355762253,32.8115003899083],[-117.270355817948,32.8115184305392],[-117.270409282979,32.811536355652],[-117.270420018745,32.8115543743807],[-117.270644286749,32.8115358482948],[-117.270665624432,32.8115267815494],[-117.270676196704,32.8114906761275],[-117.270750944621,32.811481493863],[-117.270750779331,32.811427371182],[-117.270772116115,32.8114183044254],[-117.270772062217,32.8114002630192],[-117.270793425951,32.8114002162094],[-117.270804162615,32.8114182342107],[-117.270793699039,32.8114904216938],[-117.270825773386,32.8114993736835],[-117.270846890083,32.8114181428561],[-117.270793371153,32.8113821763096],[-117.27090021857,32.8113909652308],[-117.270932237222,32.8113818750657],[-117.270974855994,32.8113457008802],[-117.27097471945,32.8113005973211],[-117.270996083184,32.8113005520212],[-117.271049520367,32.8113094564652],[-117.271060668459,32.8114627820328],[-117.271146453078,32.8115708438549],[-117.271263984158,32.8115796101077],[-117.271359957468,32.8115252791075],[-117.271424077416,32.8115341608791],[-117.271413641687,32.8116153689506],[-117.271371023814,32.8116515437814],[-117.271360450643,32.8116876483829],[-117.271403371249,32.811750699465],[-117.271520901431,32.8117594657001],[-117.2714574121,32.8119580568181],[-117.271468259257,32.8120121565262],[-117.271564644893,32.8120931331336],[-117.271660920936,32.812138027158],[-117.271714496459,32.8121920346478],[-117.271704143376,32.8123003047152],[-117.271736355165,32.8123543589155],[-117.271821839746,32.812363193795],[-117.271896587662,32.8123540108657],[-117.271886070187,32.812408157142],[-117.271907517464,32.8124351721337],[-117.271928881198,32.8124351260794],[-117.271907708805,32.812498315549],[-117.27193983795,32.8125253086186],[-117.272025267733,32.8125161023015],[-117.272046521873,32.8124799731219],[-117.27206796915,32.8125069888468],[-117.272089332885,32.8125069420375],[-117.272078816308,32.8125610889757],[-117.272046769808,32.8125611576795],[-117.272046714113,32.8125431180153],[-117.271993303879,32.8125432335284],[-117.271982703759,32.8125703186928],[-117.271950657259,32.8125703873966],[-117.27192923783,32.8125523930336],[-117.271886509463,32.812552485897],[-117.271907819298,32.8125343986668],[-117.271907736653,32.8125073361411],[-117.27187232237,32.8124983925577],[-117.271843642756,32.8125074765687],[-117.271854242876,32.8124803913852],[-117.271832852193,32.8124714168446],[-117.271822279022,32.812507521868],[-117.271694203517,32.8125438828174],[-117.271683630346,32.8125799878114],[-117.271747833838,32.8126159319785],[-117.271844027235,32.8126337640066],[-117.271854847443,32.8126788427296],[-117.271950932144,32.8126605932031],[-117.271972048841,32.8125793619272],[-117.271993414372,32.812579315873],[-117.272004177986,32.8126063542172],[-117.272057589117,32.8126062379493],[-117.272089855704,32.812678333114],[-117.272090130589,32.8127685380559],[-117.272207853908,32.8128404473627],[-117.272218729811,32.8129035670854],[-117.272282877607,32.8129214692693],[-117.272304324885,32.8129484848599],[-117.272379099751,32.8129483217835],[-117.272400409586,32.8129302338789],[-117.272368611022,32.8130114889935],[-117.272464805317,32.8130293209423],[-117.272486307392,32.8130743775701],[-117.272518382637,32.8130833278903],[-117.272518492232,32.8131194100156],[-117.272465162847,32.8131465878673],[-117.2724760118,32.8132006883617],[-117.272529448983,32.8132095926153],[-117.272540187444,32.8132276102498],[-117.27261496231,32.8132274464188],[-117.272614907513,32.8132094068899],[-117.272572123451,32.8131914579551],[-117.272572003975,32.8131524306739],[-117.272582585231,32.8131192710988],[-117.27261463173,32.8131192008855],[-117.272636106855,32.8131552361874],[-117.27266820905,32.8131732077789],[-117.272668429138,32.8132453726969],[-117.272732660477,32.8132903355975],[-117.272743480685,32.8133354147424],[-117.272764899216,32.8133534097019],[-117.272796947512,32.8133533402437],[-117.272824131431,32.8133352388319],[-117.272850357746,32.8133532232217],[-117.272850523036,32.8134073469948],[-117.272818504384,32.8134164369527],[-117.272807905162,32.813443521851],[-117.272882680028,32.8134433587754],[-117.272904100356,32.8134613537131],[-117.272904183899,32.8134884151933],[-117.272850909311,32.8135336346637],[-117.272797526027,32.8135427714175],[-117.272797607774,32.8135698328729],[-117.272840282241,32.8135516990411],[-117.272840419684,32.8135968014577],[-117.272861894809,32.8136328365659],[-117.272893997004,32.8136508080609],[-117.272894051801,32.8136688490102],[-117.272819193392,32.8136419506601],[-117.272819082899,32.813605868747],[-117.272797635621,32.8135788533562],[-117.272776354532,32.8136059616093],[-117.272754961154,32.8135969871824],[-117.272744473323,32.8136601554413]],[[-117.272701275138,32.8135068985932],[-117.272679800012,32.813470862679],[-117.2726370429,32.8134619358022],[-117.27264783526,32.8134979943694],[-117.272626582018,32.8135341231351],[-117.272647945752,32.8135340763264],[-117.272658684213,32.813552093895],[-117.27263734653,32.8135611611888],[-117.27266939303,32.8135610909758],[-117.272679937455,32.8135159658917],[-117.272701275138,32.8135068985932]],[[-117.272679449669,32.8133562280436],[-117.272700695724,32.813317466588],[-117.272689903364,32.8132814079476],[-117.272636574878,32.8133085857496],[-117.272658105698,32.8133626627411],[-117.27267949728,32.8133716364367],[-117.272679449669,32.8133562280436]],[[-117.271448348098,32.8124902922948],[-117.271437583586,32.8124632539152],[-117.271448211555,32.8124451900715],[-117.271384036809,32.8124182664365],[-117.271394910017,32.8124813879691],[-117.271416246802,32.8124723205651],[-117.271416301599,32.8124903617536],[-117.271448348098,32.8124902922948]],[[-117.271351742374,32.8123371512073],[-117.27140487952,32.812246829559],[-117.271362123306,32.8122379025593],[-117.271351359692,32.8122108633479],[-117.271372532085,32.8121476736739],[-117.271340484687,32.8121477431331],[-117.271329857618,32.8121658070372],[-117.271308439086,32.8121478125923],[-117.271318929612,32.8120846455232],[-117.271297619777,32.8121027320899],[-117.27126554543,32.8120937816709],[-117.271244126,32.8120757864563],[-117.27125472612,32.8120487026512],[-117.271201288039,32.8120397975263],[-117.271190552273,32.812021778896],[-117.271190359135,32.8119586358971],[-117.271222296939,32.8119224838412],[-117.27121145068,32.8118683840785],[-117.27123270482,32.8118322546356],[-117.271211313238,32.8118232807846],[-117.271189975555,32.8118323474998],[-117.27119003125,32.8118503888182],[-117.27116863877,32.8118414149691],[-117.271168694466,32.8118594562857],[-117.271190085149,32.811868430133],[-117.271179540724,32.8119135560538],[-117.271136867155,32.8119316887099],[-117.271147631667,32.8119587280062],[-117.271115639965,32.8119768387582],[-117.271126431426,32.8120128979281],[-117.271169215488,32.8120308463459],[-117.271212080399,32.8120758566705],[-117.271212189993,32.8121119384499],[-117.271287074454,32.8121478586467],[-117.271265819416,32.8121839872062],[-117.27128718315,32.8121839411518],[-117.27129794856,32.8122109788614],[-117.271330049857,32.8122289513989],[-117.271340869166,32.8122740303272],[-117.271319504534,32.8122740771366],[-117.271308877464,32.81229214177],[-117.271330296894,32.8123101361858],[-117.271319668926,32.8123282008119],[-117.271351742374,32.8123371512073]],[[-117.271008489816,32.8118688234844],[-117.271029745752,32.8118326947967],[-117.271061791354,32.8118326253373],[-117.271061736556,32.8118145847702],[-117.271047376088,32.8118055943076],[-117.27101900819,32.8118146761244],[-117.271008298475,32.8118056788669],[-117.271018898595,32.8117785949793],[-117.270997533963,32.8117786410339],[-117.27098696169,32.8118147463388],[-117.271008353272,32.8118237201907],[-117.271008408968,32.811841761511],[-117.270922923489,32.8118329258247],[-117.270912297317,32.8118509897928],[-117.270923006134,32.8118599878008],[-117.270955024785,32.8118508969286],[-117.270987153032,32.81187788944],[-117.271008489816,32.8118688234844]],[[-117.271072308829,32.8117784787103],[-117.27112577386,32.8117964045257],[-117.271147056745,32.8117692964755],[-117.271200412182,32.8117511396265],[-117.271200329537,32.8117240776172],[-117.271168283936,32.8117241478317],[-117.27108271671,32.8116882501135],[-117.271018761153,32.8117334916399],[-117.271018789899,32.8117425123096],[-117.271061490418,32.8117333995306],[-117.271072281879,32.8117694580443],[-117.271050945095,32.8117785247649],[-117.271072308829,32.8117784787103]],[[-117.270783482499,32.8116437952688],[-117.270783427702,32.8116257539085],[-117.27084754765,32.811634634915],[-117.270868829637,32.8116075275706],[-117.270858011226,32.8115624475491],[-117.270815145418,32.8115174377195],[-117.270761763032,32.8115265739255],[-117.270783209411,32.8115535891852],[-117.270761844779,32.8115536352399],[-117.270751244658,32.811580719951],[-117.270719253854,32.8115988307801],[-117.27072998962,32.8116168479862],[-117.270751354253,32.8116168026864],[-117.270762117866,32.8116438413236],[-117.270783482499,32.8116437952688]],[[-117.272740275496,32.8136601637461],[-117.272712480722,32.8136782658467],[-117.27271250857,32.813687286319],[-117.27274455507,32.813687216106],[-117.272740275496,32.8136601637461]]]}},{"type":"Feature","id":"224628","properties":{"site_id":"bird-rock-reef","source_feature_id":224628,"source_dataset":"California Aquatic Resources Inventory (CARI) v3.3","source_class":"Marine Rocky Shore Natural Intertidal","source_legcode":"RS","source_attributes":{"OBJECTID":224628,"clickcode":"WMNrnIN","clicklabel":"Marine Rocky Shore Natural Intertidal","name":null,"orig_dataset":"Elevation Modeled Polygons via ESI Classification","orig_class":"6B/2A","organization":"San Francisco Estuary Institute (SFEI)","orig_dataset_pubyear":2022,"process_adjustment":null,"source_data":"ESI Classification; NOAA VDatum; USGS Modeled Dune Toe; 2016 El Nino DEM; USGS CoNED Topobathy DEM","source_estimatedyear":2016,"orig_scale":null,"legend_headings":"Estuarine and Marine","legcode":"RS","leglabellevel1":"Rocky Shore","leglabellevel2":"Rocky Shore","major_class":"Wetland","wetland_class":"Marine","anthropogenic_modifier":"Natural","wetland_type":"Rocky","wetland_subtype":"none","tidal_modifier":"Intertidal","vegetation_modifier":"Non-vegetated","salinity_modifier":"Saline","salinity_source":"CARI Marine","salinity_additional_information":"Wetland Mapping classified Marine","lastupdate":1770120526000,"CARI_id":224628,"Shape__Area":8367.88671875,"Shape__Length":699.4058978441162}},"geometry":{"type":"Polygon","coordinates":[[[-117.273429991191,32.8142630401532],[-117.273397818927,32.8142225177411],[-117.27344571081,32.8141637793116],[-117.273450940802,32.8141276855308],[-117.27339752967,32.8141278017968],[-117.273344311676,32.8141910617852],[-117.273312208583,32.8141730911544],[-117.273285530415,32.8141821697095],[-117.273242772404,32.8141732429041],[-117.273242814625,32.8141867735368],[-117.273130636606,32.8141825086925],[-117.27300792584,32.8142278788043],[-117.272938518407,32.8142370509704],[-117.272836912661,32.8141966795411],[-117.272815464485,32.81416966433],[-117.272772679525,32.8141517155891],[-117.272756560155,32.8141201788259],[-117.272692466258,32.814120319251],[-117.272617827038,32.8141655836983],[-117.272553746615,32.8141702343349],[-117.27250562117,32.8141522976738],[-117.272450699971,32.8141028038553],[-117.272595924314,32.8139894595325],[-117.272595966535,32.8140032604742],[-117.272638751495,32.814021209245],[-117.272681425065,32.8140030747504],[-117.272734837993,32.8140029584842],[-117.272745574658,32.8140209767128],[-117.27276693929,32.8140209299044],[-117.272756174778,32.8139938912355],[-117.272788138632,32.8139667604515],[-117.272788083835,32.8139487188078],[-117.272766636558,32.8139217042762],[-117.272809337975,32.8139125902107],[-117.272830593013,32.813876461599],[-117.272873349227,32.8138853884341],[-117.272905313081,32.813858257617],[-117.272905259182,32.8138402159512],[-117.273001371731,32.813830985611],[-117.273011944004,32.8137948811254],[-117.273054590624,32.8137677261213],[-117.273065024556,32.8136865177518],[-117.273118353043,32.8136593393104],[-117.273182419092,32.8136501791643],[-117.273193019212,32.813623094329],[-117.273182253802,32.8135960555392],[-117.273246209359,32.8135508134511],[-117.273267407803,32.8134966429567],[-117.273299454302,32.8134965734987],[-117.273310192763,32.8135145918298],[-117.273401033998,32.8135279240034],[-117.273764632499,32.8136579275018],[-117.27374874759,32.8137030661035],[-117.273770112222,32.8137030192949],[-117.273791615195,32.8137480748261],[-117.27382371739,32.8137660470527],[-117.273823883578,32.8138201698194],[-117.273781181263,32.8138292831394],[-117.273759761833,32.8138112890312],[-117.273727742284,32.8138203797028],[-117.273738535542,32.8138564388796],[-117.273727991117,32.8139015645457],[-117.27376012116,32.8139285556792],[-117.273834869974,32.8139193721566],[-117.273867166205,32.8140004866965],[-117.273941998564,32.8140183645002],[-117.273920681542,32.8140340332446],[-117.273888613483,32.8140275019591],[-117.273888679958,32.8140489741909],[-117.273824676791,32.8140788575859],[-117.273813947313,32.8140637475304],[-117.273803342701,32.8140888187153],[-117.273429991191,32.8142630401532]],[[-117.272959303627,32.8140475722033],[-117.272959194032,32.8140114904549],[-117.272980531715,32.814002423207],[-117.27299107614,32.8139572968371],[-117.272948263332,32.8139303283617],[-117.272948208534,32.8139122874655],[-117.272916133289,32.8139033372288],[-117.272894796504,32.8139124044867],[-117.272895072287,32.8140026096859],[-117.272916520463,32.8140296234379],[-117.272959303627,32.8140475722033]]]}},{"type":"Feature","id":"224644","properties":{"site_id":"bird-rock-reef","source_feature_id":224644,"source_dataset":"California Aquatic Resources Inventory (CARI) v3.3","source_class":"Marine Rocky Shore Natural Intertidal","source_legcode":"RS","source_attributes":{"OBJECTID":224644,"clickcode":"WMNrnIN","clicklabel":"Marine Rocky Shore Natural Intertidal","name":null,"orig_dataset":"Elevation Modeled Polygons via ESI Classification","orig_class":"6A/2A","organization":"San Francisco Estuary Institute (SFEI)","orig_dataset_pubyear":2022,"process_adjustment":null,"source_data":"ESI Classification; NOAA VDatum; USGS Modeled Dune Toe; 2016 El Nino DEM; USGS CoNED Topobathy DEM","source_estimatedyear":2016,"orig_scale":null,"legend_headings":"Estuarine and Marine","legcode":"RS","leglabellevel1":"Rocky Shore","leglabellevel2":"Rocky Shore","major_class":"Wetland","wetland_class":"Marine","anthropogenic_modifier":"Natural","wetland_type":"Rocky","wetland_subtype":"none","tidal_modifier":"Intertidal","vegetation_modifier":"Non-vegetated","salinity_modifier":"Saline","salinity_source":"CARI Marine","salinity_additional_information":"Wetland Mapping classified Marine","lastupdate":1770120526000,"CARI_id":224644,"Shape__Area":38648.4140625,"Shape__Length":3236.130981558841}},"geometry":{"type":"Polygon","coordinates":[[[-117.266497678669,32.8073050536815],[-117.266519042403,32.8073050083795],[-117.266529805118,32.8073320475735],[-117.266572584689,32.8073499984467],[-117.26657253079,32.8073319562147],[-117.266604494644,32.8073048264169],[-117.26672191074,32.8072775154032],[-117.266732538708,32.8072594505054],[-117.266753901544,32.8072594052035],[-117.26676463731,32.8072774232893],[-117.266817991848,32.8072592685427],[-117.266850062602,32.8072682209586],[-117.26690339019,32.8072410458394],[-117.266903335393,32.8072230050953],[-117.266871183791,32.807186990039],[-117.266839112139,32.8071780376149],[-117.266839057341,32.807159997613],[-117.266913828614,32.807159837546],[-117.266967155304,32.8071326623937],[-117.267009880976,32.8071325710347],[-117.267084760046,32.807168493999],[-117.267074185977,32.8072045989118],[-117.267052850091,32.8072136645881],[-117.267063611908,32.8072407053199],[-117.26708497654,32.8072406585079],[-117.267138248433,32.8071954426306],[-117.267148794655,32.8071503165792],[-117.267180840256,32.8071502478712],[-117.267202229143,32.8071592229491],[-117.267202310889,32.8071862848384],[-117.267159638218,32.8072044169489],[-117.267170400934,32.8072314546634],[-117.267213127504,32.8072313648145],[-117.26724506351,32.8071952138557],[-117.26728781703,32.8072041436271],[-117.267330488802,32.8071860107614],[-117.267362615252,32.8072130039346],[-117.267362668252,32.8072310454358],[-117.267426866354,32.8072669910113],[-117.267448228292,32.8072669449544],[-117.267448175291,32.8072489042155],[-117.267480219994,32.8072488347526],[-117.267480084348,32.8072037321343],[-117.267501393285,32.8071856453256],[-117.267522783969,32.8071946204],[-117.267533384089,32.8071675358623],[-117.267533546684,32.8072216596275],[-117.267554964317,32.807239655825],[-117.267544363298,32.8072667388306],[-117.26757648885,32.8072937327343],[-117.267565866271,32.8073137803384],[-117.267576651445,32.8073478556676],[-117.267587224616,32.8073117508131],[-117.267608560502,32.8073026843918],[-117.267608478755,32.807275623293],[-117.267651178376,32.8072665108109],[-117.267683385673,32.807320565808],[-117.267747475079,32.8073204291473],[-117.267790336396,32.8073654411025],[-117.267833062068,32.8073653489887],[-117.26786505377,32.8073472388069],[-117.26790783334,32.8073651889221],[-117.26792908748,32.8073290621787],[-117.267833008169,32.8073473075148],[-117.267822110706,32.8072751664985],[-117.267896908928,32.8072840275541],[-117.267918379562,32.8073200629569],[-117.267961105233,32.8073199715981],[-117.267971733202,32.807301908219],[-117.267961024385,32.8072929105046],[-117.26802514074,32.8073017934542],[-117.268014324126,32.8072567142688],[-117.267982252474,32.8072477626067],[-117.267982198575,32.8072297203539],[-117.268057022848,32.8072476017849],[-117.268056942,32.8072205406693],[-117.268131657577,32.8072023390991],[-117.268136958535,32.8071887968324],[-117.268142367291,32.8072113368227],[-117.268174438944,32.8072202892435],[-117.268163946621,32.8072834559949],[-117.268185418153,32.8073194913979],[-117.268217516755,32.8073374641697],[-117.268217571552,32.8073555056456],[-117.268174871932,32.8073646173634],[-117.268174926729,32.8073826588338],[-117.268196343464,32.8074006549987],[-117.268239043084,32.8073915417745],[-117.268249751002,32.807400539479],[-117.268260352021,32.807373455004],[-117.268292395825,32.8073733862962],[-117.268303158541,32.8074004254693],[-117.268281795705,32.8074004715262],[-117.268239177831,32.8074366450525],[-117.268207134027,32.8074367130052],[-117.268207187926,32.807454754461],[-117.268132416653,32.8074549152825],[-117.268121789583,32.8074729786304],[-117.268100426748,32.8074730239323],[-117.268079036064,32.8074640496411],[-117.268068246399,32.8074279893806],[-117.268089582285,32.8074189237261],[-117.268089528386,32.807400882263],[-117.268132200159,32.8073827501926],[-117.268121383545,32.8073376695382],[-117.268142664634,32.8073105639032],[-117.268142555938,32.8072744809294],[-117.268121328748,32.8073196303238],[-117.268089257095,32.807310677158],[-117.268089203196,32.807292636428],[-117.268067894259,32.8073107224599],[-117.268035849557,32.8073107911678],[-117.268025249436,32.8073378764169],[-117.26804664012,32.8073468514758],[-117.268057456734,32.8073919306155],[-117.268036093898,32.8073919766724],[-117.268036173849,32.8074190377357],[-117.268068381146,32.8074730933951],[-117.268057861874,32.8075272396252],[-117.268079198659,32.8075181724707],[-117.268089934425,32.8075361912591],[-117.268111216412,32.8075090841746],[-117.268143288065,32.8075180358103],[-117.268185933786,32.8074908819084],[-117.268228658559,32.8074907913047],[-117.268260785907,32.8075177836303],[-117.268260920654,32.8075628875992],[-117.26828228349,32.8075628407874],[-117.268335827573,32.8076078299691],[-117.268314599484,32.807652978439],[-117.268293263598,32.8076620440696],[-117.268293344446,32.8076891065608],[-117.268303972414,32.8076710417467],[-117.268336017117,32.8076709737941],[-117.26833596232,32.8076529323822],[-117.268367926174,32.8076258019274],[-117.268421334611,32.807625687918],[-117.268410693169,32.8076392942956],[-117.268421443308,32.8076617692391],[-117.268400106523,32.8076708356238],[-117.268421551105,32.8076978520557],[-117.268410950985,32.8077249356767],[-117.26844296784,32.8077158474017],[-117.268443131333,32.807769970833],[-117.268411085732,32.8077700402956],[-117.268389588149,32.8077249817335],[-117.268379068877,32.80777912781],[-117.268421958042,32.8078331605996],[-117.268443293929,32.8078240934764],[-117.268454037779,32.8078447668784],[-117.268443402625,32.807860176227],[-117.268486102245,32.8078510645599],[-117.268475338631,32.8078240247689],[-117.268507356385,32.8078149357489],[-117.268507465081,32.8078510177483],[-117.268539590632,32.8078780107194],[-117.268582182455,32.8078328163071],[-117.268592944272,32.8078598553405],[-117.268571581436,32.8078599013971],[-117.268571663183,32.807886963073],[-117.268614416702,32.8078958912649],[-117.268603680936,32.8078778740595],[-117.268614281056,32.807850788975],[-117.268635670842,32.8078597639822],[-117.268656953727,32.8078326562413],[-117.268710334316,32.8078235211656],[-117.26868932362,32.8079408342213],[-117.268753331279,32.807913634392],[-117.268732158886,32.8079768248114],[-117.268806957108,32.8079856842869],[-117.268828266045,32.8079675976373],[-117.268860392495,32.8079945905731],[-117.268860338596,32.8079765492269],[-117.268838945217,32.8079667731488],[-117.268860256849,32.8079494875782],[-117.268860175102,32.8079224259214],[-117.268881592735,32.807940421222],[-117.268913610489,32.8079313314589],[-117.268924074964,32.807859144105],[-117.268988191319,32.807868027753],[-117.268977619046,32.8079041323816],[-117.268999008831,32.8079131073834],[-117.268988354812,32.8079221510917],[-117.268999090578,32.8079401690431],[-117.269020453414,32.8079401229865],[-117.269009908091,32.8079852486369],[-117.269031271825,32.8079852025803],[-117.269020726502,32.8080303289628],[-117.269031352673,32.8080122649731],[-117.269052716407,32.8080122189165],[-117.269031516166,32.8080663882239],[-117.26906353392,32.8080572992288],[-117.269074460129,32.8081384606457],[-117.269095822964,32.8081384153443],[-117.269095904711,32.8081654769353],[-117.269149286198,32.8081563411389],[-117.269138794774,32.80821950798],[-117.269213701693,32.8082644500178],[-117.269213973882,32.8083546564199],[-117.269310272382,32.808408571831],[-117.269321089895,32.8084536519422],[-117.269353052851,32.8084265217318],[-117.269385098452,32.8084264530248],[-117.269406516984,32.8084444482233],[-117.269406597832,32.8084715089663],[-117.269363926059,32.8084896423246],[-117.26936398445,32.8085091792644],[-117.269385588932,32.8085888219217],[-117.269428397249,32.8086157920183],[-117.269428505945,32.8086518744474],[-117.269396515141,32.8086699843634],[-117.269407550944,32.8087872291051],[-117.269450359261,32.8088141998964],[-117.269525049685,32.8087869761737],[-117.269567639711,32.8087417814686],[-117.269567340572,32.8086425544759],[-117.269599412224,32.8086515059975],[-117.269599521819,32.8086875891672],[-117.269620939452,32.8087055843128],[-117.269621184692,32.8087867692984],[-117.269610557622,32.8088048323757],[-117.269567858002,32.808813945455],[-117.269535895046,32.8088410763022],[-117.269546739508,32.8088951763977],[-117.269568157141,32.8089131715014],[-117.269632248343,32.8089130333331],[-117.26965353033,32.8088859266685],[-117.269674893166,32.8088858813673],[-117.269728465096,32.8089398878134],[-117.269717894621,32.808976699458],[-117.269728710337,32.809021074095],[-117.269750074071,32.8090210280389],[-117.269760864634,32.8090570868981],[-117.269835637703,32.8090569253245],[-117.269857055336,32.8090749203954],[-117.269867927646,32.8091380412826],[-117.269910709911,32.8091559910361],[-117.269900164588,32.8092011160692],[-117.269825446316,32.8092193187401],[-117.269836046437,32.8091922340644],[-117.26982536457,32.8091922567149],[-117.269804165227,32.809246426058],[-117.269772118728,32.8092464955194],[-117.269750809791,32.8092645826638],[-117.269772201373,32.8092735567732],[-117.269804219126,32.8092644671464],[-117.269815009689,32.8093005259068],[-117.269857818006,32.8093274957874],[-117.270007444993,32.8093542361353],[-117.270007581537,32.8093993384173],[-117.270071836232,32.8094533234109],[-117.270093227814,32.8094622982563],[-117.270146608403,32.8094531618381],[-117.270146691048,32.8094802237838],[-117.270125382112,32.8094983108806],[-117.270136383779,32.809603940932],[-117.26994428175,32.8096610726905],[-117.269912154402,32.8096340810158],[-117.269879891409,32.8095619841365],[-117.26982634553,32.809516997454],[-117.269836890853,32.8094718710714],[-117.269868854707,32.8094447404167],[-117.269868745113,32.8094086575544],[-117.269793892094,32.8093817571598],[-117.269783264125,32.8093998216262],[-117.269815364524,32.8094177939773],[-117.26981547322,32.8094538753258],[-117.269794082536,32.8094449012347],[-117.269783482416,32.8094719873434],[-117.269762118682,32.8094720318892],[-117.269762200429,32.8094990923192],[-117.269783536315,32.809490026876],[-117.269773127536,32.8095802554396],[-117.269794490372,32.8095802093838],[-117.269805281833,32.8096162687711],[-117.269805500124,32.8096884328026],[-117.269845540731,32.8096973676085],[-117.269309338134,32.8098696104698],[-117.269158868528,32.8095635364424],[-117.269051533326,32.809392374923],[-117.269051451579,32.8093653144605],[-117.268981612956,32.8092301547221],[-117.268938722893,32.8091761227819],[-117.268852644525,32.8089688329296],[-117.268820518076,32.8089418410447],[-117.268809659241,32.8088832304979],[-117.268745257221,32.8087796313467],[-117.268675662041,32.8087256565141],[-117.268616668778,32.8086445990712],[-117.26859529157,32.8086401331254],[-117.268584542329,32.8086176048228],[-117.268563178595,32.8086176516341],[-117.268563097746,32.8085905894255],[-117.268397232812,32.8084917186344],[-117.268306140049,32.8083926861582],[-117.268284777213,32.8083927322146],[-117.268268659641,32.8083611949176],[-117.268177662997,32.8082937351143],[-117.2681776082,32.8082756938289],[-117.268097333848,32.808221741341],[-117.268097265576,32.8081991910365],[-117.2680652065,32.8081947492292],[-117.268022331708,32.8081452271768],[-117.267931347641,32.8080822777302],[-117.267834889241,32.807974236582],[-117.267743933022,32.8079203080719],[-117.267727828924,32.8078932803823],[-117.267701097756,32.8078843167039],[-117.267706397816,32.8078707745412],[-117.267679667547,32.8078618108606],[-117.267658208591,32.8078302854556],[-117.267631491796,32.8078258315493],[-117.267588629581,32.8077808198272],[-117.267497687735,32.807731400983],[-117.26748159801,32.8077088837755],[-117.267449553307,32.8077089524831],[-117.267438816642,32.8076909337297],[-117.267406745888,32.8076819821114],[-117.267364046268,32.8076910930408],[-117.267364004946,32.8076775629291],[-117.267299875116,32.8076641687204],[-117.267283799764,32.8076461620385],[-117.267246440628,32.8076552616461],[-117.26721968251,32.8076372776132],[-117.267144938187,32.8076464587649],[-117.267118193544,32.8076329845185],[-117.267027440345,32.8076467086794],[-117.266936592822,32.8076288613051],[-117.266877898698,32.8076470273016],[-117.266840485663,32.8076380870043],[-117.266829885542,32.8076651706436],[-117.26679781389,32.8076562182676],[-117.266787173345,32.8076697725435],[-117.266723082143,32.8076699092037],[-117.266696459671,32.8076970275646],[-117.266610979582,32.8076881892011],[-117.266573662667,32.8077108196682],[-117.266541617066,32.8077108883758],[-117.266530989098,32.8077289524267],[-117.266514939797,32.8077199660809],[-117.266440249373,32.8077471863553],[-117.266386828359,32.8077427905821],[-117.266365573321,32.8077789171573],[-117.266280159708,32.8077926299703],[-117.266459346657,32.8072961156148],[-117.266497678669,32.8073050536815]],[[-117.268175723535,32.8076481855159],[-117.26819712949,32.8076622501924],[-117.268208053902,32.8077434127252],[-117.268229228091,32.8076802228948],[-117.268261273692,32.8076801541872],[-117.268271872914,32.8076530690424],[-117.268250510079,32.8076531150992],[-117.268239774313,32.8076350963346],[-117.268175723535,32.8076481855159]],[[-117.269074568825,32.8081745440237],[-117.269063978586,32.8082049601761],[-117.26907473142,32.8082286664207],[-117.269053395534,32.8082377327476],[-117.269064213046,32.8082828114354],[-117.269096176901,32.8082556819279],[-117.269085386337,32.8082196227436],[-117.26909595861,32.8081835174882],[-117.269074568825,32.8081745440237]],[[-117.269053612926,32.8083098971433],[-117.269053695571,32.8083369594372],[-117.269085712426,32.8083278697148],[-117.269096448192,32.8083458868289],[-117.269128493793,32.8083458188768],[-117.26911792152,32.8083819240664],[-117.269160674141,32.8083908529635],[-117.269139066066,32.8083097129176],[-117.269064267843,32.8083008534745],[-117.269053612926,32.8083098971433]],[[-117.269267871901,32.8085169106847],[-117.269203863344,32.8085441095744],[-117.269203945989,32.8085711717971],[-117.269182581356,32.8085712186083],[-117.2691933288,32.8085926634678],[-117.269182690951,32.8086072995456],[-117.269225471419,32.8086252486513],[-117.269214872197,32.8086523350098],[-117.269278989451,32.8086612163135],[-117.269279070299,32.8086882785005],[-117.269300434033,32.8086882324443],[-117.269311197647,32.8087152712174],[-117.269332588331,32.8087242453823],[-117.269321688173,32.8086521039736],[-117.269300298388,32.8086431298014],[-117.269310816761,32.8085889834962],[-117.269268117141,32.8085980958426],[-117.269257408324,32.8085890990144],[-117.269267980597,32.808552993154],[-117.269299971401,32.8085348824593],[-117.269267871901,32.8085169106847]],[[-117.269418640647,32.8089225140951],[-117.269418749343,32.8089585956447],[-117.269397386507,32.8089586432108],[-117.269397440406,32.8089766836026],[-117.269429566855,32.809003676232],[-117.269418776292,32.8089676165961],[-117.26946153071,32.8089765461895],[-117.269461448963,32.8089494840903],[-117.26942940426,32.8089495527969],[-117.26944003133,32.808931488994],[-117.269418640647,32.8089225140951]],[[-117.269504477367,32.8090492007463],[-117.269451067133,32.8090487326358],[-117.269451121032,32.8090667737643],[-117.269472566513,32.8090937897718],[-117.269493902399,32.8090847227772],[-117.269558102298,32.809120666848],[-117.269558156197,32.809138708717],[-117.269536793361,32.809138754773],[-117.269536739462,32.809120712904],[-117.269494011994,32.809120805771],[-117.269494065893,32.8091388468849],[-117.26953682031,32.809147774951],[-117.269547638721,32.8091928546873],[-117.269590365291,32.8091927633304],[-117.269601155854,32.8092288221199],[-117.269590527886,32.8092468873724],[-117.269611892519,32.8092468398064],[-117.269590583582,32.8092649277057],[-117.269601347196,32.8092919655483],[-117.269644019867,32.8092738338637],[-117.269665409652,32.8092828072171],[-117.269665464449,32.8093008482982],[-117.269686801234,32.8092917820797],[-117.269740237518,32.80930068899],[-117.26970813712,32.8092827158604],[-117.269708055373,32.8092556538544],[-117.269675983721,32.8092467031487],[-117.269675901076,32.8092196403767],[-117.269729255614,32.8092014845168],[-117.269739882684,32.8091834200101],[-117.269761246418,32.8091833739542],[-117.269771983082,32.8092013924049],[-117.269771900437,32.8091743311292],[-117.269803946038,32.8091742616677],[-117.269803891241,32.809156220561],[-117.269750483702,32.8091563368335],[-117.269718356355,32.8091293434956],[-117.269611565532,32.8091385939545],[-117.26956867457,32.8090845619586],[-117.269536629868,32.8090846314201],[-117.269536494222,32.8090395282235],[-117.269504447723,32.809039597685],[-117.269504477367,32.8090492007463]],[[-117.268131686323,32.8072113587187],[-117.268131712374,32.8072203806024],[-117.268142394241,32.8072203564414],[-117.268142367291,32.8072113368227],[-117.268131686323,32.8072113587187]],[[-117.268163852298,32.8072519485055],[-117.268163837925,32.8072473730101],[-117.268153156956,32.8072473956611],[-117.268153183906,32.8072564167861],[-117.268163852298,32.8072519485055]],[[-117.267993723061,32.8075108630253],[-117.267982928905,32.8074732753574],[-117.267972274886,32.8074823191105],[-117.267918839499,32.807473413528],[-117.267929331822,32.8074102461566],[-117.26790786029,32.8073742092802],[-117.267886497454,32.8073742553371],[-117.267865268467,32.8074194039257],[-117.267865431961,32.8074735267825],[-117.26790818548,32.807482455771],[-117.267918975145,32.8075185160094],[-117.267940337981,32.8075184699525],[-117.267950938999,32.8074913855135],[-117.267961673867,32.8075094035523],[-117.267951046797,32.8075274676442],[-117.267993723061,32.8075108630253]],[[-117.26802581807,32.8075273090879],[-117.268004454336,32.8075273528796],[-117.267993745519,32.807518355188],[-117.267993800317,32.8075363966272],[-117.26802581807,32.8075273090879]],[[-117.268025845019,32.8075363279195],[-117.268025871071,32.8075453482602],[-117.268047261754,32.8075543232982],[-117.268047207855,32.8075362826177],[-117.268025845019,32.8075363279195]],[[-117.268047180906,32.8075272622761],[-117.268047207855,32.8075362826177],[-117.268057889722,32.8075362599668],[-117.268057861874,32.8075272396252],[-117.268047180906,32.8075272622761]],[[-117.268304063144,32.8077013206562],[-117.26834680768,32.807707032446],[-117.268357515599,32.8077160301185],[-117.268346752883,32.8076889910414],[-117.268304027212,32.8076890831549],[-117.268304063144,32.8077013206562]],[[-117.2664869977,32.8073050770875],[-117.266487024649,32.8073140974516],[-117.266497706517,32.8073140740456],[-117.266497678669,32.8073050536815],[-117.2664869977,32.8073050770875]]]}}]}