{"type":"FeatureCollection","properties":{"site_id":"cabrillo-tidepools","dataset_name":"California Aquatic Resources Inventory (CARI) v3.3","source_url":"https://www.sfei.org/data/california-aquatic-resource-inventory-cari-gis-data","dataset_date":"2026-02-19","resolution_meters":null,"provenance":"official-gis","outline_kind":"rocky-intertidal","geometry_status":"exploratory","disclaimer":"Static modeled rocky-intertidal habitat context, not a tide-specific waterline, surveyed boundary, navigational chart, safe route, or real-time access condition.","coordinate":{"latitude":32.669467,"longitude":-117.245233},"selection_radius_meters":350.0,"selection_method":"Original CARI Rocky Shore polygons intersecting a local-radius buffer; geometry is selected, not crop-clipped.","simplify_meters":1.0,"source":{"dataset_name":"California Aquatic Resources Inventory (CARI) v3.3","publisher":"San Francisco Estuary Institute","endpoint":"https://services2.arcgis.com/Uq9r85Potqm3MfRV/arcgis/rest/services/biosds2835_fpu/FeatureServer/0/query","dataset_url":"https://www.sfei.org/data/california-aquatic-resource-inventory-cari-gis-data","license":"GPL-3.0-or-later","license_url":"https://www.gnu.org/licenses/gpl-3.0.html","citation":"San Francisco Estuary Institute (SFEI). 2026. California Aquatic Resource Inventory (CARI), version 3.3. Accessed 2026-09-18.","accessed_at":"2026-09-18T16:45:06.432072+00:00"}},"features":[{"type":"Feature","id":"208144","properties":{"site_id":"cabrillo-tidepools","source_feature_id":208144,"source_dataset":"California Aquatic Resources Inventory (CARI) v3.3","source_class":"Marine Rocky Shore Natural Intertidal","source_legcode":"RS","source_attributes":{"OBJECTID":208144,"clickcode":"WMNrnIN","clicklabel":"Marine Rocky Shore Natural Intertidal","name":null,"orig_dataset":"Elevation Modeled Polygons via ESI Classification","orig_class":"2A","organization":"San Francisco Estuary Institute (SFEI)","orig_dataset_pubyear":2022,"process_adjustment":null,"source_data":"ESI Classification; NOAA VDatum; USGS Modeled Dune Toe; 2016 El Nino DEM; USGS CoNED Topobathy DEM","source_estimatedyear":2016,"orig_scale":null,"legend_headings":"Estuarine and Marine","legcode":"RS","leglabellevel1":"Rocky Shore","leglabellevel2":"Rocky Shore","major_class":"Wetland","wetland_class":"Marine","anthropogenic_modifier":"Natural","wetland_type":"Rocky","wetland_subtype":"none","tidal_modifier":"Intertidal","vegetation_modifier":"Non-vegetated","salinity_modifier":"Saline","salinity_source":"CARI Marine","salinity_additional_information":"Wetland Mapping classified Marine","lastupdate":1770120526000,"CARI_id":208144,"Shape__Area":5753.2421875,"Shape__Length":579.0965931597073}},"geometry":{"type":"Polygon","coordinates":[[[-117.245488401827,32.6696353151716],[-117.245525662148,32.6696105201563],[-117.245504109768,32.6695293753978],[-117.245440044617,32.669502438038],[-117.245418529965,32.669434823883],[-117.24537583304,32.6694213763635],[-117.245365093681,32.6693943346154],[-117.245322444366,32.6693989277809],[-117.245364957137,32.6693447202458],[-117.245354181845,32.6693041477551],[-117.245375339865,32.6692409602591],[-117.245321939513,32.6692140023949],[-117.2453058435,32.6691779504262],[-117.245289846301,32.6691779814305],[-117.245284574987,32.6692005442553],[-117.245263244491,32.6692005858464],[-117.245252629099,32.6692186485039],[-117.245220622125,32.66921420052],[-117.245220781127,32.6692728349418],[-117.24518353967,32.6693044812401],[-117.245119659572,32.6693451989213],[-117.245077011156,32.6693497936018],[-117.245012824732,32.669277751768],[-117.244970139485,32.6692688142149],[-117.24493794656,32.6691967110634],[-117.244895299042,32.6692013049953],[-117.244868509483,32.6691547614596],[-117.245662800756,32.6690588907286],[-117.245716203803,32.6690869398416],[-117.245759060628,32.669159021908],[-117.245801745876,32.6691679594722],[-117.245801845589,32.6692040424492],[-117.245833815731,32.6691949596977],[-117.245833913648,32.6692310419076],[-117.245897880883,32.6692218956378],[-117.245961723251,32.6691676464041],[-117.246004382448,32.6691675617094],[-117.246004432753,32.6691856047122],[-117.246025787504,32.6691945823525],[-117.246036526864,32.6692216249173],[-117.246057856462,32.6692215825699],[-117.246057906767,32.6692396248057],[-117.246036650831,32.669266727853],[-117.245961970288,32.6692578538197],[-117.245972831818,32.6693299992691],[-117.246036823308,32.6693298737396],[-117.24607940974,32.6693027276079],[-117.246090149099,32.6693297686276],[-117.24615426276,32.6693747474917],[-117.246079632522,32.6693839149195],[-117.246058474503,32.6694471023143],[-117.246026554666,32.6694742272285],[-117.245962587431,32.6694833727163],[-117.24594130724,32.6695014564901],[-117.245941405156,32.6695375393325],[-117.245973525318,32.6695825808566],[-117.24596298269,32.6696277055398],[-117.245973738218,32.6696603952669],[-117.245467169247,32.6696709782695],[-117.245472410018,32.6696376866118],[-117.245488401827,32.6696353151716]]]}},{"type":"Feature","id":"208145","properties":{"site_id":"cabrillo-tidepools","source_feature_id":208145,"source_dataset":"California Aquatic Resources Inventory (CARI) v3.3","source_class":"Marine Rocky Shore Natural Intertidal","source_legcode":"RS","source_attributes":{"OBJECTID":208145,"clickcode":"WMNrnIN","clicklabel":"Marine Rocky Shore Natural Intertidal","name":null,"orig_dataset":"Elevation Modeled Polygons via ESI Classification","orig_class":"2A","organization":"San Francisco Estuary Institute (SFEI)","orig_dataset_pubyear":2022,"process_adjustment":null,"source_data":"ESI Classification; NOAA VDatum; USGS Modeled Dune Toe; 2016 El Nino DEM; USGS CoNED Topobathy DEM","source_estimatedyear":2016,"orig_scale":null,"legend_headings":"Estuarine and Marine","legcode":"RS","leglabellevel1":"Rocky Shore","leglabellevel2":"Rocky Shore","major_class":"Wetland","wetland_class":"Marine","anthropogenic_modifier":"Natural","wetland_type":"Rocky","wetland_subtype":"none","tidal_modifier":"Intertidal","vegetation_modifier":"Non-vegetated","salinity_modifier":"Saline","salinity_source":"CARI Marine","salinity_additional_information":"Wetland Mapping classified Marine","lastupdate":1770120526000,"CARI_id":208145,"Shape__Area":2276.70703125,"Shape__Length":305.26948745355867}},"geometry":{"type":"Polygon","coordinates":[[[-117.245698082089,32.6702596816205],[-117.245698132394,32.6702777228904],[-117.245676826152,32.670286786627],[-117.245655470503,32.6702778068279],[-117.245655520809,32.6702958480941],[-117.24562350036,32.6702868902255],[-117.24562354887,32.6703049322461],[-117.245644879366,32.6703048898993],[-117.245623598277,32.6703229742631],[-117.245676924967,32.6703228691522],[-117.245655936729,32.6704479767034],[-117.24537332135,32.6704538795396],[-117.245373224332,32.6704181819693],[-117.24531445475,32.6703777029777],[-117.245309059468,32.6703551616236],[-117.245325009056,32.6703370893655],[-117.245383667248,32.6703369744241],[-117.245362053782,32.6702332768414],[-117.245372620665,32.6701971723504],[-117.245324503305,32.6701521628963],[-117.245324429643,32.6701251001959],[-117.245361646845,32.6700844342913],[-117.24538298902,32.6700889026492],[-117.245388146248,32.6700246804762],[-117.245740080125,32.670017327228],[-117.24575093896,32.6700881827513],[-117.245782860594,32.6700610580235],[-117.245814856787,32.6700609952593],[-117.24584697605,32.6701060357632],[-117.245836409168,32.6701421402911],[-117.245804487534,32.6701692657505],[-117.245729806093,32.6701603902944],[-117.245697958121,32.6702145784298],[-117.245708747786,32.6702596612033],[-117.245698082089,32.6702596816205]],[[-117.245698057834,32.6702506609842],[-117.245687393035,32.6702506821576],[-117.24568741729,32.670259702794],[-117.245698082089,32.6702596816205],[-117.245698057834,32.6702506609842]],[[-117.245655446249,32.6702687861934],[-117.245623450953,32.6702688489575],[-117.245623475208,32.6702778695919],[-117.245655470503,32.6702778068279],[-117.245655446249,32.6702687861934]]]}},{"type":"Feature","id":"208147","properties":{"site_id":"cabrillo-tidepools","source_feature_id":208147,"source_dataset":"California Aquatic Resources Inventory (CARI) v3.3","source_class":"Marine Rocky Shore Natural Intertidal","source_legcode":"RS","source_attributes":{"OBJECTID":208147,"clickcode":"WMNrnIN","clicklabel":"Marine Rocky Shore Natural Intertidal","name":null,"orig_dataset":"Elevation Modeled Polygons via ESI Classification","orig_class":"2A","organization":"San Francisco Estuary Institute (SFEI)","orig_dataset_pubyear":2022,"process_adjustment":null,"source_data":"ESI Classification; NOAA VDatum; USGS Modeled Dune Toe; 2016 El Nino DEM; USGS CoNED Topobathy DEM","source_estimatedyear":2016,"orig_scale":null,"legend_headings":"Estuarine and Marine","legcode":"RS","leglabellevel1":"Rocky Shore","leglabellevel2":"Rocky Shore","major_class":"Wetland","wetland_class":"Marine","anthropogenic_modifier":"Natural","wetland_type":"Rocky","wetland_subtype":"none","tidal_modifier":"Intertidal","vegetation_modifier":"Non-vegetated","salinity_modifier":"Saline","salinity_source":"CARI Marine","salinity_additional_information":"Wetland Mapping classified Marine","lastupdate":1770120526000,"CARI_id":208147,"Shape__Area":1167.78515625,"Shape__Length":288.54447412061916}},"geometry":{"type":"Polygon","coordinates":[[[-117.245475121133,32.6725790877086],[-117.245533804478,32.6725873746209],[-117.245544424361,32.6725707342521],[-117.245842961479,32.6725347380824],[-117.245843079159,32.6725777477679],[-117.245821723509,32.6725687697114],[-117.245832364054,32.6725597273792],[-117.245821648949,32.6725417069868],[-117.245800318453,32.6725417485764],[-117.245811156627,32.6726048732441],[-117.245821772917,32.6725868112712],[-117.245853769111,32.6725867477526],[-117.245811354256,32.6726770394323],[-117.24583273416,32.6726950386245],[-117.245832685651,32.6726769978427],[-117.245864632437,32.6726588927825],[-117.245853842772,32.6726138104636],[-117.245875174167,32.672613768874],[-117.245864459961,32.6725957477363],[-117.245875076251,32.6725776857616],[-117.245896406747,32.672577644172],[-117.245907586281,32.6727651676109],[-117.245747654719,32.6727844530348],[-117.24576886574,32.6727402683562],[-117.245768741772,32.6726951641492],[-117.245747386123,32.6726861853484],[-117.245726178696,32.6727313311494],[-117.245736918055,32.6727583726437],[-117.245683639874,32.6727765192732],[-117.245694344199,32.6727908812563],[-117.245529082933,32.6728108071525],[-117.245555690133,32.6727902997598],[-117.245560738665,32.6726865513362],[-117.24550738772,32.6726776345407],[-117.245464527301,32.6726055522883],[-117.245475121133,32.6725790877086]]]}},{"type":"Feature","id":"208148","properties":{"site_id":"cabrillo-tidepools","source_feature_id":208148,"source_dataset":"California Aquatic Resources Inventory (CARI) v3.3","source_class":"Marine Rocky Shore Natural Intertidal","source_legcode":"RS","source_attributes":{"OBJECTID":208148,"clickcode":"WMNrnIN","clicklabel":"Marine Rocky Shore Natural Intertidal","name":null,"orig_dataset":"Elevation Modeled Polygons via ESI Classification","orig_class":"2A","organization":"San Francisco Estuary Institute (SFEI)","orig_dataset_pubyear":2022,"process_adjustment":null,"source_data":"ESI Classification; NOAA VDatum; USGS Modeled Dune Toe; 2016 El Nino DEM; USGS CoNED Topobathy DEM","source_estimatedyear":2016,"orig_scale":null,"legend_headings":"Estuarine and Marine","legcode":"RS","leglabellevel1":"Rocky Shore","leglabellevel2":"Rocky Shore","major_class":"Wetland","wetland_class":"Marine","anthropogenic_modifier":"Natural","wetland_type":"Rocky","wetland_subtype":"none","tidal_modifier":"Intertidal","vegetation_modifier":"Non-vegetated","salinity_modifier":"Saline","salinity_source":"CARI Marine","salinity_additional_information":"Wetland Mapping classified Marine","lastupdate":1770120526000,"CARI_id":208148,"Shape__Area":3836.28515625,"Shape__Length":640.0251427966372}},"geometry":{"type":"Polygon","coordinates":[[[-117.245628913608,32.6722659040156],[-117.2456075364,32.6722489497735],[-117.24560211866,32.6722173876976],[-117.245570084737,32.6722039186677],[-117.2455699976,32.6721723459894],[-117.245623103305,32.6720910553465],[-117.245622980236,32.672045951568],[-117.245574960792,32.6720370241221],[-117.245559048934,32.6720686286077],[-117.245543050837,32.672068659611],[-117.245537570215,32.6720145451932],[-117.245516177735,32.6719920344993],[-117.24549484634,32.6719920776015],[-117.245484230949,32.6720101389384],[-117.245446877203,32.672001191072],[-117.245478478138,32.671856797051],[-117.245441148646,32.6718568696444],[-117.24543564377,32.6717937346178],[-117.245456851197,32.671748588343],[-117.245424769663,32.671717079023],[-117.245424535203,32.6716313816925],[-117.24547223305,32.6715230388671],[-117.245450741755,32.6714644452435],[-117.245418721307,32.671455487492],[-117.245418585661,32.6714058727546],[-117.24543970685,32.6713291548199],[-117.245482331012,32.6713155404686],[-117.245492880827,32.6712734111313],[-117.245668856299,32.6712717679408],[-117.245615623034,32.6713062582989],[-117.245626486361,32.6713784036067],[-117.245658432249,32.6713602990396],[-117.245679813051,32.6713782992533],[-117.245658334332,32.6713242169333],[-117.245711686175,32.6713331323516],[-117.245722301567,32.6713150701217],[-117.245744052475,32.6714683819352],[-117.245808513783,32.6716396513006],[-117.245809156079,32.6718741907083],[-117.245767037668,32.6720727316321],[-117.245778182168,32.6722479047369],[-117.245628913608,32.6722659040156]],[[-117.245735266952,32.6721553652633],[-117.245724474592,32.6721088988842],[-117.245724573406,32.6721449814297],[-117.245703217757,32.6721360018173],[-117.245692600569,32.6721540646375],[-117.245703414488,32.6722081683843],[-117.24573541158,32.6722081056216],[-117.245735266952,32.6721553652633]],[[-117.24570230417,32.6718022333336],[-117.245702254763,32.6717841923716],[-117.245680948521,32.671793254443],[-117.245680873961,32.6717661922396],[-117.245712895308,32.6717751507161],[-117.245734127888,32.6717390256751],[-117.245712772238,32.6717300467781],[-117.245702155948,32.6717481089241],[-117.245712673424,32.671693964065],[-117.245691317775,32.6716849851635],[-117.245680726637,32.6717120678083],[-117.245659346734,32.6716940676619],[-117.245616684842,32.671694151598],[-117.245563283592,32.6716671937178],[-117.245552494826,32.6716221101421],[-117.245520522886,32.6716311941593],[-117.245509832934,32.6716221940784],[-117.245478010115,32.6716854018196],[-117.245499513088,32.6717485059193],[-117.245563406661,32.6717122976875],[-117.245616857319,32.6717572972815],[-117.245627473609,32.6717392343811],[-117.245648804105,32.6717391927911],[-117.245638187815,32.6717572549353],[-117.245670332231,32.6718113173325],[-117.24570230417,32.6718022333336]]]}},{"type":"Feature","id":"208150","properties":{"site_id":"cabrillo-tidepools","source_feature_id":208150,"source_dataset":"California Aquatic Resources Inventory (CARI) v3.3","source_class":"Marine Rocky Shore Natural Intertidal","source_legcode":"RS","source_attributes":{"OBJECTID":208150,"clickcode":"WMNrnIN","clicklabel":"Marine Rocky Shore Natural Intertidal","name":null,"orig_dataset":"Elevation Modeled Polygons via ESI Classification","orig_class":"6A/2A","organization":"San Francisco Estuary Institute (SFEI)","orig_dataset_pubyear":2022,"process_adjustment":null,"source_data":"ESI Classification; NOAA VDatum; USGS Modeled Dune Toe; 2016 El Nino DEM; USGS CoNED Topobathy DEM","source_estimatedyear":2016,"orig_scale":null,"legend_headings":"Estuarine and Marine","legcode":"RS","leglabellevel1":"Rocky Shore","leglabellevel2":"Rocky Shore","major_class":"Wetland","wetland_class":"Marine","anthropogenic_modifier":"Natural","wetland_type":"Rocky","wetland_subtype":"none","tidal_modifier":"Intertidal","vegetation_modifier":"Non-vegetated","salinity_modifier":"Saline","salinity_source":"CARI Marine","salinity_additional_information":"Wetland Mapping classified Marine","lastupdate":1770120526000,"CARI_id":208150,"Shape__Area":89868.28515625,"Shape__Length":3239.719808695685}},"geometry":{"type":"Polygon","coordinates":[[[-117.244934932712,32.6680916665946],[-117.244908022779,32.6680015101804],[-117.24488665635,32.6679880200973],[-117.244881360782,32.6680015623591],[-117.244844021409,32.6679971249016],[-117.244838738417,32.6680151764592],[-117.244822629827,32.6679746139517],[-117.24480670629,32.6680017083082],[-117.24480125172,32.6679566145647],[-117.244822557063,32.6679475521042],[-117.244854588291,32.6679610210195],[-117.244886510823,32.6679338964021],[-117.24489174351,32.6678978023252],[-117.244945068403,32.6678976987239],[-117.244950265157,32.6678480736925],[-117.24498230986,32.6678660526836],[-117.245019624979,32.6678614692701],[-117.245013996135,32.6677532315245],[-117.245040596149,32.6677306267424],[-117.245072592343,32.6677305647328],[-117.245072480053,32.6676899703351],[-117.244965658688,32.6676270335177],[-117.244997555169,32.6675908878941],[-117.244986705317,32.6675232533872],[-117.244960019065,32.6675142838974],[-117.244965301159,32.6674962322387],[-117.244927901598,32.6674692428432],[-117.244943861068,32.667455680839],[-117.24493843165,32.6674196084992],[-117.244890401427,32.6674061697511],[-117.244895610757,32.6673610560454],[-117.244879575829,32.6673475560347],[-117.244906214471,32.6673384829253],[-117.244895438281,32.6672979102799],[-117.244842040623,32.6672709525856],[-117.244804468587,32.6671808172738],[-117.244783125514,32.6671763487705],[-117.24478827286,32.6671086821887],[-117.244772238831,32.6670951821399],[-117.244750922708,32.6670997338314],[-117.244740209399,32.667081713094],[-117.244750761909,32.667041099496],[-117.244723841197,32.6669464326712],[-117.244745109709,32.6669238397846],[-117.244744877046,32.6668381416379],[-117.244686110158,32.6667976632932],[-117.24466478056,32.6667977041292],[-117.244632465464,32.6666804970341],[-117.244669472461,32.6665631536647],[-117.244663771752,32.6664278520388],[-117.244599659888,32.6663828732038],[-117.244604932999,32.66636031118],[-117.244567469659,32.6663107699923],[-117.244444714875,32.6662704146738],[-117.244353807165,32.6661758733226],[-117.244241727062,32.6661400084291],[-117.244220288768,32.6660994564139],[-117.244182913462,32.6660814876547],[-117.244188184776,32.6660589247986],[-117.244161484151,32.6660454457656],[-117.244150748385,32.6660184045082],[-117.244124062133,32.6660094356236],[-117.244092164754,32.6660455811306],[-117.244118911193,32.6660771007692],[-117.244097583391,32.666077143118],[-117.244092214161,32.6660636224952],[-117.244076253793,32.6660771847107],[-117.244060231442,32.6660681946575],[-117.244086782947,32.6660275488372],[-117.244033313424,32.6659735283144],[-117.244043940494,32.6659599766705],[-117.244022538133,32.6659329558055],[-117.244006528358,32.6659284766526],[-117.244022635151,32.6659690385764],[-117.243990591346,32.6659510592036],[-117.243995986628,32.6659736009125],[-117.243980037938,32.6659916740532],[-117.243974557317,32.6659375589799],[-117.243942513512,32.6659195803571],[-117.243921209965,32.6659286422671],[-117.243910496657,32.6659106212935],[-117.243878479802,32.6659016629853],[-117.243857037914,32.665861110862],[-117.243841041614,32.6658611418675],[-117.243808899893,32.6658070796513],[-117.243744753894,32.6657485692461],[-117.243733988483,32.665712505292],[-117.24368588909,32.6656720060191],[-117.243680445299,32.665631422786],[-117.243589562742,32.6655459018711],[-117.243578824281,32.6655188597063],[-117.243536081542,32.665487369364],[-117.243504112297,32.6654964517361],[-117.243466736093,32.6654784836119],[-117.243439610565,32.6653071396693],[-117.243279615223,32.6652984301022],[-117.243215493478,32.6652489389936],[-117.243188819802,32.665244480981],[-117.243172848655,32.6652535323722],[-117.243146162403,32.6652445626546],[-117.243130225391,32.6652671461346],[-117.243082222117,32.6652627282035],[-117.242895153349,32.665100715818],[-117.242809385799,32.6649339970644],[-117.242803929432,32.6648889032854],[-117.242707776459,32.6648259433204],[-117.242670513443,32.664848566987],[-117.242627855145,32.6648486494172],[-117.24263324863,32.6648711914041],[-117.242612016948,32.6649073161968],[-117.24248939781,32.6649165740754],[-117.242446823954,32.6649482287226],[-117.242415110729,32.6650520299933],[-117.242287379279,32.6651424843157],[-117.242287414313,32.6651560156652],[-117.242255435188,32.6651605886302],[-117.242244829677,32.6651831607879],[-117.242223486605,32.6651786906723],[-117.242175583044,32.6652103565702],[-117.242106310359,32.665228531201],[-117.242063641281,32.6652241034369],[-117.241999700996,32.6652422682338],[-117.241983679543,32.6652332780966],[-117.241925084233,32.6652559432531],[-117.24187707018,32.6652470151286],[-117.241866440415,32.6652605668807],[-117.241786446337,32.6652562109606],[-117.241781148972,32.6652697528803],[-117.2417118161,32.665265375786],[-117.241514628709,32.665306349403],[-117.241477351319,32.6653244620029],[-117.241472081802,32.6653470242882],[-117.24142944686,32.6653561270929],[-117.241386919716,32.665405823838],[-117.241312293073,32.6654149886481],[-117.241248403093,32.6654511941381],[-117.241227048342,32.6654422146092],[-117.241227083376,32.6654557451571],[-117.241163134108,32.6654693997254],[-117.241163182617,32.6654874419625],[-117.241099218975,32.6654965855896],[-117.241014092822,32.6655689155718],[-117.240928823837,32.665587120379],[-117.240918208446,32.6656051822544],[-117.240896877949,32.6656052238472],[-117.240896926458,32.6656232653006],[-117.240875550148,32.6656052639275],[-117.240864932959,32.6656233273117],[-117.240768949768,32.6656235103201],[-117.24072636603,32.6656506545446],[-117.24068905181,32.6656552373153],[-117.2406731139,32.6656778191791],[-117.24060914936,32.6656869627868],[-117.240577216049,32.6657095764043],[-117.240461266902,32.665461725459],[-117.240501922855,32.6654706686866],[-117.240512732283,32.6655247726992],[-117.240608616659,32.6654885052278],[-117.240597858436,32.6654524426812],[-117.240501730615,32.6653985027279],[-117.24050158419,32.6653443774643],[-117.240565525373,32.6653262134444],[-117.240565378948,32.6652720888933],[-117.240544025994,32.6652631085903],[-117.240522793414,32.6652992332246],[-117.240480136014,32.6652993141418],[-117.240469397553,32.6652722719025],[-117.240405288385,32.6652272909733],[-117.240405193163,32.6651912079029],[-117.240415783402,32.6651641255503],[-117.240437090542,32.6651550635628],[-117.240437018677,32.6651280016177],[-117.24045834558,32.6651279607808],[-117.240458443497,32.6651640438767],[-117.240479797349,32.6651730241898],[-117.240533096192,32.665163900948],[-117.240586466001,32.6651818403985],[-117.240586371678,32.6651457573098],[-117.240532998275,32.6651278170958],[-117.240564920807,32.6651006938871],[-117.240564823789,32.6650646107657],[-117.240532806036,32.6650556508601],[-117.240521996608,32.6650015473198],[-117.240500643654,32.6649925669896],[-117.240489735411,32.6649023794679],[-117.240500329243,32.6648752970277],[-117.240542964185,32.664866194174],[-117.240575052905,32.6649022168764],[-117.240596382503,32.6649021752833],[-117.240617614185,32.6648660512448],[-117.24058559733,32.6648570913193],[-117.240585523668,32.6648300292839],[-117.240649416343,32.6647938242985],[-117.240681337078,32.6647667002323],[-117.240681288569,32.6647486586059],[-117.240713353933,32.6647756586543],[-117.240734683531,32.6647756185735],[-117.240798549256,32.6647303916162],[-117.240830542755,32.6647303303607],[-117.240841135689,32.6647032478684],[-117.241102273247,32.6646486207959],[-117.242215770975,32.6642946643859],[-117.242455578036,32.6642400763882],[-117.242743494373,32.6642305000605],[-117.242951538803,32.6642616701981],[-117.243116973444,32.6643109637174],[-117.243725488624,32.6645443252305],[-117.243794976905,32.6646073368182],[-117.243795026312,32.6646253777169],[-117.243869656549,32.6646162120697],[-117.243891009504,32.6646251909252],[-117.243816452928,32.6646614194225],[-117.243805886944,32.6646975231252],[-117.243880514486,32.6646883574854],[-117.243891204438,32.6646973575085],[-117.243880614199,32.6647244407588],[-117.24393405767,32.6647694400908],[-117.243987380767,32.6647693372421],[-117.244019447928,32.6647963372842],[-117.244008907096,32.6648414621158],[-117.244030283407,32.6648594621302],[-117.244094223692,32.6648412964993],[-117.244104839084,32.6648232337132],[-117.244147496483,32.6648231512831],[-117.244200870784,32.6648410885333],[-117.244179710968,32.6649042761156],[-117.244201090872,32.6649222753612],[-117.244254362765,32.6649041309177],[-117.244275619599,32.6648770265471],[-117.244403594493,32.6648767769881],[-117.244435687705,32.6649127981739],[-117.244462322753,32.6649037255735],[-117.244499735788,32.6649352251963],[-117.244499796873,32.6649577777488],[-117.244531839779,32.6649757565651],[-117.244542601597,32.6650118185478],[-117.244595998355,32.6650387776798],[-117.24459609717,32.6650748608117],[-117.244692213312,32.6651242877366],[-117.245440784828,32.665871555168],[-117.245451534967,32.6659031066297],[-117.245430305981,32.6659392310053],[-117.245355651489,32.6659393769577],[-117.245313067751,32.6659665233549],[-117.245313140515,32.6659935850462],[-117.245334494367,32.6660025645196],[-117.245334643488,32.6660566893846],[-117.245377300887,32.6660566061993],[-117.245387842617,32.6660114812251],[-117.245419837014,32.666011418458],[-117.245419935829,32.6660475019534],[-117.245452030837,32.6660835226673],[-117.245558701286,32.6660923350051],[-117.2456014575,32.6661283337702],[-117.245601506907,32.666146375118],[-117.245633575865,32.6661733747441],[-117.245633674679,32.6662094581741],[-117.245665719382,32.6662274367386],[-117.245676482098,32.6662634989725],[-117.245708550157,32.6662904993194],[-117.245751232709,32.6662994364142],[-117.245762022374,32.6663445196506],[-117.245783376227,32.6663534990887],[-117.245751505797,32.6663986647265],[-117.245762294563,32.6664437479127],[-117.24570896967,32.6664438522719],[-117.245741186849,32.6665249763894],[-117.245730744832,32.6666061843741],[-117.24575212294,32.6666241847893],[-117.245890838091,32.6666509747969],[-117.24584830376,32.6666961622148],[-117.245869807632,32.6667592668132],[-117.245805841295,32.6667684118227],[-117.245795326515,32.6668225581542],[-117.245827370319,32.6668405373515],[-117.245870201992,32.6669035987434],[-117.24592355114,32.6669125146028],[-117.245923649056,32.6669485977343],[-117.245913033665,32.666966660847],[-117.245859684517,32.6669577442368],[-117.245859980961,32.667065993533],[-117.245817296612,32.6670570557586],[-117.245806582405,32.6670390350126],[-117.245753234156,32.6670301191659],[-117.245742592713,32.6670391605453],[-117.245753655465,32.6671834723617],[-117.245711241509,32.6672737642082],[-117.245722399483,32.6674541585731],[-117.245701169598,32.6674902838342],[-117.245658582267,32.667517429004],[-117.245658631675,32.6675354700714],[-117.245626686685,32.6675535746573],[-117.245584297881,32.6676528862731],[-117.245509693695,32.667671074019],[-117.245477873571,32.6677342822867],[-117.245478167321,32.6678425313984],[-117.245510284787,32.6678875730207],[-117.245542304337,32.6678965311298],[-117.245595753198,32.6679415311331],[-117.24559582686,32.6679685929825],[-117.245510531824,32.6679777809723],[-117.245457182676,32.667968864463],[-117.24544659064,32.6679959474781],[-117.24542526194,32.667995989826],[-117.245403908088,32.6679870105529],[-117.245361025211,32.667905906668],[-117.245350558041,32.6679780932883],[-117.245371886741,32.6679780516966],[-117.245371961301,32.6680051142911],[-117.245361336926,32.6680200260517],[-117.244934932712,32.6680916665946]],[[-117.245425040056,32.6679148027658],[-117.245425137973,32.6679508854927],[-117.245478438612,32.6679417602658],[-117.245457009301,32.6679057191271],[-117.245425040056,32.6679148027658]],[[-117.244703185335,32.6652370260038],[-117.2447136552,32.6651648401942],[-117.244692302245,32.6651558606366],[-117.244671021156,32.6651739430175],[-117.24467116848,32.6652280683843],[-117.244703185335,32.6652370260038]],[[-117.24340026705,32.6645629983602],[-117.243421596648,32.6645629567668],[-117.243421475376,32.6645178529695],[-117.24344275377,32.6644997696995],[-117.243389407317,32.6644908528432],[-117.2433786455,32.6644547898941],[-117.243357315902,32.6644548314875],[-117.243378839536,32.6645269558587],[-117.2433682475,32.6645540399168],[-117.24340026705,32.6645629983602]]]}}]}