{"type":"FeatureCollection","properties":{"site_id":"carpinteria-reef","dataset_name":"California Aquatic Resources Inventory (CARI) v3.3","source_url":"https://www.sfei.org/data/california-aquatic-resource-inventory-cari-gis-data","dataset_date":"2026-02-19","resolution_meters":null,"provenance":"official-gis","outline_kind":"rocky-intertidal","geometry_status":"exploratory","disclaimer":"Static modeled rocky-intertidal habitat context, not a tide-specific waterline, surveyed boundary, navigational chart, safe route, or real-time access condition.","coordinate":{"latitude":34.3872,"longitude":-119.516},"selection_radius_meters":350.0,"selection_method":"Original CARI Rocky Shore polygons intersecting a local-radius buffer; geometry is selected, not crop-clipped.","simplify_meters":1.0,"source":{"dataset_name":"California Aquatic Resources Inventory (CARI) v3.3","publisher":"San Francisco Estuary Institute","endpoint":"https://services2.arcgis.com/Uq9r85Potqm3MfRV/arcgis/rest/services/biosds2835_fpu/FeatureServer/0/query","dataset_url":"https://www.sfei.org/data/california-aquatic-resource-inventory-cari-gis-data","license":"GPL-3.0-or-later","license_url":"https://www.gnu.org/licenses/gpl-3.0.html","citation":"San Francisco Estuary Institute (SFEI). 2026. California Aquatic Resource Inventory (CARI), version 3.3. Accessed 2026-10-04.","accessed_at":"2026-10-04T17:17:51.912453+00:00"}},"features":[{"type":"Feature","id":"300274","properties":{"site_id":"carpinteria-reef","source_feature_id":300274,"source_dataset":"California Aquatic Resources Inventory (CARI) v3.3","source_class":"Marine Rocky Shore Natural Intertidal","source_legcode":"RS","source_attributes":{"OBJECTID":300274,"clickcode":"WMNrnIN","clicklabel":"Marine Rocky Shore Natural Intertidal","name":null,"orig_dataset":"Elevation Modeled Polygons via ESI Classification","orig_class":"3A/2A","organization":"San Francisco Estuary Institute (SFEI)","orig_dataset_pubyear":2022,"process_adjustment":null,"source_data":"ESI Classification; NOAA VDatum; USGS Modeled Dune Toe; 2016 El Nino DEM; USGS CoNED Topobathy DEM","source_estimatedyear":2016,"orig_scale":null,"legend_headings":"Estuarine and Marine","legcode":"RS","leglabellevel1":"Rocky Shore","leglabellevel2":"Rocky Shore","major_class":"Wetland","wetland_class":"Marine","anthropogenic_modifier":"Natural","wetland_type":"Rocky","wetland_subtype":"none","tidal_modifier":"Intertidal","vegetation_modifier":"Non-vegetated","salinity_modifier":"Saline","salinity_source":"CARI Marine","salinity_additional_information":"Wetland Mapping classified Marine","lastupdate":1770120526000,"CARI_id":300274,"Shape__Area":41666.515625,"Shape__Length":1948.7758114757605}},"geometry":{"type":"Polygon","coordinates":[[[-119.518206564631,34.3888471110312],[-119.518178855198,34.3888296509351],[-119.518178179665,34.3888071269388],[-119.518069501481,34.3888093649572],[-119.518052253828,34.3887781668705],[-119.517871854153,34.3887458204803],[-119.517799729317,34.3886977219368],[-119.517777992782,34.3886981696893],[-119.51776101642,34.3886759814721],[-119.517728412965,34.3886766523597],[-119.517717140006,34.3886633621108],[-119.517673938228,34.3886732667862],[-119.51763522533,34.3886515263151],[-119.517617843828,34.3886158232112],[-119.517551827536,34.3885901359743],[-119.517528472237,34.3885365264163],[-119.517435690641,34.388524913738],[-119.517419928801,34.3885432686631],[-119.517375647248,34.3885171343918],[-119.517369673451,34.3884992272145],[-119.517385570937,34.3884853772453],[-119.517363295412,34.3884678058766],[-119.517325797038,34.3884866070853],[-119.517269839182,34.388433669092],[-119.517226097516,34.3884255539217],[-119.517159676084,34.3883863531977],[-119.51705059276,34.3883750748317],[-119.517017179923,34.3883487173719],[-119.516979007812,34.3883449952279],[-119.516995174792,34.3883401551803],[-119.51697860357,34.3883314803078],[-119.516962706085,34.3883453310437],[-119.516891794873,34.388337775558],[-119.516801210556,34.3882179344321],[-119.516763037546,34.3882142130237],[-119.516729759457,34.3881923597532],[-119.516659253385,34.3881983184562],[-119.516554525094,34.3881508897487],[-119.516516352983,34.3881471683373],[-119.515975332721,34.3878743217076],[-119.515848735843,34.3878228355727],[-119.515832568863,34.3878276763917],[-119.515837733278,34.3878185544501],[-119.515493240146,34.3877535199081],[-119.515160694608,34.3877242992718],[-119.514979892487,34.3876784337423],[-119.514814854003,34.387614213804],[-119.514683632598,34.3875898665699],[-119.51439770064,34.3874830568314],[-119.514315653912,34.3874667128833],[-119.514276538569,34.3874314570335],[-119.514188787539,34.3874062149686],[-119.514133101873,34.3873622841204],[-119.514078358539,34.3873498869583],[-119.514077684803,34.3873273625638],[-119.514050244864,34.3873189122077],[-119.514033135551,34.387292217854],[-119.514098341563,34.3872908767977],[-119.51409209917,34.3872639600376],[-119.51401602534,34.3872655242331],[-119.514027836389,34.3872968348235],[-119.513984095622,34.3872887180604],[-119.513946462499,34.3873030145049],[-119.51390379971,34.3873309372295],[-119.513909638759,34.3873443396299],[-119.513743479178,34.3874243848081],[-119.513591734862,34.3874410267764],[-119.513378869174,34.3874138483774],[-119.513221483438,34.38742159076],[-119.51337174194,34.3870443726534],[-119.513735439256,34.3869737908984],[-119.513994109142,34.386896351799],[-119.514157123722,34.3868930002545],[-119.514223139115,34.3869186894949],[-119.514345917255,34.3870243464486],[-119.514411932649,34.3870500356487],[-119.514489892941,34.3871115383178],[-119.514511628577,34.3871110912981],[-119.514623000808,34.3871989532352],[-119.514777306221,34.3872679016618],[-119.515039210042,34.3872985761949],[-119.515345932609,34.3873734047208],[-119.515662715409,34.3874209791681],[-119.515924350634,34.3874426413785],[-119.516065360981,34.3874307260886],[-119.516359869155,34.3874607274406],[-119.516559286165,34.3874566242171],[-119.516666333906,34.3875136853237],[-119.516781223939,34.3876887944466],[-119.516818786993,34.3877226520571],[-119.516861439901,34.3877520728505],[-119.516976757532,34.387767012682],[-119.517046461408,34.3877699082795],[-119.517064038744,34.3877176029209],[-119.517195170317,34.387563387286],[-119.517162265028,34.3875163348108],[-119.51717710879,34.3875160293858],[-119.517233066646,34.3875689687007],[-119.517298812545,34.3875856454824],[-119.517321356665,34.3876122270617],[-119.51738683307,34.3876198945525],[-119.517410458762,34.387682513974],[-119.517542490447,34.387733886773],[-119.517632401925,34.3878312035915],[-119.517719883461,34.3878474325639],[-119.517742698873,34.3878830233149],[-119.517830450801,34.3879082615294],[-119.517853535707,34.3879528629846],[-119.517908414686,34.3879697628267],[-119.517975780248,34.3880404979362],[-119.518041797438,34.3880661831179],[-119.518108893505,34.388127908177],[-119.518152635171,34.3881360226348],[-119.518164042877,34.3881538179509],[-119.518239848111,34.3881432423221],[-119.518240387998,34.3881612615143],[-119.518295806865,34.3881961812404],[-119.518307753559,34.3882319949794],[-119.518352035113,34.3882581293398],[-119.518417512416,34.3882657960301],[-119.518495746694,34.3883363062709],[-119.518496286581,34.3883543254216],[-119.518618532919,34.3884419584704],[-119.518298853052,34.3888422294992],[-119.518276666461,34.3888276367932],[-119.518238629097,34.3888284203589],[-119.518206564631,34.3888471110312]],[[-119.517022073945,34.3883305862814],[-119.517065545218,34.388329692255],[-119.517081307957,34.3883113365417],[-119.517053329029,34.3882848671231],[-119.517009856857,34.3882857618913],[-119.516983632339,34.3883178541881],[-119.517022073945,34.3883305862814]]]}}]}