{"type":"FeatureCollection","properties":{"site_id":"coal-oil-point","dataset_name":"California Aquatic Resources Inventory (CARI) v3.3","source_url":"https://www.sfei.org/data/california-aquatic-resource-inventory-cari-gis-data","dataset_date":"2026-02-19","resolution_meters":null,"provenance":"official-gis","outline_kind":"rocky-intertidal","geometry_status":"exploratory","disclaimer":"Static modeled rocky-intertidal habitat context, not a tide-specific waterline, surveyed boundary, navigational chart, safe route, or real-time access condition.","coordinate":{"latitude":34.407,"longitude":-119.8778},"selection_radius_meters":350.0,"selection_method":"Original CARI Rocky Shore polygons intersecting a local-radius buffer; geometry is selected, not crop-clipped.","simplify_meters":1.0,"source":{"dataset_name":"California Aquatic Resources Inventory (CARI) v3.3","publisher":"San Francisco Estuary Institute","endpoint":"https://services2.arcgis.com/Uq9r85Potqm3MfRV/arcgis/rest/services/biosds2835_fpu/FeatureServer/0/query","dataset_url":"https://www.sfei.org/data/california-aquatic-resource-inventory-cari-gis-data","license":"GPL-3.0-or-later","license_url":"https://www.gnu.org/licenses/gpl-3.0.html","citation":"San Francisco Estuary Institute (SFEI). 2026. California Aquatic Resource Inventory (CARI), version 3.3. Accessed 2026-10-04.","accessed_at":"2026-10-04T17:17:52.405511+00:00"}},"features":[{"type":"Feature","id":"298155","properties":{"site_id":"coal-oil-point","source_feature_id":298155,"source_dataset":"California Aquatic Resources Inventory (CARI) v3.3","source_class":"Marine Rocky Shore Natural Intertidal","source_legcode":"RS","source_attributes":{"OBJECTID":298155,"clickcode":"WMNrnIN","clicklabel":"Marine Rocky Shore Natural Intertidal","name":null,"orig_dataset":"Elevation Modeled Polygons via ESI Classification","orig_class":"3A/2A","organization":"San Francisco Estuary Institute (SFEI)","orig_dataset_pubyear":2022,"process_adjustment":null,"source_data":"ESI Classification; NOAA VDatum; USGS Modeled Dune Toe; 2016 El Nino DEM; USGS CoNED Topobathy DEM","source_estimatedyear":2016,"orig_scale":null,"legend_headings":"Estuarine and Marine","legcode":"RS","leglabellevel1":"Rocky Shore","leglabellevel2":"Rocky Shore","major_class":"Wetland","wetland_class":"Marine","anthropogenic_modifier":"Natural","wetland_type":"Rocky","wetland_subtype":"none","tidal_modifier":"Intertidal","vegetation_modifier":"Non-vegetated","salinity_modifier":"Saline","salinity_source":"CARI Marine","salinity_additional_information":"Wetland Mapping classified Marine","lastupdate":1770120526000,"CARI_id":298155,"Shape__Area":47615.08984375,"Shape__Length":2144.7629518641647}},"geometry":{"type":"Polygon","coordinates":[[[-119.875168167822,34.4088431351363],[-119.87460655548,34.4080037821574],[-119.874628239912,34.4080032722523],[-119.874649049386,34.4079757410768],[-119.8747791461,34.4079636664],[-119.874733827891,34.4079106480836],[-119.874753403977,34.4078470877225],[-119.874709318256,34.4078300962867],[-119.874675175089,34.4077858285625],[-119.874631705613,34.4077868505988],[-119.874620222448,34.4077690920675],[-119.874663691027,34.407768070031],[-119.874694750278,34.4077222681066],[-119.874792863375,34.4077289747153],[-119.87478477135,34.4078102936924],[-119.874796255413,34.4078280514739],[-119.874840033012,34.4078360365452],[-119.874852133319,34.4078718077875],[-119.874842499786,34.4079080918848],[-119.874821074068,34.4079176096299],[-119.87484342505,34.4079351124359],[-119.874799955574,34.4079361352115],[-119.874800573615,34.4079541486601],[-119.874855526256,34.407970884377],[-119.874801806103,34.4079901762868],[-119.874802731368,34.4080171968113],[-119.874899302956,34.4079788686935],[-119.874920111531,34.40795133751],[-119.874876333932,34.4079433531908],[-119.87490523543,34.4078345031211],[-119.874850282789,34.4078177673769],[-119.874848125036,34.4077547183342],[-119.874922344743,34.4076988872444],[-119.874988164304,34.4077153673177],[-119.875021690329,34.4077416223299],[-119.875064850785,34.4077315924345],[-119.875074484318,34.4076953082606],[-119.87513876237,34.407666754946],[-119.875151170799,34.4077115333812],[-119.875207048704,34.4077552897558],[-119.875231558339,34.4078358416247],[-119.875122887342,34.4078383970845],[-119.875113870053,34.4078926946581],[-119.87515733953,34.407891671882],[-119.875202658637,34.4079446916927],[-119.875245819094,34.4079346618217],[-119.875244584808,34.4078986334299],[-119.875304434166,34.407915255022],[-119.875353257602,34.4078960772308],[-119.875373140912,34.4078415247063],[-119.87540574257,34.4078407583649],[-119.875461311456,34.40787550757],[-119.875504162891,34.4078564713278],[-119.875503237627,34.4078294507514],[-119.875524355222,34.4078109251462],[-119.87555695688,34.4078101580633],[-119.875557574023,34.4078281722802],[-119.875622468319,34.4078176310066],[-119.875642043508,34.4077540713161],[-119.875663778246,34.4077535606683],[-119.875706012539,34.4077165094202],[-119.875782081877,34.4077147195582],[-119.875834566846,34.4076594005723],[-119.875898844898,34.407630845022],[-119.87587310008,34.4075142666218],[-119.875961270624,34.4075482488772],[-119.876003504917,34.4075111982794],[-119.876002887774,34.4074931847354],[-119.87603518131,34.4074834105055],[-119.87601313845,34.4074749154923],[-119.876001037245,34.407439142598],[-119.876042963416,34.4073930855391],[-119.876096989893,34.4073827999063],[-119.876096373649,34.4073647863347],[-119.876128358165,34.4073460049309],[-119.876182692765,34.4073447264523],[-119.876181149459,34.407299692125],[-119.876213751117,34.4072989250374],[-119.876214676382,34.4073259457852],[-119.87624727804,34.4073251786979],[-119.876246351877,34.4072981572087],[-119.876267469473,34.4072796329682],[-119.876343847832,34.4072868495218],[-119.87641775762,34.4072220109475],[-119.876416832355,34.4071949901661],[-119.876372746634,34.407177999339],[-119.876370587084,34.4071149512964],[-119.876435480482,34.4071044091918],[-119.876458448607,34.4071399257918],[-119.876480183346,34.4071394136579],[-119.876511858841,34.4071116257606],[-119.876508465006,34.4070125503769],[-119.876563108626,34.407020278347],[-119.876594166979,34.4069744767544],[-119.876648193457,34.406964190329],[-119.876678634667,34.4069003757752],[-119.876743836187,34.4068988408517],[-119.876732044002,34.406872075663],[-119.87669913512,34.4068638362849],[-119.876709075877,34.4068365596905],[-119.876806570933,34.4068252504589],[-119.876804718607,34.4067712093722],[-119.876858436962,34.4067519171813],[-119.87686868674,34.4067336470351],[-119.876901904642,34.4067508929089],[-119.87698853188,34.4067398401045],[-119.87704070693,34.4066755125017],[-119.877127334168,34.4066644596873],[-119.87715777448,34.4066006441638],[-119.877277620518,34.406606837243],[-119.877319853913,34.4065697862282],[-119.877341587753,34.406569274832],[-119.877372646106,34.4065234722513],[-119.877371410922,34.4064874454753],[-119.877316458281,34.406470710944],[-119.877315842037,34.4064526956937],[-119.877359308819,34.4064516728999],[-119.877380426414,34.4064331484719],[-119.877356531228,34.4063706112653],[-119.877443158466,34.4063595576695],[-119.877498419229,34.4063852994864],[-119.877541578787,34.4063752686872],[-119.877562694586,34.4063567435012],[-119.8775614603,34.4063207159122],[-119.877604002716,34.4062926720439],[-119.87758103459,34.4062571558254],[-119.87764623611,34.40625562089],[-119.877646853253,34.4062736347005],[-119.877723846958,34.4062988644048],[-119.877732553429,34.4062355600006],[-119.877806152401,34.4061617140662],[-119.877804300973,34.4061076725509],[-119.87784715151,34.4060886351653],[-119.877846224449,34.406061614759],[-119.877791889849,34.4060628939983],[-119.877779479623,34.4060181154218],[-119.877800597219,34.4059995894155],[-119.877876973781,34.4060068060796],[-119.87788691364,34.4059795292059],[-119.877863945514,34.4059440128544],[-119.877918280114,34.4059427336132],[-119.877918897257,34.4059607474911],[-119.877940939219,34.4059692426581],[-119.877984407797,34.4059682191173],[-119.878072577443,34.4060021997772],[-119.878084987668,34.4060469791034],[-119.878030962089,34.4060572649004],[-119.878032505394,34.4061022998967],[-119.878054616527,34.4061107928258],[-119.878129845042,34.4068797347191],[-119.878043216906,34.4068907882462],[-119.878001447042,34.4069413495537],[-119.877984992601,34.4069372302387],[-119.877958750116,34.4069648907161],[-119.87788888634,34.4069890714845],[-119.87789478378,34.4070024536906],[-119.877840911812,34.4070172433383],[-119.877825536248,34.4070446473514],[-119.877809081807,34.4070405280415],[-119.877739988785,34.4070872256475],[-119.877751164725,34.4070959771377],[-119.877596217017,34.4071762450405],[-119.877539226099,34.4072587140751],[-119.87752292527,34.4072590979897],[-119.877476801271,34.4073413112469],[-119.87728177882,34.4075216795588],[-119.87718598158,34.4075825260945],[-119.877133652019,34.4076423505479],[-119.877111917281,34.4076428611964],[-119.877117813823,34.4076562440391],[-119.877064558099,34.4076890470768],[-119.876955083111,34.407826836741],[-119.876832732569,34.4079063368605],[-119.876789573909,34.4079163674761],[-119.876779632254,34.4079436429772],[-119.876715508713,34.4079767023372],[-119.876721406152,34.4079900851264],[-119.876694392015,34.4079952279056],[-119.876652620354,34.4080457892868],[-119.876525453945,34.4081434308233],[-119.87624241007,34.4082943178824],[-119.876216167585,34.4083219779111],[-119.87616772773,34.4083366391086],[-119.875944298753,34.4084816159935],[-119.875633775414,34.4086241350213],[-119.875618245339,34.4086470361103],[-119.875601790898,34.408642915397],[-119.875586259925,34.4086658164808],[-119.875431769459,34.4087595922775],[-119.875297625834,34.4088123262016],[-119.875168167822,34.4088431351363]],[[-119.877959523566,34.406194159711],[-119.877992125224,34.4061933926133],[-119.877991507183,34.4061753787856],[-119.877937173481,34.4061766580232],[-119.877925071378,34.406140886056],[-119.877891544455,34.406114632765],[-119.877837209855,34.4061159127447],[-119.877916056784,34.4061951839902],[-119.877959523566,34.406194159711]],[[-119.874995873646,34.4079405412991],[-119.874995256503,34.4079225271065],[-119.87504774237,34.4078672075169],[-119.875035024921,34.4078134220565],[-119.874958955582,34.4078152104342],[-119.874972289276,34.4078870108388],[-119.874917645656,34.4078792814665],[-119.874918570022,34.407906302768],[-119.8749620386,34.4079052807331],[-119.874952405067,34.4079415633336],[-119.874995873646,34.4079405412991]]]}},{"type":"Feature","id":"298159","properties":{"site_id":"coal-oil-point","source_feature_id":298159,"source_dataset":"California Aquatic Resources Inventory (CARI) v3.3","source_class":"Marine Rocky Shore Natural Intertidal","source_legcode":"RS","source_attributes":{"OBJECTID":298159,"clickcode":"WMNrnIN","clicklabel":"Marine Rocky Shore Natural Intertidal","name":null,"orig_dataset":"Elevation Modeled Polygons via ESI Classification","orig_class":"3A/2A","organization":"San Francisco Estuary Institute (SFEI)","orig_dataset_pubyear":2022,"process_adjustment":null,"source_data":"ESI Classification; NOAA VDatum; USGS Modeled Dune Toe; 2016 El Nino DEM; USGS CoNED Topobathy DEM","source_estimatedyear":2016,"orig_scale":null,"legend_headings":"Estuarine and Marine","legcode":"RS","leglabellevel1":"Rocky Shore","leglabellevel2":"Rocky Shore","major_class":"Wetland","wetland_class":"Marine","anthropogenic_modifier":"Natural","wetland_type":"Rocky","wetland_subtype":"none","tidal_modifier":"Intertidal","vegetation_modifier":"Non-vegetated","salinity_modifier":"Saline","salinity_source":"CARI Marine","salinity_additional_information":"Wetland Mapping classified Marine","lastupdate":1770120526000,"CARI_id":298159,"Shape__Area":32.3671875,"Shape__Length":24.259580721503642}},"geometry":{"type":"Polygon","coordinates":[[[-119.87673845977,34.4067418923554],[-119.876726489719,34.4067099509067],[-119.876769649276,34.4066999208876],[-119.876782059502,34.4067446998404],[-119.87673845977,34.4067418923554]]]}},{"type":"Feature","id":"298160","properties":{"site_id":"coal-oil-point","source_feature_id":298160,"source_dataset":"California Aquatic Resources Inventory (CARI) v3.3","source_class":"Marine Rocky Shore Natural Intertidal","source_legcode":"RS","source_attributes":{"OBJECTID":298160,"clickcode":"WMNrnIN","clicklabel":"Marine Rocky Shore Natural Intertidal","name":null,"orig_dataset":"Elevation Modeled Polygons via ESI Classification","orig_class":"3A/2A","organization":"San Francisco Estuary Institute (SFEI)","orig_dataset_pubyear":2022,"process_adjustment":null,"source_data":"ESI Classification; NOAA VDatum; USGS Modeled Dune Toe; 2016 El Nino DEM; USGS CoNED Topobathy DEM","source_estimatedyear":2016,"orig_scale":null,"legend_headings":"Estuarine and Marine","legcode":"RS","leglabellevel1":"Rocky Shore","leglabellevel2":"Rocky Shore","major_class":"Wetland","wetland_class":"Marine","anthropogenic_modifier":"Natural","wetland_type":"Rocky","wetland_subtype":"none","tidal_modifier":"Intertidal","vegetation_modifier":"Non-vegetated","salinity_modifier":"Saline","salinity_source":"CARI Marine","salinity_additional_information":"Wetland Mapping classified Marine","lastupdate":1770120526000,"CARI_id":298160,"Shape__Area":125.0859375,"Shape__Length":72.75653973430575}},"geometry":{"type":"Polygon","coordinates":[[[-119.875306395188,34.4077980240712],[-119.875294294881,34.4077622520563],[-119.875336221052,34.4077161951753],[-119.875401732491,34.407723668127],[-119.875400807226,34.4076966475076],[-119.875422232944,34.4076871297373],[-119.875476876565,34.4076948576452],[-119.87546724393,34.4077311403369],[-119.875380614895,34.4077421930103],[-119.875338379704,34.4077792435059],[-119.875338997745,34.4077972569883],[-119.875306395188,34.4077980240712]]]}}]}