{"type":"FeatureCollection","properties":{"site_id":"dike-rock-scripps-beach","dataset_name":"California Aquatic Resources Inventory (CARI) v3.3","source_url":"https://www.sfei.org/data/california-aquatic-resource-inventory-cari-gis-data","dataset_date":"2026-02-19","resolution_meters":null,"provenance":"official-gis","outline_kind":"rocky-intertidal","geometry_status":"exploratory","disclaimer":"Static modeled rocky-intertidal habitat context, not a tide-specific waterline, surveyed boundary, navigational chart, safe route, or real-time access condition.","coordinate":{"latitude":32.87132,"longitude":-117.253277},"selection_radius_meters":350.0,"selection_method":"Original CARI Rocky Shore polygons intersecting a local-radius buffer; geometry is selected, not crop-clipped.","simplify_meters":1.0,"source":{"dataset_name":"California Aquatic Resources Inventory (CARI) v3.3","publisher":"San Francisco Estuary Institute","endpoint":"https://services2.arcgis.com/Uq9r85Potqm3MfRV/arcgis/rest/services/biosds2835_fpu/FeatureServer/0/query","dataset_url":"https://www.sfei.org/data/california-aquatic-resource-inventory-cari-gis-data","license":"GPL-3.0-or-later","license_url":"https://www.gnu.org/licenses/gpl-3.0.html","citation":"San Francisco Estuary Institute (SFEI). 2026. California Aquatic Resource Inventory (CARI), version 3.3. Accessed 2026-09-18.","accessed_at":"2026-09-18T16:45:06.910147+00:00"}},"features":[{"type":"Feature","id":"224961","properties":{"site_id":"dike-rock-scripps-beach","source_feature_id":224961,"source_dataset":"California Aquatic Resources Inventory (CARI) v3.3","source_class":"Marine Rocky Shore Natural Intertidal","source_legcode":"RS","source_attributes":{"OBJECTID":224961,"clickcode":"WMNrnIN","clicklabel":"Marine Rocky Shore Natural Intertidal","name":null,"orig_dataset":"Elevation Modeled Polygons via ESI Classification","orig_class":"2A","organization":"San Francisco Estuary Institute (SFEI)","orig_dataset_pubyear":2022,"process_adjustment":null,"source_data":"ESI Classification; NOAA VDatum; USGS Modeled Dune Toe; 2016 El Nino DEM; USGS CoNED Topobathy DEM","source_estimatedyear":2016,"orig_scale":null,"legend_headings":"Estuarine and Marine","legcode":"RS","leglabellevel1":"Rocky Shore","leglabellevel2":"Rocky Shore","major_class":"Wetland","wetland_class":"Marine","anthropogenic_modifier":"Natural","wetland_type":"Rocky","wetland_subtype":"none","tidal_modifier":"Intertidal","vegetation_modifier":"Non-vegetated","salinity_modifier":"Saline","salinity_source":"CARI Marine","salinity_additional_information":"Wetland Mapping classified Marine","lastupdate":1770120526000,"CARI_id":224961,"Shape__Area":10828.7109375,"Shape__Length":631.6705921554902}},"geometry":{"type":"Polygon","coordinates":[[[-117.254292879758,32.8687813512728],[-117.253619171142,32.8686752008317],[-117.253661736914,32.8686084923129],[-117.253715078875,32.8685723022055],[-117.253715027671,32.8685542610938],[-117.253768419939,32.8685361113289],[-117.253768368735,32.8685180709643],[-117.25372554874,32.8684956061406],[-117.253725485858,32.8684730545423],[-117.253757448814,32.8684369073868],[-117.253757320355,32.8683918056637],[-117.253693161779,32.8683829152433],[-117.253693058473,32.8683468336937],[-117.253714371901,32.8683242390503],[-117.253703259741,32.8681754225541],[-117.253713819437,32.8681302988171],[-117.253767110195,32.868076066551],[-117.253767020364,32.8680444953696],[-117.253820168289,32.8679406513573],[-117.253841546396,32.8679406083498],[-117.253852158195,32.8679135249844],[-117.253884225355,32.8679134593415],[-117.253937539469,32.8678682494561],[-117.253915802036,32.8677420051112],[-117.253936935801,32.8676563084297],[-117.254653368291,32.8677540743795],[-117.254642743917,32.8677766088068],[-117.254621341555,32.8677676330642],[-117.254610729756,32.8677947164742],[-117.254589351649,32.8677947594817],[-117.254589403752,32.8678128007479],[-117.254621470014,32.8678127358594],[-117.254610884267,32.8678488395073],[-117.254643027784,32.8678758353685],[-117.254610987573,32.8678849212595],[-117.254568180155,32.8678669667775],[-117.25454685415,32.8678850517909],[-117.254557748918,32.8679571933703],[-117.254536474117,32.8679933188402],[-117.254568515226,32.8679842329603],[-117.254568592481,32.8680112951777],[-117.254525811114,32.8680023617118],[-117.254547395834,32.8680744820693],[-117.254536732832,32.8680835241781],[-117.254515328673,32.8680745469576],[-117.254504743824,32.8681106504989],[-117.254472702715,32.8681197363659],[-117.254483571431,32.8681828575374],[-117.254526352798,32.8681917917396],[-117.254505000742,32.8682008557174],[-117.254494389842,32.8682279382405],[-117.254451633628,32.8682280257641],[-117.254451736934,32.868264107362],[-117.254473167144,32.8682821047709],[-117.254430514236,32.8683182738704],[-117.254409136129,32.8683183168776],[-117.254441254493,32.8683362931492],[-117.25444133085,32.8683633545046],[-117.254419979692,32.8683724184648],[-117.254430823256,32.8684265200189],[-117.25443087446,32.8684445611566],[-117.254409522404,32.8684536251085],[-117.254420313866,32.8684896847338],[-117.254398910606,32.8684807083089],[-117.254420417172,32.8685257669798],[-117.25438835091,32.8685258318678],[-117.254377764264,32.8685619352253],[-117.254356386157,32.8685619797415],[-117.254345775257,32.8685890629088],[-117.254356541565,32.8686161015517],[-117.254335189509,32.8686251654861],[-117.254346007022,32.8686702467188],[-117.254313914708,32.8686612914385],[-117.254324758272,32.8687153920619],[-117.254314172525,32.8687514960968],[-117.254335550632,32.8687514530898],[-117.254335601836,32.8687694934069],[-117.254292879758,32.8687813512728]]]}},{"type":"Feature","id":"224980","properties":{"site_id":"dike-rock-scripps-beach","source_feature_id":224980,"source_dataset":"California Aquatic Resources Inventory (CARI) v3.3","source_class":"Marine Rocky Shore Natural Intertidal","source_legcode":"RS","source_attributes":{"OBJECTID":224980,"clickcode":"WMNrnIN","clicklabel":"Marine Rocky Shore Natural Intertidal","name":null,"orig_dataset":"Elevation Modeled Polygons via ESI Classification","orig_class":"6A/2A","organization":"San Francisco Estuary Institute (SFEI)","orig_dataset_pubyear":2022,"process_adjustment":null,"source_data":"ESI Classification; NOAA VDatum; USGS Modeled Dune Toe; 2016 El Nino DEM; USGS CoNED Topobathy DEM","source_estimatedyear":2016,"orig_scale":null,"legend_headings":"Estuarine and Marine","legcode":"RS","leglabellevel1":"Rocky Shore","leglabellevel2":"Rocky Shore","major_class":"Wetland","wetland_class":"Marine","anthropogenic_modifier":"Natural","wetland_type":"Rocky","wetland_subtype":"none","tidal_modifier":"Intertidal","vegetation_modifier":"Non-vegetated","salinity_modifier":"Saline","salinity_source":"CARI Marine","salinity_additional_information":"Wetland Mapping classified Marine","lastupdate":1770120526000,"CARI_id":224980,"Shape__Area":86.78515625,"Shape__Length":45.30783153743931}},"geometry":{"type":"Polygon","coordinates":[[[-117.253361712185,32.8721090663437],[-117.253318877818,32.8720820921423],[-117.253318800563,32.8720550296584],[-117.253414952637,32.8720367938446],[-117.253436382847,32.8720547912423],[-117.253425771048,32.8720818740973],[-117.253393779346,32.8721089999494],[-117.253361712185,32.8721090663437]]]}},{"type":"Feature","id":"224981","properties":{"site_id":"dike-rock-scripps-beach","source_feature_id":224981,"source_dataset":"California Aquatic Resources Inventory (CARI) v3.3","source_class":"Marine Rocky Shore Natural Intertidal","source_legcode":"RS","source_attributes":{"OBJECTID":224981,"clickcode":"WMNrnIN","clicklabel":"Marine Rocky Shore Natural Intertidal","name":null,"orig_dataset":"Elevation Modeled Polygons via ESI Classification","orig_class":"6A/2A","organization":"San Francisco Estuary Institute (SFEI)","orig_dataset_pubyear":2022,"process_adjustment":null,"source_data":"ESI Classification; NOAA VDatum; USGS Modeled Dune Toe; 2016 El Nino DEM; USGS CoNED Topobathy DEM","source_estimatedyear":2016,"orig_scale":null,"legend_headings":"Estuarine and Marine","legcode":"RS","leglabellevel1":"Rocky Shore","leglabellevel2":"Rocky Shore","major_class":"Wetland","wetland_class":"Marine","anthropogenic_modifier":"Natural","wetland_type":"Rocky","wetland_subtype":"none","tidal_modifier":"Intertidal","vegetation_modifier":"Non-vegetated","salinity_modifier":"Saline","salinity_source":"CARI Marine","salinity_additional_information":"Wetland Mapping classified Marine","lastupdate":1770120526000,"CARI_id":224981,"Shape__Area":10250.96484375,"Shape__Length":892.3828301667265}},"geometry":{"type":"Polygon","coordinates":[[[-117.252945608953,32.8723847592324],[-117.252351677921,32.8721486577144],[-117.252351609649,32.8721246380714],[-117.252394264354,32.8720884705246],[-117.252388855597,32.8720659296484],[-117.252410247179,32.8720703976857],[-117.252415540053,32.872052345214],[-117.252399494345,32.8720478673676],[-117.25243154893,32.8720432921928],[-117.252415438543,32.8720162636487],[-117.252458221707,32.8720251974646],[-117.252463514581,32.8720071457383],[-117.252474229685,32.8720161444406],[-117.252511540312,32.8719799874123],[-117.252538263395,32.8719799338441],[-117.252548876092,32.8719528502035],[-117.25259161973,32.8719482538983],[-117.252570229046,32.8719437873638],[-117.252575522818,32.8719257348664],[-117.252628981561,32.8719301372708],[-117.252623572805,32.8719075963543],[-117.252666304764,32.87189848975],[-117.252698398875,32.8719074462123],[-117.252698347671,32.8718894042702],[-117.252746333876,32.8718487157655],[-117.252831822949,32.8718395216351],[-117.252847753672,32.8718034075403],[-117.25289579198,32.8717807594549],[-117.252922528538,32.8717852154348],[-117.25293312776,32.8717536221851],[-117.252975858821,32.871744515565],[-117.252965132039,32.8717310065298],[-117.253002543277,32.8717309303269],[-117.252991816494,32.8717174220442],[-117.253018526102,32.8717128574151],[-117.253007823574,32.8717083689887],[-117.253018462322,32.8716903058806],[-117.253039853006,32.8716947724279],[-117.253055824153,32.8716721899549],[-117.253082546338,32.8716721348775],[-117.253071780029,32.8716450956575],[-117.253093095254,32.8716225018546],[-117.253093133882,32.8716360320318],[-117.253109154437,32.8716314892786],[-117.25310907808,32.8716044274116],[-117.253093031474,32.8715999502971],[-117.253114409581,32.8715999072914],[-117.253125022278,32.8715728242892],[-117.253114293698,32.8715593144734],[-117.253157000505,32.8715411872036],[-117.253162242175,32.871505094113],[-117.253188940105,32.8714960191557],[-117.25321547005,32.8714283115554],[-117.253215393694,32.8714012503809],[-117.253194014688,32.8714012933867],[-117.253188631983,32.8713877744909],[-117.253199218629,32.8713516707749],[-117.253172456918,32.8713381941229],[-117.253172393138,32.871315642493],[-117.253204371365,32.8712840060701],[-117.253177660858,32.8712885699668],[-117.253204204278,32.8712253732939],[-117.253188145096,32.8712163850741],[-117.253188067841,32.8711893230804],[-117.253204024615,32.87116222939],[-117.253188015739,32.8711712825012],[-117.253198411043,32.8710675251445],[-117.25317162418,32.8710450285236],[-117.253561948459,32.871103432809],[-117.25353004569,32.8711615692122],[-117.253540940458,32.8712337118983],[-117.253594412675,32.8712426239129],[-117.253615764731,32.8712335602461],[-117.253626504988,32.8712515789325],[-117.253658547895,32.8712424933865],[-117.253733397321,32.8712513616399],[-117.253744345987,32.8713419695775],[-117.253733732392,32.8713686286284],[-117.253755160805,32.8713866261617],[-117.253766210981,32.8715128909702],[-117.253734142922,32.871512955856],[-117.253734091718,32.8714949153427],[-117.253701946404,32.8714679183199],[-117.253680568297,32.8714679628345],[-117.253670032856,32.8715221070146],[-117.253691437014,32.871531083886],[-117.253691488218,32.871549124392],[-117.253648732004,32.8715492119124],[-117.25364880836,32.8715762730417],[-117.253670212519,32.8715852499076],[-117.253648988023,32.8716394158962],[-117.253670392182,32.8716483935102],[-117.253670546692,32.8717025164546],[-117.253638632245,32.8717567042515],[-117.253595901183,32.8717658108703],[-117.253585263334,32.8717838739631],[-117.253531817168,32.8717839818543],[-117.253531868372,32.8718020238178],[-117.253489111259,32.8718021098289],[-117.253478473409,32.8718201721597],[-117.253425026345,32.8718202808053],[-117.253392882827,32.8717932838815],[-117.253350150868,32.8718023912512],[-117.253328900321,32.871847537263],[-117.253307547367,32.871856600867],[-117.253307675826,32.8719017030913],[-117.253275710175,32.8719378503432],[-117.253265174733,32.8719919942363],[-117.25319045197,32.8720282274624],[-117.253201294635,32.8720823290493],[-117.253190631633,32.8720913715039],[-117.253137159416,32.8720824588201],[-117.253137261823,32.872118541113],[-117.253190734041,32.8721274530387],[-117.253201474298,32.8721454722979],[-117.253222853304,32.8721454292925],[-117.253222904508,32.8721634696735],[-117.253148028132,32.8721455809431],[-117.253083918065,32.8721547312819],[-117.253073202961,32.8721457318392],[-117.253083841708,32.8721276695747],[-117.253041058545,32.872118735769],[-117.252998326585,32.8721278423507],[-117.252987918704,32.872227088941],[-117.252998633809,32.8722360883755],[-117.252955927002,32.8722542147487],[-117.252966745413,32.8722992963997],[-117.252945366407,32.872299339405],[-117.25292408981,32.8723354646149],[-117.252924167065,32.8723625262588],[-117.252945545172,32.8723624832535],[-117.252945608953,32.8723847592324]],[[-117.253125982577,32.8719110911172],[-117.253168689384,32.8718929646738],[-117.25317930208,32.8718658810067],[-117.253104527215,32.8718840738501],[-117.253104655674,32.8719291760604],[-117.253125982577,32.8719110911172]]]}}]}