{"type":"FeatureCollection","properties":{"site_id":"hospital-point","dataset_name":"California Aquatic Resources Inventory (CARI) v3.3","source_url":"https://www.sfei.org/data/california-aquatic-resource-inventory-cari-gis-data","dataset_date":"2026-02-19","resolution_meters":null,"provenance":"official-gis","outline_kind":"rocky-intertidal","geometry_status":"exploratory","disclaimer":"Static modeled rocky-intertidal habitat context, not a tide-specific waterline, surveyed boundary, navigational chart, safe route, or real-time access condition.","coordinate":{"latitude":32.841969,"longitude":-117.282087},"selection_radius_meters":350.0,"selection_method":"Original CARI Rocky Shore polygons intersecting a local-radius buffer; geometry is selected, not crop-clipped.","simplify_meters":1.0,"source":{"dataset_name":"California Aquatic Resources Inventory (CARI) v3.3","publisher":"San Francisco Estuary Institute","endpoint":"https://services2.arcgis.com/Uq9r85Potqm3MfRV/arcgis/rest/services/biosds2835_fpu/FeatureServer/0/query","dataset_url":"https://www.sfei.org/data/california-aquatic-resource-inventory-cari-gis-data","license":"GPL-3.0-or-later","license_url":"https://www.gnu.org/licenses/gpl-3.0.html","citation":"San Francisco Estuary Institute (SFEI). 2026. California Aquatic Resource Inventory (CARI), version 3.3. Accessed 2026-09-18.","accessed_at":"2026-09-18T16:45:09.899728+00:00"}},"features":[{"type":"Feature","id":"224608","properties":{"site_id":"hospital-point","source_feature_id":224608,"source_dataset":"California Aquatic Resources Inventory (CARI) v3.3","source_class":"Marine Rocky Shore Natural Intertidal","source_legcode":"RS","source_attributes":{"OBJECTID":224608,"clickcode":"WMNrnIN","clicklabel":"Marine Rocky Shore Natural Intertidal","name":null,"orig_dataset":"Elevation Modeled Polygons via ESI Classification","orig_class":"2A","organization":"San Francisco Estuary Institute (SFEI)","orig_dataset_pubyear":2022,"process_adjustment":null,"source_data":"ESI Classification; NOAA VDatum; USGS Modeled Dune Toe; 2016 El Nino DEM; USGS CoNED Topobathy DEM","source_estimatedyear":2016,"orig_scale":null,"legend_headings":"Estuarine and Marine","legcode":"RS","leglabellevel1":"Rocky Shore","leglabellevel2":"Rocky Shore","major_class":"Wetland","wetland_class":"Marine","anthropogenic_modifier":"Natural","wetland_type":"Rocky","wetland_subtype":"none","tidal_modifier":"Intertidal","vegetation_modifier":"Non-vegetated","salinity_modifier":"Saline","salinity_source":"CARI Marine","salinity_additional_information":"Wetland Mapping classified Marine","lastupdate":1770120526000,"CARI_id":224608,"Shape__Area":32.69921875,"Shape__Length":31.018309478424303}},"geometry":{"type":"Polygon","coordinates":[[[-117.282095781819,32.8420362296045],[-117.282117152739,32.8420361820561],[-117.282106609213,32.8420813085008],[-117.282095981245,32.8420993731103],[-117.282063952712,32.84210846617],[-117.282063809879,32.8420633638906],[-117.282095781819,32.8420362296045]]]}},{"type":"Feature","id":"224609","properties":{"site_id":"hospital-point","source_feature_id":224609,"source_dataset":"California Aquatic Resources Inventory (CARI) v3.3","source_class":"Marine Rocky Shore Natural Intertidal","source_legcode":"RS","source_attributes":{"OBJECTID":224609,"clickcode":"WMNrnIN","clicklabel":"Marine Rocky Shore Natural Intertidal","name":null,"orig_dataset":"Elevation Modeled Polygons via ESI Classification","orig_class":"2A","organization":"San Francisco Estuary Institute (SFEI)","orig_dataset_pubyear":2022,"process_adjustment":null,"source_data":"ESI Classification; NOAA VDatum; USGS Modeled Dune Toe; 2016 El Nino DEM; USGS CoNED Topobathy DEM","source_estimatedyear":2016,"orig_scale":null,"legend_headings":"Estuarine and Marine","legcode":"RS","leglabellevel1":"Rocky Shore","leglabellevel2":"Rocky Shore","major_class":"Wetland","wetland_class":"Marine","anthropogenic_modifier":"Natural","wetland_type":"Rocky","wetland_subtype":"none","tidal_modifier":"Intertidal","vegetation_modifier":"Non-vegetated","salinity_modifier":"Saline","salinity_source":"CARI Marine","salinity_additional_information":"Wetland Mapping classified Marine","lastupdate":1770120526000,"CARI_id":224609,"Shape__Area":39.81640625,"Shape__Length":28.61630255729631}},"geometry":{"type":"Polygon","coordinates":[[[-117.281989151795,32.8421086344761],[-117.28196772428,32.8420906415684],[-117.281967638042,32.8420635805],[-117.281999666575,32.8420544874357],[-117.282031781346,32.8420724561992],[-117.282031895432,32.8421085378699],[-117.281989151795,32.8421086344761]]]}},{"type":"Feature","id":"224610","properties":{"site_id":"hospital-point","source_feature_id":224610,"source_dataset":"California Aquatic Resources Inventory (CARI) v3.3","source_class":"Marine Rocky Shore Natural Intertidal","source_legcode":"RS","source_attributes":{"OBJECTID":224610,"clickcode":"WMNrnIN","clicklabel":"Marine Rocky Shore Natural Intertidal","name":null,"orig_dataset":"Elevation Modeled Polygons via ESI Classification","orig_class":"2A","organization":"San Francisco Estuary Institute (SFEI)","orig_dataset_pubyear":2022,"process_adjustment":null,"source_data":"ESI Classification; NOAA VDatum; USGS Modeled Dune Toe; 2016 El Nino DEM; USGS CoNED Topobathy DEM","source_estimatedyear":2016,"orig_scale":null,"legend_headings":"Estuarine and Marine","legcode":"RS","leglabellevel1":"Rocky Shore","leglabellevel2":"Rocky Shore","major_class":"Wetland","wetland_class":"Marine","anthropogenic_modifier":"Natural","wetland_type":"Rocky","wetland_subtype":"none","tidal_modifier":"Intertidal","vegetation_modifier":"Non-vegetated","salinity_modifier":"Saline","salinity_source":"CARI Marine","salinity_additional_information":"Wetland Mapping classified Marine","lastupdate":1770120526000,"CARI_id":224610,"Shape__Area":108.05078125,"Shape__Length":64.40432741698126}},"geometry":{"type":"Polygon","coordinates":[[[-117.281873434413,32.8426862116692],[-117.281862634867,32.8426501528753],[-117.281819833737,32.842632209135],[-117.281808977596,32.8425781099621],[-117.281873120003,32.8425869856099],[-117.2819157783,32.8425598280871],[-117.281894549314,32.842604978417],[-117.281915977726,32.8426229712205],[-117.281916063066,32.8426500328731],[-117.281905463844,32.8426771186688],[-117.281873434413,32.8426862116692]]]}},{"type":"Feature","id":"224613","properties":{"site_id":"hospital-point","source_feature_id":224613,"source_dataset":"California Aquatic Resources Inventory (CARI) v3.3","source_class":"Marine Rocky Shore Natural Intertidal","source_legcode":"RS","source_attributes":{"OBJECTID":224613,"clickcode":"WMNrnIN","clicklabel":"Marine Rocky Shore Natural Intertidal","name":null,"orig_dataset":"Elevation Modeled Polygons via ESI Classification","orig_class":"2A","organization":"San Francisco Estuary Institute (SFEI)","orig_dataset_pubyear":2022,"process_adjustment":null,"source_data":"ESI Classification; NOAA VDatum; USGS Modeled Dune Toe; 2016 El Nino DEM; USGS CoNED Topobathy DEM","source_estimatedyear":2016,"orig_scale":null,"legend_headings":"Estuarine and Marine","legcode":"RS","leglabellevel1":"Rocky Shore","leglabellevel2":"Rocky Shore","major_class":"Wetland","wetland_class":"Marine","anthropogenic_modifier":"Natural","wetland_type":"Rocky","wetland_subtype":"none","tidal_modifier":"Intertidal","vegetation_modifier":"Non-vegetated","salinity_modifier":"Saline","salinity_source":"CARI Marine","salinity_additional_information":"Wetland Mapping classified Marine","lastupdate":1770120526000,"CARI_id":224613,"Shape__Area":45010.13671875,"Shape__Length":3673.710990034042}},"geometry":{"type":"Polygon","coordinates":[[[-117.280530361435,32.843749145154],[-117.280509059685,32.8437717445478],[-117.280482317737,32.8437627837349],[-117.280562304628,32.8437129916969],[-117.280551576947,32.8436994851848],[-117.280498161324,32.843704115407],[-117.280418159161,32.8437493964765],[-117.280455432957,32.8437087199683],[-117.280439389046,32.8437042474834],[-117.280444632512,32.8436726630993],[-117.28042324632,32.8436681996692],[-117.280433876085,32.8436501361337],[-117.280412418926,32.8436231215789],[-117.280465805804,32.8436094716557],[-117.280497721149,32.8435642961761],[-117.280465636022,32.8435553489273],[-117.280470907336,32.8435327849504],[-117.280550909499,32.8434875037705],[-117.280577525682,32.8434558717616],[-117.280764300701,32.8433832876097],[-117.280785544959,32.8433426479153],[-117.280849560703,32.8433109313255],[-117.280881503896,32.8432747791994],[-117.280988234532,32.8432339470001],[-117.281041508222,32.8431842127794],[-117.281078865561,32.8431705990157],[-117.281158724891,32.8430802136241],[-117.281201396664,32.8430575672611],[-117.281238825869,32.8430665032392],[-117.281265454629,32.8430393813353],[-117.281329499118,32.8430166866593],[-117.281318741793,32.8429941587724],[-117.281334741686,32.8429851012758],[-117.281345455893,32.8429940991489],[-117.281350713732,32.8429670247709],[-117.281388057597,32.8429489007143],[-117.281393343284,32.8429308475986],[-117.28140940067,32.8429398318921],[-117.281398657717,32.8429218157562],[-117.281419958569,32.8428992153913],[-117.28139858675,32.8428992644487],[-117.281398529258,32.8428812226438],[-117.281318457925,32.8429039543362],[-117.281249127748,32.8429447014029],[-117.28122241275,32.8429447632907],[-117.281211656323,32.8429222353856],[-117.281350116353,32.8427775952155],[-117.281360617658,32.8427189383121],[-117.281317887495,32.8427235436793],[-117.281301916348,32.8427416217433],[-117.281285717926,32.8426875339581],[-117.281296289301,32.8426514276166],[-117.281328289986,32.8426333155714],[-117.281349547719,32.8425971850564],[-117.281391920353,32.8424798226695],[-117.281407763041,32.8424211527389],[-117.281396921274,32.8423715652358],[-117.281412949913,32.8423715290086],[-117.281402179113,32.8423444914227],[-117.281455536346,32.8423218199657],[-117.281450094352,32.8422902592411],[-117.281428736906,32.8422948185918],[-117.281423337133,32.8422767894945],[-117.281455109646,32.8421865118747],[-117.281481310808,32.8420240821181],[-117.281529353608,32.8420104447795],[-117.281486610868,32.8420105406311],[-117.281459812327,32.8419835399172],[-117.281470355853,32.8419384111586],[-117.281486369222,32.8419338668844],[-117.281475555302,32.8418932974718],[-117.281544855835,32.8418435292914],[-117.281523298963,32.8417849442257],[-117.281544599815,32.8417623435713],[-117.281528528954,32.8417488503477],[-117.281555142443,32.8417172177191],[-117.281603185243,32.8417035795787],[-117.281608456557,32.8416810158858],[-117.281640485988,32.8416719235371],[-117.281672386062,32.8416222390088],[-117.281656185845,32.8415681505415],[-117.281645543503,32.841581706436],[-117.281634829297,32.8415727091745],[-117.281613487122,32.8415817781364],[-117.281602758543,32.8415682720547],[-117.281624101616,32.8415592030914],[-117.28161330207,32.8415231445944],[-117.281629259742,32.841500556704],[-117.281629101639,32.8414509452897],[-117.281682387006,32.8414057211628],[-117.281655645059,32.8413967616205],[-117.281650344999,32.8414103047106],[-117.281602274351,32.8414149237311],[-117.281639588571,32.8413877771708],[-117.281618188905,32.8413788040414],[-117.281634103458,32.8413426858464],[-117.281602031806,32.8413382487151],[-117.281585946573,32.8413202435754],[-117.281585917826,32.8413112228903],[-117.281660745693,32.8413200752678],[-117.281671374559,32.8413020097448],[-117.281665747512,32.8412118179291],[-117.2816229904,32.8412074026789],[-117.281665504069,32.8411351427377],[-117.281659791682,32.8410178878557],[-117.281686504884,32.8410178282309],[-117.28168644829,32.8409997867983],[-117.281755762297,32.8409545292328],[-117.281766290552,32.8409048918519],[-117.281814291131,32.8408777217385],[-117.281862389626,32.8408821241745],[-117.281867675314,32.8408640713931],[-117.281899690372,32.8408504685947],[-117.281862247693,32.8408370220268],[-117.281862218947,32.8408280012926],[-117.28188894742,32.8408324505253],[-117.281872775948,32.8407873853349],[-117.281910075795,32.8407557289667],[-117.281909961709,32.8407196467461],[-117.281952590362,32.8406834686579],[-117.281936518604,32.8406699737607],[-117.281952418784,32.8406293456548],[-117.281931061338,32.8406339035813],[-117.281946975892,32.840597785838],[-117.281925561852,32.8405843037586],[-117.281909619451,32.8406114015059],[-117.281850877716,32.8406205528336],[-117.281818764741,32.8406025852857],[-117.281898777684,32.8405618122371],[-117.281898692344,32.8405347514574],[-117.281930691232,32.8405166382254],[-117.28196256256,32.8404579322787],[-117.281989247914,32.8404488518807],[-117.282010519122,32.8404172301102],[-117.281978490589,32.8404263240969],[-117.281973090816,32.8404082953749],[-117.281925092033,32.8404354648772],[-117.2818876781,32.8404310390218],[-117.281882135495,32.8403679071599],[-117.281898136287,32.8403588501501],[-117.281898021302,32.8403227692777],[-117.28195660673,32.8402640035773],[-117.281961991232,32.8402775219335],[-117.281935321149,32.8402911127437],[-117.281946020983,32.8402955997409],[-117.281946092848,32.8403181494456],[-117.281924792894,32.8403407489582],[-117.281940820636,32.8403407142397],[-117.281978091737,32.8403000369242],[-117.282042218872,32.8403044031608],[-117.282058204392,32.8402908365047],[-117.282026090519,32.8402728681353],[-117.282004748344,32.8402819349657],[-117.282004705225,32.8402684045342],[-117.282031419325,32.8402683449088],[-117.282026033925,32.8402548265513],[-117.282047390473,32.8402502670958],[-117.282068618561,32.840205116323],[-117.282106017223,32.8402050333002],[-117.282175316857,32.8401552634186],[-117.282271386287,32.8401234739883],[-117.282271314422,32.8401009242341],[-117.282244571576,32.8400919630506],[-117.282228601327,32.840110040141],[-117.282185816366,32.8400966070465],[-117.282175188398,32.8401146713052],[-117.282095090116,32.8401283829008],[-117.282084347164,32.8401103661943],[-117.282142974812,32.8400651308179],[-117.282153531813,32.8400245145112],[-117.28208931844,32.8399930880708],[-117.281988006443,32.8400564602109],[-117.281971764902,32.8399888418249],[-117.281987579743,32.8399211524404],[-117.282014250724,32.8399075608188],[-117.282024849946,32.8398804756875],[-117.282067563041,32.8398713590022],[-117.282035477914,32.8398624098716],[-117.282003450279,32.8398715039152],[-117.282014022551,32.8398353964283],[-117.282046050186,32.8398263046453],[-117.282045992694,32.8398082629706],[-117.282078005956,32.8397946600103],[-117.28207250647,32.8397450597187],[-117.282040464462,32.8397496425975],[-117.282040450089,32.8397451314205],[-117.282141833952,32.8397043111832],[-117.282152447547,32.8396817356607],[-117.282211131789,32.8396545417756],[-117.282216146185,32.8395507943475],[-117.282130734368,32.8395735382142],[-117.281997365989,32.8396369816009],[-117.281986623037,32.8396189655494],[-117.281997267175,32.8396054108646],[-117.2819705396,32.8396009593061],[-117.281965138929,32.8395829311713],[-117.282018437771,32.8395422187897],[-117.282023680339,32.8395106344341],[-117.282045023412,32.8395015660154],[-117.282039623639,32.8394835371056],[-117.282012896064,32.8394790870505],[-117.281959568476,32.8395107793477],[-117.28197013985,32.8394746739783],[-117.281959425643,32.8394656765032],[-117.281890012821,32.8394793640468],[-117.281836415738,32.839425361071],[-117.281820225402,32.8393741438788],[-117.282108600778,32.8393324456854],[-117.282140791906,32.839375061666],[-117.28221558923,32.8393748941094],[-117.282226331284,32.8393929109652],[-117.282258388563,32.8393928385083],[-117.282258331071,32.8393747975003],[-117.28229032996,32.8393566847864],[-117.282290215874,32.8393206027519],[-117.282311586794,32.8393205544473],[-117.282343500343,32.839275379804],[-117.282396984239,32.8392932993159],[-117.282418440499,32.8393203121694],[-117.28245049688,32.839320241222],[-117.282461439259,32.8394014012497],[-117.282493494741,32.839401328038],[-117.282525465782,32.8393741952024],[-117.28252540829,32.8393561541905],[-117.282557435925,32.8393470616037],[-117.282568063893,32.8393289956793],[-117.282632090416,32.8393017896098],[-117.282674832258,32.8393016937553],[-117.282706773654,32.8392655384868],[-117.282749486749,32.8392564217383],[-117.282770771432,32.839229312256],[-117.282813512375,32.8392292156467],[-117.28285614013,32.839193036951],[-117.282898881073,32.8391929403416],[-117.282920366978,32.8392289741233],[-117.282877682629,32.8392471117703],[-117.282867112153,32.8392832172322],[-117.282813626461,32.8392652977183],[-117.282802999391,32.8392833629009],[-117.282706916486,32.839310641433],[-117.282717745677,32.8393557194491],[-117.282707202151,32.8394008465018],[-117.282664575294,32.8394370236033],[-117.282675318246,32.8394550412011],[-117.282718087935,32.8394639654658],[-117.282718202021,32.839500047442],[-117.282686146539,32.8395001206535],[-117.282675575164,32.8395362260125],[-117.28265423299,32.8395452951825],[-117.282654289584,32.8395633361559],[-117.28267568925,32.8395723079594],[-117.282675803336,32.8396083898915],[-117.282718574822,32.8396173141408],[-117.282718631416,32.8396353550995],[-117.282697288343,32.8396444242593],[-117.28269746082,32.8396985463534],[-117.28271883174,32.8396984988037],[-117.282729430962,32.8396714128538],[-117.282772229397,32.8396893579475],[-117.282761658921,32.8397254632296],[-117.282729688779,32.8397525974673],[-117.28270831696,32.8397526457717],[-117.28270837535,32.8397706874578],[-117.282740488325,32.8397886559288],[-117.282751116293,32.839770590849],[-117.282836599976,32.8397703968767],[-117.282847399522,32.839806455331],[-117.282815457227,32.8398426088698],[-117.28283688564,32.8398606022331],[-117.282805000837,32.8399147981613],[-117.282783630815,32.8399148457109],[-117.282783716155,32.8399419074343],[-117.282751717266,32.8399600200288],[-117.28275177386,32.8399780616727],[-117.282730403838,32.839978109977],[-117.282730460432,32.8399961516172],[-117.282698432797,32.8400052441375],[-117.282687918915,32.8400593909184],[-117.282655920026,32.8400775042436],[-117.282666690826,32.8401045417654],[-117.282752117016,32.8400863076852],[-117.282773545429,32.8401043009992],[-117.282805602708,32.8401042277882],[-117.282827029325,32.840122219589],[-117.282827144309,32.8401583020524],[-117.282805829982,32.8401763919602],[-117.282763088141,32.8401764885685],[-117.282688376157,32.8402037192767],[-117.282688491141,32.840239801707],[-117.282645948726,32.8403030408346],[-117.282646062812,32.8403391224698],[-117.2826888334,32.8403480474003],[-117.282699605098,32.8403750848397],[-117.282763889438,32.8404290630857],[-117.282806631279,32.8404289664776],[-117.282828145032,32.8404740205287],[-117.28280686035,32.8405011303857],[-117.282742804182,32.8405193160767],[-117.282646606293,32.8405105126781],[-117.28259335057,32.8405647565135],[-117.282593464656,32.8406008380422],[-117.282614835576,32.8406007897383],[-117.282636349329,32.8406458429474],[-117.282636520907,32.8406999666951],[-117.282625892939,32.8407180315858],[-117.282572493486,32.8407271730908],[-117.282561894263,32.8407542594733],[-117.282540522445,32.8407543070224],[-117.282497980029,32.8408175480477],[-117.282455323528,32.8408447053488],[-117.28250889456,32.840889687488],[-117.282498323186,32.8409257937913],[-117.282541123417,32.8409437378767],[-117.282487751811,32.8409619000799],[-117.282541208757,32.8409707985317],[-117.282551836726,32.8409527344472],[-117.282583894005,32.8409526604822],[-117.282594608211,32.8409616585613],[-117.282594722297,32.8409977406835],[-117.282562693764,32.841006833856],[-117.282552064898,32.8410248986842],[-117.282573522057,32.8410519117656],[-117.282562894088,32.8410699765846],[-117.282530865555,32.8410790682402],[-117.282530923047,32.8410971111662],[-117.2824882378,32.841115246922],[-117.282498980753,32.841133264934],[-117.28243489494,32.841142430548],[-117.282381895237,32.8412778579706],[-117.282360525214,32.8412779070289],[-117.282328553275,32.8413050400373],[-117.282339296228,32.8413228202669],[-117.282328667361,32.8413411212652],[-117.282360753387,32.8413500710014],[-117.28236089532,32.8413951728885],[-117.282328867686,32.8414042660203],[-117.282318124733,32.841386248818],[-117.282296753812,32.841386295612],[-117.282296839152,32.8414133583964],[-117.282328924279,32.8414223066159],[-117.282339724724,32.8414583651539],[-117.282318381651,32.8414674318632],[-117.282318496636,32.841503516044],[-117.282297124817,32.8415035635927],[-117.282275867982,32.8415396930433],[-117.282286667528,32.8415757515336],[-117.2822761249,32.8416208782123],[-117.282244096367,32.841629971321],[-117.282233382161,32.8416209740643],[-117.282201410221,32.8416481084774],[-117.282158639634,32.8416391829229],[-117.28214798292,32.8416482284811],[-117.282180125539,32.8416752179758],[-117.282244181707,32.8416570325216],[-117.282297638653,32.8416659324132],[-117.282308267519,32.8416478677154],[-117.28232963844,32.8416478186573],[-117.282329724678,32.8416748806072],[-117.282276468057,32.8417291244858],[-117.282255096238,32.8417291712796],[-117.28225523907,32.8417742752382],[-117.282180581883,32.8418195459711],[-117.282191496414,32.8418916861065],[-117.282180867548,32.8419097507547],[-117.282159496627,32.8419097983031],[-117.282148895608,32.8419368843248],[-117.282084753202,32.8419280093667],[-117.282095610241,32.841982108181],[-117.282042153295,32.8419732068116],[-117.282042210787,32.8419912480464],[-117.282074267168,32.8419911771011],[-117.28207432466,32.8420092175774],[-117.281999495895,32.8420003652687],[-117.281978267807,32.8420455158832],[-117.281924809962,32.8420366152749],[-117.281914238588,32.8420727226212],[-117.281871552442,32.8420908581776],[-117.281871609935,32.8421089001432],[-117.281925038134,32.8421087786307],[-117.281914438912,32.8421358661011],[-117.281871724021,32.8421449817991],[-117.281871780614,32.8421630237535],[-117.281903924132,32.8421900115823],[-117.28190403732,32.8422260932052],[-117.281882723891,32.842244184201],[-117.281786579901,32.8422534198907],[-117.28178666614,32.8422804824106],[-117.281808093654,32.8422984745252],[-117.281861522752,32.8422983537677],[-117.281882751739,32.8422532032818],[-117.281914780272,32.8422441109917],[-117.281914694932,32.8422170499701],[-117.281946752211,32.8422169775155],[-117.281957323586,32.8421808717374],[-117.282000038477,32.8421717545337],[-117.282042609639,32.8421175350772],[-117.282085408972,32.8421354789216],[-117.282096180671,32.842162517326],[-117.282074866344,32.8421806060705],[-117.282074981328,32.8422166892067],[-117.28203223769,32.8422167850581],[-117.282021495636,32.842198767266],[-117.281989467103,32.8422078610702],[-117.282021608824,32.8422348488854],[-117.282021836996,32.8423070128347],[-117.282043237561,32.8423159858703],[-117.282043294155,32.8423340270354],[-117.282021922336,32.8423340753383],[-117.282011151536,32.8423070369862],[-117.281957751184,32.8423161790823],[-117.28191512253,32.8423523580145],[-117.2818188932,32.8423345319525],[-117.281829665797,32.8423615695415],[-117.281851007972,32.8423525006593],[-117.281915150378,32.8423613778391],[-117.281957979356,32.8423883422108],[-117.281968779801,32.8424244011111],[-117.281947407982,32.8424244486593],[-117.281947522068,32.8424605301868],[-117.28196895048,32.842478524529],[-117.281894121716,32.8424696722671],[-117.281883549443,32.842505777173],[-117.281840721363,32.842478812837],[-117.281819407037,32.8424969015171],[-117.281755320326,32.8425060669904],[-117.281745062464,32.8426413979909],[-117.281713005185,32.8426414704451],[-117.281723862223,32.8426955688246],[-117.281702490404,32.8426956171274],[-117.28170260449,32.8427316992995],[-117.281670661297,32.8427678531563],[-117.281670746637,32.8427949155194],[-117.28184183258,32.8428306119842],[-117.281905920188,32.8428214465444],[-117.28194857669,32.8427942898481],[-117.281959319642,32.8428123060098],[-117.281937948722,32.8428123550673],[-117.281938034062,32.8428394166621],[-117.281959547814,32.8428844709992],[-117.281916890415,32.8429116284227],[-117.28189563358,32.8429477588095],[-117.281906376533,32.8429657741854],[-117.28199180452,32.8429475422024],[-117.282002604964,32.8429835986112],[-117.282034633497,32.842974506396],[-117.28204537645,32.8429925240306],[-117.282066748269,32.8429924749732],[-117.28209894838,32.8430375065908],[-117.282173720551,32.8430283170211],[-117.282184463504,32.8430463338901],[-117.282205835323,32.843046284078],[-117.282227092157,32.8430101552407],[-117.282280522154,32.8430100352388],[-117.282291121376,32.8429829495447],[-117.282301893074,32.8430099869363],[-117.282248550214,32.8430371684726],[-117.282248606808,32.843055209491],[-117.282227235888,32.8430552570389],[-117.282216749853,32.8431184254806],[-117.28218466293,32.8431094766774],[-117.282142063022,32.8431546757849],[-117.282110033591,32.8431637687365],[-117.282099462216,32.8431998748695],[-117.282078090398,32.843199923172],[-117.282024831979,32.8432541661185],[-117.28198208924,32.8432542627235],[-117.281960802761,32.8432813724861],[-117.281939421959,32.8432785807545],[-117.281960745269,32.8432633315136],[-117.281971288795,32.8432182049151],[-117.281971232201,32.8432001631751],[-117.281949861281,32.8432002114776],[-117.281960347315,32.8431370446036],[-117.281906889471,32.84312814335],[-117.281874916633,32.8431552780571],[-117.281874974125,32.8431733198063],[-117.281810972755,32.8432095451822],[-117.281789772514,32.8432637156692],[-117.281757743981,32.8432728086096],[-117.281757829321,32.843299870064],[-117.281736486248,32.8433089388495],[-117.281715085683,32.8432999666689],[-117.281672484877,32.8433451649248],[-117.28165111216,32.8433452139819],[-117.281640597379,32.8433993602349],[-117.28160862544,32.8434264925949],[-117.281565882701,32.8434265899544],[-117.281555252936,32.8434446557996],[-117.281501795092,32.8434357545769],[-117.281459109844,32.8434538921191],[-117.281437907807,32.8435080639664],[-117.281373878588,32.8435352687467],[-117.281373935182,32.8435533104186],[-117.281341934497,32.8435714222762],[-117.281288477551,32.8435625233304],[-117.281235246981,32.8436257865061],[-117.281203217549,32.8436348786546],[-117.281192617429,32.8436619641499],[-117.281117872207,32.8436801725897],[-117.281117957547,32.8437072346747],[-117.281075327995,32.8437434122853],[-117.281043270716,32.8437434839838],[-117.281043184478,32.8437164234193],[-117.281011098453,32.8437074746764],[-117.281000470484,32.843725538955],[-117.280968441053,32.8437346326028],[-117.280882981625,32.843743844741],[-117.280872381505,32.8437709294482],[-117.280829665715,32.8437800464877],[-117.280786894229,32.8437711219023],[-117.28076543707,32.8437441073843],[-117.280744150591,32.843771217752],[-117.280669433217,32.8437984466026],[-117.280669491608,32.8438164882211],[-117.280637432532,32.8438165584102],[-117.280637490024,32.843834600025],[-117.280616117307,32.8438346490818],[-117.280584174114,32.8438708024893],[-117.280530744117,32.84387092249],[-117.280520115251,32.8438889882448],[-117.280498714686,32.8438800153681],[-117.280466685254,32.8438891067359],[-117.280456056388,32.8439071709776],[-117.280368054728,32.8438577563812],[-117.280413127697,32.8438486348213],[-117.280423700868,32.8438125281975],[-117.280466430133,32.8438079228868],[-117.28051443161,32.843780753662],[-117.280535745937,32.8437626637341],[-117.280530361435,32.843749145154]],[[-117.282507698004,32.8405119874587],[-117.282507637817,32.8404927851183],[-117.28243280995,32.8404839334131],[-117.282422267322,32.8405290591374],[-117.282497066443,32.8405288915831],[-117.282507698004,32.8405119874587]],[[-117.282537451105,32.8397846330808],[-117.282548093446,32.8397710474763],[-117.282590835287,32.8397709516223],[-117.282654775572,32.8397166846592],[-117.282675974915,32.8396625135171],[-117.28266523286,32.8396444959613],[-117.282569207448,32.8396898145753],[-117.28251592208,32.8397350395764],[-117.282473152391,32.8397261138295],[-117.282462496576,32.8397351595826],[-117.282462553169,32.8397532012722],[-117.282505322858,32.839762124752],[-117.282505436944,32.8397982066071],[-117.282537451105,32.8397846330808]],[[-117.282067577414,32.839875869418],[-117.282072919695,32.8398758558325],[-117.28207290622,32.8398713469261],[-117.282067563041,32.8398713590022],[-117.282067577414,32.839875869418]],[[-117.282487695218,32.840943858636],[-117.282466323399,32.840943906185],[-117.282466352145,32.8409529276622],[-117.282487723964,32.8409528778489],[-117.282487695218,32.840943858636]],[[-117.280551732356,32.8437490976065],[-117.2805677053,32.8437310212572],[-117.280567676554,32.8437220008171],[-117.280530333587,32.8437401254705],[-117.280551732356,32.8437490976065]],[[-117.28049773642,32.843568807159],[-117.280513793806,32.8435777921427],[-117.280519066019,32.8435552281715],[-117.280503050854,32.8435597753816],[-117.28049773642,32.843568807159]],[[-117.28049760886,32.8435282143425],[-117.280502952039,32.8435282037764],[-117.280502936768,32.8435236935461],[-117.280497593588,32.8435237056218],[-117.28049760886,32.8435282143425]],[[-117.281534683313,32.8420059216416],[-117.281534653668,32.8419969017809],[-117.281529312285,32.8419969123472],[-117.281529340133,32.8420059344721],[-117.281534683313,32.8420059216416]],[[-117.28193536337,32.8403046431717],[-117.28194070655,32.8403046318504],[-117.281940693075,32.8403001222112],[-117.281935349896,32.8403001327777],[-117.28193536337,32.8403046431717]],[[-117.281929992343,32.8402956344594],[-117.281930006716,32.8403001456084],[-117.281935349896,32.8403001327777],[-117.281935335522,32.8402956231382],[-117.281929992343,32.8402956344594]]]}},{"type":"Feature","id":"224614","properties":{"site_id":"hospital-point","source_feature_id":224614,"source_dataset":"California Aquatic Resources Inventory (CARI) v3.3","source_class":"Marine Rocky Shore Natural Intertidal","source_legcode":"RS","source_attributes":{"OBJECTID":224614,"clickcode":"WMNrnIN","clicklabel":"Marine Rocky Shore Natural Intertidal","name":null,"orig_dataset":"Elevation Modeled Polygons via ESI Classification","orig_class":"2A","organization":"San Francisco Estuary Institute (SFEI)","orig_dataset_pubyear":2022,"process_adjustment":null,"source_data":"ESI Classification; NOAA VDatum; USGS Modeled Dune Toe; 2016 El Nino DEM; USGS CoNED Topobathy DEM","source_estimatedyear":2016,"orig_scale":null,"legend_headings":"Estuarine and Marine","legcode":"RS","leglabellevel1":"Rocky Shore","leglabellevel2":"Rocky Shore","major_class":"Wetland","wetland_class":"Marine","anthropogenic_modifier":"Natural","wetland_type":"Rocky","wetland_subtype":"none","tidal_modifier":"Intertidal","vegetation_modifier":"Non-vegetated","salinity_modifier":"Saline","salinity_source":"CARI Marine","salinity_additional_information":"Wetland Mapping classified Marine","lastupdate":1770120526000,"CARI_id":224614,"Shape__Area":31.28125,"Shape__Length":35.76352893968233}},"geometry":{"type":"Polygon","coordinates":[[[-117.282845196853,32.8391118752234],[-117.282845111513,32.8390848147564],[-117.282877166996,32.8390847415445],[-117.282866625266,32.8391298679801],[-117.282802569996,32.8391480539521],[-117.282845196853,32.8391118752234]]]}}]}