{"type":"FeatureCollection","properties":{"site_id":"la-jolla-cove","dataset_name":"California Aquatic Resources Inventory (CARI) v3.3","source_url":"https://www.sfei.org/data/california-aquatic-resource-inventory-cari-gis-data","dataset_date":"2026-02-19","resolution_meters":null,"provenance":"official-gis","outline_kind":"rocky-intertidal","geometry_status":"exploratory","disclaimer":"Static modeled rocky-intertidal habitat context, not a tide-specific waterline, surveyed boundary, navigational chart, safe route, or real-time access condition.","coordinate":{"latitude":32.850308,"longitude":-117.273361},"selection_radius_meters":350.0,"selection_method":"Original CARI Rocky Shore polygons intersecting a local-radius buffer; geometry is selected, not crop-clipped.","simplify_meters":1.0,"source":{"dataset_name":"California Aquatic Resources Inventory (CARI) v3.3","publisher":"San Francisco Estuary Institute","endpoint":"https://services2.arcgis.com/Uq9r85Potqm3MfRV/arcgis/rest/services/biosds2835_fpu/FeatureServer/0/query","dataset_url":"https://www.sfei.org/data/california-aquatic-resource-inventory-cari-gis-data","license":"GPL-3.0-or-later","license_url":"https://www.gnu.org/licenses/gpl-3.0.html","citation":"San Francisco Estuary Institute (SFEI). 2026. California Aquatic Resource Inventory (CARI), version 3.3. Accessed 2026-09-18.","accessed_at":"2026-09-18T16:45:08.369476+00:00"}},"features":[{"type":"Feature","id":"224568","properties":{"site_id":"la-jolla-cove","source_feature_id":224568,"source_dataset":"California Aquatic Resources Inventory (CARI) v3.3","source_class":"Marine Rocky Shore Natural Intertidal","source_legcode":"RS","source_attributes":{"OBJECTID":224568,"clickcode":"WMNrnIN","clicklabel":"Marine Rocky Shore Natural Intertidal","name":null,"orig_dataset":"Elevation Modeled Polygons via ESI Classification","orig_class":"2A","organization":"San Francisco Estuary Institute (SFEI)","orig_dataset_pubyear":2022,"process_adjustment":null,"source_data":"ESI Classification; NOAA VDatum; USGS Modeled Dune Toe; 2016 El Nino DEM; USGS CoNED Topobathy DEM","source_estimatedyear":2016,"orig_scale":null,"legend_headings":"Estuarine and Marine","legcode":"RS","leglabellevel1":"Rocky Shore","leglabellevel2":"Rocky Shore","major_class":"Wetland","wetland_class":"Marine","anthropogenic_modifier":"Natural","wetland_type":"Rocky","wetland_subtype":"none","tidal_modifier":"Intertidal","vegetation_modifier":"Non-vegetated","salinity_modifier":"Saline","salinity_source":"CARI Marine","salinity_additional_information":"Wetland Mapping classified Marine","lastupdate":1770120526000,"CARI_id":224568,"Shape__Area":5206.16796875,"Shape__Length":857.6519688646104}},"geometry":{"type":"Polygon","coordinates":[[[-117.275430215935,32.8497185511761],[-117.275408871066,32.8497276185511],[-117.275408814472,32.8497095781343],[-117.275376783244,32.8497186696596],[-117.275355353933,32.8497006760306],[-117.275312636346,32.8497097894422],[-117.27530206048,32.8497458951762],[-117.275342617619,32.8497367847869],[-117.275355493172,32.8497457774475],[-117.275323628132,32.8498089916901],[-117.275323711675,32.8498360534156],[-117.275345141885,32.8498540470171],[-117.275302451247,32.8498721817383],[-117.27528124382,32.8499263519319],[-117.275259843255,32.8499173781564],[-117.275227811129,32.8499264696604],[-117.275217207415,32.8499535539901],[-117.275238636726,32.8499715490771],[-117.275238720269,32.849998610753],[-117.275206743839,32.8500257418502],[-117.275163996608,32.8500258361838],[-117.275195834698,32.8499536015342],[-117.275152976076,32.8499176136133],[-117.27514237326,32.8499446987004],[-117.275120999645,32.8499447462445],[-117.275110396829,32.8499718305687],[-117.275057075529,32.8500080305296],[-117.275057130326,32.8500260708857],[-117.275003809026,32.8500622700699],[-117.274961284577,32.8501345287803],[-117.274918649635,32.8501707045255],[-117.274918761027,32.8502067859225],[-117.274961590903,32.850233753948],[-117.274961702294,32.8502698360741],[-117.274865494523,32.8502610268506],[-117.274822858683,32.8502972025442],[-117.274833712129,32.8503513015398],[-117.274758877076,32.8503424455351],[-117.274748357804,32.8503965920471],[-117.274673606294,32.8504147968412],[-117.274652313527,32.8504410395703],[-117.274523769999,32.8503428394708],[-117.274550375403,32.850306821521],[-117.274630414397,32.850270562818],[-117.274662224639,32.850189308585],[-117.274715448922,32.8501215371743],[-117.274795446593,32.8500717487038],[-117.274832585641,32.8499859723122],[-117.274896511554,32.8499226880114],[-117.274944364809,32.8498459078995],[-117.275002987966,32.849796166064],[-117.275034825158,32.8497239312275],[-117.275146853159,32.8496650517588],[-117.275146714818,32.8496199487915],[-117.275130643059,32.8496064544984],[-117.275183923037,32.8495567230941],[-117.275280466777,32.8495384698249],[-117.275365595625,32.8495563238723],[-117.275418971723,32.8495381656917],[-117.27562210147,32.8495647799789],[-117.275643530781,32.8495827743902],[-117.275750396164,32.8495825381777],[-117.275803759685,32.8495598693243],[-117.275835693895,32.8495192067995],[-117.275910443608,32.8495010003122],[-117.275920990728,32.8494558746213],[-117.275888819363,32.8494198631036],[-117.275899366482,32.8493747366168],[-117.276070253897,32.8493427889882],[-117.276086173841,32.849307370599],[-117.276316375217,32.8494485995684],[-117.276305736469,32.8494640462257],[-117.276220215057,32.8494552135273],[-117.276102802555,32.8495005761859],[-117.275974591404,32.8495098790411],[-117.275964045183,32.8495550054591],[-117.275942670669,32.8495550530035],[-117.275942727263,32.8495730934517],[-117.275910695136,32.8495821842363],[-117.275910750832,32.8496002254336],[-117.275889405962,32.8496092935753],[-117.275846631782,32.8496003673121],[-117.275761389746,32.8496817398132],[-117.275675897081,32.849681928481],[-117.275622519186,32.8497000866322],[-117.275526312314,32.8496912788615],[-117.275504966547,32.8497003462392],[-117.275494363731,32.8497274313926],[-117.275474714881,32.8497184530689],[-117.2754516165,32.8497275249718],[-117.275451561703,32.8497094838003],[-117.275430215935,32.8497185511761]],[[-117.275259369843,32.8497640306741],[-117.275259480336,32.8498001114818],[-117.275291596904,32.8498180832052],[-117.275312802534,32.8497639129455],[-117.275302088328,32.8497549157587],[-117.275259369843,32.8497640306741]],[[-117.275430199766,32.849713041321],[-117.275419501729,32.8497095547395],[-117.275419529577,32.8497185753256],[-117.275430215935,32.8497185511761],[-117.275430199766,32.849713041321]],[[-117.275174349691,32.8499175660691],[-117.275174322742,32.8499085462578],[-117.275163635485,32.8499085696526],[-117.275163663333,32.8499175902185],[-117.275174349691,32.8499175660691]]]}},{"type":"Feature","id":"224620","properties":{"site_id":"la-jolla-cove","source_feature_id":224620,"source_dataset":"California Aquatic Resources Inventory (CARI) v3.3","source_class":"Marine Rocky Shore Natural Intertidal","source_legcode":"RS","source_attributes":{"OBJECTID":224620,"clickcode":"WMNrnIN","clicklabel":"Marine Rocky Shore Natural Intertidal","name":null,"orig_dataset":"Elevation Modeled Polygons via ESI Classification","orig_class":"1A","organization":"San Francisco Estuary Institute (SFEI)","orig_dataset_pubyear":2022,"process_adjustment":null,"source_data":"ESI Classification; NOAA VDatum; USGS Modeled Dune Toe; 2016 El Nino DEM; USGS CoNED Topobathy DEM","source_estimatedyear":2016,"orig_scale":null,"legend_headings":"Estuarine and Marine","legcode":"RS","leglabellevel1":"Rocky Shore","leglabellevel2":"Rocky Shore","major_class":"Wetland","wetland_class":"Marine","anthropogenic_modifier":"Natural","wetland_type":"Rocky","wetland_subtype":"none","tidal_modifier":"Intertidal","vegetation_modifier":"Non-vegetated","salinity_modifier":"Saline","salinity_source":"CARI Marine","salinity_additional_information":"Wetland Mapping classified Marine","lastupdate":1770120526000,"CARI_id":224620,"Shape__Area":1996.76171875,"Shape__Length":590.5104341013392}},"geometry":{"type":"Polygon","coordinates":[[[-117.270259479024,32.8502538318583],[-117.270269944397,32.8501808306524],[-117.270291399759,32.8502078454752],[-117.270280753825,32.8502214000501],[-117.270291509354,32.8502439283664],[-117.270414351274,32.8502256216572],[-117.270430258641,32.8501849941521],[-117.270430093351,32.8501308716604],[-117.270403417878,32.8501444609618],[-117.27042977894,32.8500271364779],[-117.270407954371,32.8498783436183],[-117.270386472059,32.8498423081226],[-117.270354385135,32.8498333569786],[-117.270338381649,32.8498424122671],[-117.270338464294,32.8498694732277],[-117.270311774448,32.8498785519072],[-117.270279550981,32.8498244986583],[-117.270332354851,32.8496169112362],[-117.270342987311,32.8495988474021],[-117.270391118146,32.8496122745305],[-117.270487256746,32.8495985357224],[-117.270524755121,32.8496300266823],[-117.270556815095,32.8496299572525],[-117.2705675832,32.8496569956377],[-117.270588984663,32.8496659701943],[-117.270643047074,32.8498733258179],[-117.270696617207,32.8499183124373],[-117.27072892332,32.8499994273047],[-117.270793235508,32.8500624315689],[-117.270793290305,32.8500804734233],[-117.270820020575,32.8500849259655],[-117.270825528146,32.8501390371652],[-117.270863000469,32.850161507393],[-117.270863082216,32.8501885682564],[-117.270895170038,32.8501975201191],[-117.270911144779,32.8501794450832],[-117.270862986995,32.8501569967452],[-117.270884277965,32.8501298890829],[-117.270921722441,32.850143338771],[-117.27094857578,32.8501883833628],[-117.270985951984,32.850179282075],[-117.270985979832,32.8501883033681],[-117.27094325955,32.8501974159751],[-117.270911172627,32.850188464867],[-117.270900568015,32.8502155491167],[-117.270857848631,32.8502246624755],[-117.270825679063,32.8501886497604],[-117.270793619088,32.8501887191898],[-117.270750735313,32.8501437093128],[-117.270761258179,32.8500895626465],[-117.270707714096,32.8500535966661],[-117.270707633248,32.8500265350069],[-117.270643156668,32.8499094080905],[-117.270546949796,32.849900595058],[-117.270493653649,32.849945813347],[-117.270461620624,32.8499549025841],[-117.27046192156,32.8500541279526],[-117.270483322125,32.850063102469],[-117.270483513466,32.8501262455468],[-117.270504914031,32.8501352200559],[-117.270515765679,32.8501893199049],[-117.27050513322,32.8502073843736],[-117.270473045398,32.8501984325118],[-117.2704838153,32.8502254714784],[-117.270462496481,32.8502435585797],[-117.270398348685,32.8502346761509],[-117.270377002918,32.850243743473],[-117.270377083766,32.8502708050659],[-117.270355766744,32.8502888914033],[-117.270323678922,32.8502799410591],[-117.270312909919,32.8502529021089],[-117.270302360104,32.8502980273945],[-117.270248926514,32.8502981436132],[-117.270259479024,32.8502538318583]]]}},{"type":"Feature","id":"224621","properties":{"site_id":"la-jolla-cove","source_feature_id":224621,"source_dataset":"California Aquatic Resources Inventory (CARI) v3.3","source_class":"Marine Rocky Shore Natural Intertidal","source_legcode":"RS","source_attributes":{"OBJECTID":224621,"clickcode":"WMNrnIN","clicklabel":"Marine Rocky Shore Natural Intertidal","name":null,"orig_dataset":"Elevation Modeled Polygons via ESI Classification","orig_class":"1A","organization":"San Francisco Estuary Institute (SFEI)","orig_dataset_pubyear":2022,"process_adjustment":null,"source_data":"ESI Classification; NOAA VDatum; USGS Modeled Dune Toe; 2016 El Nino DEM; USGS CoNED Topobathy DEM","source_estimatedyear":2016,"orig_scale":null,"legend_headings":"Estuarine and Marine","legcode":"RS","leglabellevel1":"Rocky Shore","leglabellevel2":"Rocky Shore","major_class":"Wetland","wetland_class":"Marine","anthropogenic_modifier":"Natural","wetland_type":"Rocky","wetland_subtype":"none","tidal_modifier":"Intertidal","vegetation_modifier":"Non-vegetated","salinity_modifier":"Saline","salinity_source":"CARI Marine","salinity_additional_information":"Wetland Mapping classified Marine","lastupdate":1770120526000,"CARI_id":224621,"Shape__Area":969.01953125,"Shape__Length":503.26094072479043}},"geometry":{"type":"Polygon","coordinates":[[[-117.269938138172,32.8500101564316],[-117.269949015872,32.850073276907],[-117.269981103694,32.8500822280268],[-117.269970552981,32.8501273533992],[-117.270013354111,32.8501453024162],[-117.270018779935,32.8501723527191],[-117.270120303037,32.8501721331109],[-117.270130880699,32.850136028305],[-117.270152282163,32.8501450020585],[-117.27014173145,32.8501901281536],[-117.270099094711,32.8502263031214],[-117.270024259658,32.8502174440856],[-117.270002832144,32.8501994490485],[-117.269991981394,32.8501453484509],[-117.269959948369,32.8501544376676],[-117.269949207213,32.8501364199776],[-117.269917120289,32.8501274688633],[-117.269949097618,32.8501003385519],[-117.269938301665,32.850064278997],[-117.269906296488,32.8500823895258],[-117.269895746674,32.8501275156527],[-117.269863713649,32.8501366048712],[-117.269852972493,32.8501185871776],[-117.269820912519,32.850118656607],[-117.269799484106,32.8501006615499],[-117.269820667279,32.8500374716644],[-117.269809926123,32.850019453196],[-117.269777838301,32.8500105028246],[-117.269756164648,32.8499113226874],[-117.269734709286,32.8498843077745],[-117.269734627539,32.8498572460637],[-117.269755973307,32.8498481794567],[-117.269766577919,32.8498210943402],[-117.269766469223,32.8497850135409],[-117.269787788041,32.8497669255916],[-117.269776965139,32.8497218460708],[-117.269744823418,32.8496948537404],[-117.269744686874,32.8496497515428],[-117.269723258461,32.8496317563906],[-117.269616310433,32.8496049255325],[-117.26955202789,32.8495509400374],[-117.269477194633,32.8495420809342],[-117.269434338706,32.8495060913369],[-117.269434257858,32.8494790295108],[-117.269455630575,32.8494789842304],[-117.269498526028,32.8495285043699],[-117.269551946143,32.8495238789797],[-117.269648343458,32.8495958355049],[-117.269723177613,32.8496046953575],[-117.269744523381,32.8495956287247],[-117.269733863073,32.8496046719626],[-117.269744604229,32.8496226897606],[-117.26978735146,32.8496225976906],[-117.269776746848,32.849649682113],[-117.269798228261,32.8496857184417],[-117.269798365704,32.8497308206209],[-117.269835823654,32.8497487810382],[-117.269857292491,32.8497803066596],[-117.269857402086,32.8498163889701],[-117.269830724817,32.8498299768103],[-117.269884240153,32.8498569230649],[-117.269878939195,32.8498704648641],[-117.269836177591,32.8498660477805],[-117.269825546029,32.8498841115603],[-117.269846960069,32.8498975960004],[-117.269830998803,32.8499201817538],[-117.269873772984,32.8499291102489],[-117.269852481115,32.8499562179726],[-117.269916547164,32.8499380387431],[-117.269927178726,32.8499199742197],[-117.269969952906,32.8499289034695],[-117.269948607138,32.8499379693136],[-117.269938138172,32.8500101564316]],[[-117.269927450915,32.8500101798264],[-117.269879402725,32.8500238136717],[-117.269874113445,32.850041866854],[-117.26992756051,32.8500462612887],[-117.269938158833,32.8500168586449],[-117.269927450915,32.8500101798264]]]}},{"type":"Feature","id":"224647","properties":{"site_id":"la-jolla-cove","source_feature_id":224647,"source_dataset":"California Aquatic Resources Inventory (CARI) v3.3","source_class":"Marine Rocky Shore Natural Intertidal","source_legcode":"RS","source_attributes":{"OBJECTID":224647,"clickcode":"WMNrnIN","clicklabel":"Marine Rocky Shore Natural Intertidal","name":null,"orig_dataset":"Elevation Modeled Polygons via ESI Classification","orig_class":"1A","organization":"San Francisco Estuary Institute (SFEI)","orig_dataset_pubyear":2022,"process_adjustment":null,"source_data":"ESI Classification; NOAA VDatum; USGS Modeled Dune Toe; 2016 El Nino DEM; USGS CoNED Topobathy DEM","source_estimatedyear":2016,"orig_scale":null,"legend_headings":"Estuarine and Marine","legcode":"RS","leglabellevel1":"Rocky Shore","leglabellevel2":"Rocky Shore","major_class":"Wetland","wetland_class":"Marine","anthropogenic_modifier":"Natural","wetland_type":"Rocky","wetland_subtype":"none","tidal_modifier":"Intertidal","vegetation_modifier":"Non-vegetated","salinity_modifier":"Saline","salinity_source":"CARI Marine","salinity_additional_information":"Wetland Mapping classified Marine","lastupdate":1770120526000,"CARI_id":224647,"Shape__Area":31.28125,"Shape__Length":41.761937287111884}},"geometry":{"type":"Polygon","coordinates":[[[-117.270985951984,32.850179282075],[-117.27101798411,32.8501701921063],[-117.271028698317,32.8501791900056],[-117.271050346817,32.8502693485595],[-117.271028945354,32.8502603740639],[-117.271028835759,32.8502242926886],[-117.270985951984,32.850179282075]]]}},{"type":"Feature","id":"224648","properties":{"site_id":"la-jolla-cove","source_feature_id":224648,"source_dataset":"California Aquatic Resources Inventory (CARI) v3.3","source_class":"Marine Rocky Shore Natural Intertidal","source_legcode":"RS","source_attributes":{"OBJECTID":224648,"clickcode":"WMNrnIN","clicklabel":"Marine Rocky Shore Natural Intertidal","name":null,"orig_dataset":"Elevation Modeled Polygons via ESI Classification","orig_class":"2A","organization":"San Francisco Estuary Institute (SFEI)","orig_dataset_pubyear":2022,"process_adjustment":null,"source_data":"ESI Classification; NOAA VDatum; USGS Modeled Dune Toe; 2016 El Nino DEM; USGS CoNED Topobathy DEM","source_estimatedyear":2016,"orig_scale":null,"legend_headings":"Estuarine and Marine","legcode":"RS","leglabellevel1":"Rocky Shore","leglabellevel2":"Rocky Shore","major_class":"Wetland","wetland_class":"Marine","anthropogenic_modifier":"Natural","wetland_type":"Rocky","wetland_subtype":"none","tidal_modifier":"Intertidal","vegetation_modifier":"Non-vegetated","salinity_modifier":"Saline","salinity_source":"CARI Marine","salinity_additional_information":"Wetland Mapping classified Marine","lastupdate":1770120526000,"CARI_id":224648,"Shape__Area":78.20703125,"Shape__Length":40.54963782730793}},"geometry":{"type":"Polygon","coordinates":[[[-117.275068825493,32.8503526878611],[-117.275036731383,32.8503418357651],[-117.27502585009,32.8502787154807],[-117.275111371502,32.8502875473424],[-117.275100879179,32.8503507151644],[-117.275068825493,32.8503526878611]]]}},{"type":"Feature","id":"224649","properties":{"site_id":"la-jolla-cove","source_feature_id":224649,"source_dataset":"California Aquatic Resources Inventory (CARI) v3.3","source_class":"Marine Rocky Shore Natural Intertidal","source_legcode":"RS","source_attributes":{"OBJECTID":224649,"clickcode":"WMNrnIN","clicklabel":"Marine Rocky Shore Natural Intertidal","name":null,"orig_dataset":"Elevation Modeled Polygons via ESI Classification","orig_class":"2A","organization":"San Francisco Estuary Institute (SFEI)","orig_dataset_pubyear":2022,"process_adjustment":null,"source_data":"ESI Classification; NOAA VDatum; USGS Modeled Dune Toe; 2016 El Nino DEM; USGS CoNED Topobathy DEM","source_estimatedyear":2016,"orig_scale":null,"legend_headings":"Estuarine and Marine","legcode":"RS","leglabellevel1":"Rocky Shore","leglabellevel2":"Rocky Shore","major_class":"Wetland","wetland_class":"Marine","anthropogenic_modifier":"Natural","wetland_type":"Rocky","wetland_subtype":"none","tidal_modifier":"Intertidal","vegetation_modifier":"Non-vegetated","salinity_modifier":"Saline","salinity_source":"CARI Marine","salinity_additional_information":"Wetland Mapping classified Marine","lastupdate":1770120526000,"CARI_id":224649,"Shape__Area":264.47265625,"Shape__Length":73.92765046877545}},"geometry":{"type":"Polygon","coordinates":[[[-117.274887526604,32.8504749096895],[-117.274866050581,32.8504414365242],[-117.274865883494,32.8503873134342],[-117.274887172668,32.8503602050876],[-117.274908546283,32.8503601582983],[-117.274919177845,32.8503420931061],[-117.275036787078,32.8503598760533],[-117.275037009861,32.8504320401882],[-117.275005032531,32.8504591719075],[-117.274887526604,32.8504749096895]]]}},{"type":"Feature","id":"224653","properties":{"site_id":"la-jolla-cove","source_feature_id":224653,"source_dataset":"California Aquatic Resources Inventory (CARI) v3.3","source_class":"Marine Rocky Shore Natural Intertidal","source_legcode":"RS","source_attributes":{"OBJECTID":224653,"clickcode":"WMNrnIN","clicklabel":"Marine Rocky Shore Natural Intertidal","name":null,"orig_dataset":"Elevation Modeled Polygons via ESI Classification","orig_class":"1A","organization":"San Francisco Estuary Institute (SFEI)","orig_dataset_pubyear":2022,"process_adjustment":null,"source_data":"ESI Classification; NOAA VDatum; USGS Modeled Dune Toe; 2016 El Nino DEM; USGS CoNED Topobathy DEM","source_estimatedyear":2016,"orig_scale":null,"legend_headings":"Estuarine and Marine","legcode":"RS","leglabellevel1":"Rocky Shore","leglabellevel2":"Rocky Shore","major_class":"Wetland","wetland_class":"Marine","anthropogenic_modifier":"Natural","wetland_type":"Rocky","wetland_subtype":"none","tidal_modifier":"Intertidal","vegetation_modifier":"Non-vegetated","salinity_modifier":"Saline","salinity_source":"CARI Marine","salinity_additional_information":"Wetland Mapping classified Marine","lastupdate":1770120526000,"CARI_id":224653,"Shape__Area":75.359375,"Shape__Length":50.11236769254653}},"geometry":{"type":"Polygon","coordinates":[[[-117.273030753828,32.8513655508538],[-117.273030781675,32.851374570517],[-117.272998693853,32.851365621037],[-117.272987895205,32.8513295619962],[-117.273009132277,32.8512844123315],[-117.273051823813,32.8512662786536],[-117.27306267636,32.8513203778131],[-117.273030753828,32.8513655508538]],[[-117.273030726878,32.8513565304351],[-117.273020039621,32.8513565538295],[-117.273020066571,32.8513655742482],[-117.273030753828,32.8513655508538],[-117.273030726878,32.8513565304351]]]}},{"type":"Feature","id":"224654","properties":{"site_id":"la-jolla-cove","source_feature_id":224654,"source_dataset":"California Aquatic Resources Inventory (CARI) v3.3","source_class":"Marine Rocky Shore Natural Intertidal","source_legcode":"RS","source_attributes":{"OBJECTID":224654,"clickcode":"WMNrnIN","clicklabel":"Marine Rocky Shore Natural Intertidal","name":null,"orig_dataset":"Elevation Modeled Polygons via ESI Classification","orig_class":"1A","organization":"San Francisco Estuary Institute (SFEI)","orig_dataset_pubyear":2022,"process_adjustment":null,"source_data":"ESI Classification; NOAA VDatum; USGS Modeled Dune Toe; 2016 El Nino DEM; USGS CoNED Topobathy DEM","source_estimatedyear":2016,"orig_scale":null,"legend_headings":"Estuarine and Marine","legcode":"RS","leglabellevel1":"Rocky Shore","leglabellevel2":"Rocky Shore","major_class":"Wetland","wetland_class":"Marine","anthropogenic_modifier":"Natural","wetland_type":"Rocky","wetland_subtype":"none","tidal_modifier":"Intertidal","vegetation_modifier":"Non-vegetated","salinity_modifier":"Saline","salinity_source":"CARI Marine","salinity_additional_information":"Wetland Mapping classified Marine","lastupdate":1770120526000,"CARI_id":224654,"Shape__Area":549.4140625,"Shape__Length":206.74168259300953}},"geometry":{"type":"Polygon","coordinates":[[[-117.271275893123,32.85063870275],[-117.271200946679,32.8505937617756],[-117.271211360848,32.8505035333676],[-117.271200644845,32.8504945370104],[-117.271232623971,32.8504674060567],[-117.271189794993,32.8504404365929],[-117.271200398707,32.8504133516571],[-117.271178998142,32.8504043779308],[-117.271168200392,32.8503683192541],[-117.271125481009,32.8503774318425],[-117.271104052596,32.8503594375924],[-117.271114685056,32.8503413731548],[-117.27109331144,32.8503414199441],[-117.271082542437,32.8503143817674],[-117.271103861255,32.8502962939259],[-117.271050399817,32.8502873888624],[-117.271050346817,32.8502693485595],[-117.271118784068,32.8502872417025],[-117.271146527638,32.8502691402715],[-117.271157239149,32.8502781374061],[-117.271183928096,32.8502690587675],[-117.271136003874,32.8503232860735],[-117.271157487982,32.8503593221285],[-117.271210892826,32.8503501861436],[-117.271227061603,32.8503952532705],[-117.271328584705,32.8503950336628],[-117.271323309797,32.8504175966496],[-117.271375489339,32.8504219933298],[-117.27129508024,32.8506386604888],[-117.271275893123,32.85063870275]]]}},{"type":"Feature","id":"224655","properties":{"site_id":"la-jolla-cove","source_feature_id":224655,"source_dataset":"California Aquatic Resources Inventory (CARI) v3.3","source_class":"Marine Rocky Shore Natural Intertidal","source_legcode":"RS","source_attributes":{"OBJECTID":224655,"clickcode":"WMNrnIN","clicklabel":"Marine Rocky Shore Natural Intertidal","name":null,"orig_dataset":"Elevation Modeled Polygons via ESI Classification","orig_class":"1A","organization":"San Francisco Estuary Institute (SFEI)","orig_dataset_pubyear":2022,"process_adjustment":null,"source_data":"ESI Classification; NOAA VDatum; USGS Modeled Dune Toe; 2016 El Nino DEM; USGS CoNED Topobathy DEM","source_estimatedyear":2016,"orig_scale":null,"legend_headings":"Estuarine and Marine","legcode":"RS","leglabellevel1":"Rocky Shore","leglabellevel2":"Rocky Shore","major_class":"Wetland","wetland_class":"Marine","anthropogenic_modifier":"Natural","wetland_type":"Rocky","wetland_subtype":"none","tidal_modifier":"Intertidal","vegetation_modifier":"Non-vegetated","salinity_modifier":"Saline","salinity_source":"CARI Marine","salinity_additional_information":"Wetland Mapping classified Marine","lastupdate":1770120526000,"CARI_id":224655,"Shape__Area":3428.1953125,"Shape__Length":684.1691167333214}},"geometry":{"type":"Polygon","coordinates":[[[-117.272976629433,32.8511401540634],[-117.272944568561,32.8511402250013],[-117.272933799557,32.851113187068],[-117.272944209235,32.8510229584335],[-117.273039977729,32.8508878892518],[-117.273040058577,32.8509145023795],[-117.273072202993,32.8509414943391],[-117.273125663532,32.8509503985823],[-117.273125719228,32.8509684387468],[-117.273147119793,32.850977412416],[-117.273157890593,32.8510044503907],[-117.273147313829,32.8510405563525],[-117.273168825785,32.8510856118088],[-117.273211655661,32.8511125803219],[-117.273201134593,32.8511667263639],[-117.273222535158,32.8511757007677],[-117.273233319433,32.8512072485219],[-117.273249335496,32.851202703213],[-117.273243882722,32.8511666335408],[-117.273275941798,32.8511665633575],[-117.273286712598,32.8511936012746],[-117.273329514626,32.8512115493213],[-117.273329570322,32.8512295894327],[-117.273361685093,32.8512475616212],[-117.273383169202,32.8512835957916],[-117.273404571563,32.8512925701836],[-117.273495382255,32.8512833512824],[-117.273511453116,32.8512968460751],[-117.273538156436,32.851292278131],[-117.27355424167,32.8513102842664],[-117.273607593513,32.8512831052639],[-117.273639709182,32.8513010766869],[-117.273650327269,32.8512785018502],[-117.273703662942,32.8512468137548],[-117.273655545582,32.8512378982216],[-117.273660860016,32.8512288657153],[-117.273741012197,32.8512286906345],[-117.273772975153,32.8511970485556],[-117.273751517994,32.851170034034],[-117.273821024241,32.8511834126265],[-117.273820955071,32.8511608611543],[-117.27385300157,32.8511562811286],[-117.273884951051,32.8511201291797],[-117.273885020222,32.8511426799076],[-117.273949196764,32.8511605811758],[-117.274013317611,32.8511604400545],[-117.274055047051,32.8511332874192],[-117.27407587988,32.8513362044919],[-117.274024738791,32.8513994598623],[-117.27398199156,32.8513995541944],[-117.273971387846,32.8514266388292],[-117.273939300024,32.851417687845],[-117.273918036902,32.8514538155237],[-117.27388594908,32.8514448668063],[-117.273864603312,32.8514539340048],[-117.273821828233,32.8514450071725],[-117.273821772538,32.8514269663502],[-117.273789712563,32.8514270365333],[-117.273768366796,32.8514361037335],[-117.273768448542,32.8514631649628],[-117.273728554361,32.8514722729109],[-117.273693641337,32.8514633287233],[-117.273704286373,32.8514496543476],[-117.273693530844,32.8514272463278],[-117.273650783613,32.8514273399053],[-117.273618612248,32.851391328433],[-117.273586551375,32.8513913986161],[-117.273575794948,32.8513687007932],[-117.273586413035,32.8513462965263],[-117.273564983724,32.851328301718],[-117.273532951597,32.8513373923228],[-117.273543583159,32.8513193280843],[-117.273532868054,32.8513103303005],[-117.273511550134,32.8513284186899],[-117.273383336288,32.8513377190895],[-117.273383391086,32.8513557606846],[-117.273415507654,32.8513737313382],[-117.273426332353,32.8514188100197],[-117.273404958737,32.8514188568084],[-117.273394381973,32.851454961847],[-117.273373036205,32.8514640290444],[-117.273319574768,32.8514551248527],[-117.273330206329,32.8514370613929],[-117.273351579046,32.8514370146042],[-117.273340671702,32.8513648746809],[-117.273330067989,32.8513919593262],[-117.273287403403,32.8514191133917],[-117.273255315581,32.8514101631615],[-117.273244684019,32.8514282273816],[-117.273228710177,32.8514192416834],[-117.273212623147,32.8514282975646],[-117.273191193836,32.8514103035277],[-117.273191277379,32.8514373647648],[-117.273169903763,32.8514374115535],[-117.273148280416,32.8513562738516],[-117.273133416892,32.8513472851275],[-117.27311622134,32.8513563440347],[-117.27310545054,32.8513293054126],[-117.273116110848,32.8513202615958],[-117.273105230453,32.8512571412527],[-117.273137262579,32.8512480506398],[-117.273147976786,32.8512570484298],[-117.273169239908,32.8512209191616],[-117.273137179934,32.8512209893449],[-117.273126436982,32.8512029718715],[-117.273073003392,32.8512030880889],[-117.273062234388,32.8511760501748],[-117.273051629777,32.8512031348778],[-117.272966108365,32.8511943015979],[-117.272955310615,32.8511582424875],[-117.272976629433,32.8511401540634]],[[-117.272983912075,32.8511401397248],[-117.273008744205,32.85115812627],[-117.273030118719,32.8511580794811],[-117.273030035175,32.8511310181588],[-117.272976601586,32.8511311343763],[-117.272983912075,32.8511401397248]],[[-117.273821052089,32.8511924338175],[-117.273826395268,32.851192421743],[-117.273826368319,32.851183400552],[-117.273821024241,32.8511834126265],[-117.273821052089,32.8511924338175]]]}}]}