{"type":"FeatureCollection","properties":{"site_id":"leo-carrillo","dataset_name":"California Aquatic Resources Inventory (CARI) v3.3","source_url":"https://www.sfei.org/data/california-aquatic-resource-inventory-cari-gis-data","dataset_date":"2026-02-19","resolution_meters":null,"provenance":"official-gis","outline_kind":"rocky-intertidal","geometry_status":"exploratory","disclaimer":"Static modeled rocky-intertidal habitat context, not a tide-specific waterline, surveyed boundary, navigational chart, safe route, or real-time access condition.","coordinate":{"latitude":34.0446,"longitude":-118.9343},"selection_radius_meters":350.0,"selection_method":"Original CARI Rocky Shore polygons intersecting a local-radius buffer; geometry is selected, not crop-clipped.","simplify_meters":1.0,"source":{"dataset_name":"California Aquatic Resources Inventory (CARI) v3.3","publisher":"San Francisco Estuary Institute","endpoint":"https://services2.arcgis.com/Uq9r85Potqm3MfRV/arcgis/rest/services/biosds2835_fpu/FeatureServer/0/query","dataset_url":"https://www.sfei.org/data/california-aquatic-resource-inventory-cari-gis-data","license":"GPL-3.0-or-later","license_url":"https://www.gnu.org/licenses/gpl-3.0.html","citation":"San Francisco Estuary Institute (SFEI). 2026. California Aquatic Resource Inventory (CARI), version 3.3. Accessed 2026-10-03.","accessed_at":"2026-10-03T18:26:19.614363+00:00"}},"features":[{"type":"Feature","id":"183327","properties":{"site_id":"leo-carrillo","source_feature_id":183327,"source_dataset":"California Aquatic Resources Inventory (CARI) v3.3","source_class":"Marine Rocky Shore Natural Intertidal","source_legcode":"RS","source_attributes":{"OBJECTID":183327,"clickcode":"WMNrnIN","clicklabel":"Marine Rocky Shore Natural Intertidal","name":null,"orig_dataset":"Elevation Modeled Polygons via ESI Classification","orig_class":"1A","organization":"San Francisco Estuary Institute (SFEI)","orig_dataset_pubyear":2022,"process_adjustment":null,"source_data":"ESI Classification; NOAA VDatum; USGS Modeled Dune Toe; 2016 El Nino DEM; USGS CoNED Topobathy DEM","source_estimatedyear":2016,"orig_scale":null,"legend_headings":"Estuarine and Marine","legcode":"RS","leglabellevel1":"Rocky Shore","leglabellevel2":"Rocky Shore","major_class":"Wetland","wetland_class":"Marine","anthropogenic_modifier":"Natural","wetland_type":"Rocky","wetland_subtype":"none","tidal_modifier":"Intertidal","vegetation_modifier":"Non-vegetated","salinity_modifier":"Saline","salinity_source":"CARI Marine","salinity_additional_information":"Wetland Mapping classified Marine","lastupdate":1770120526000,"CARI_id":183327,"Shape__Area":462.85546875,"Shape__Length":111.22583447702607}},"geometry":{"type":"Polygon","coordinates":[[[-118.93455329298,34.043655846401],[-118.934520400268,34.0436383310014],[-118.934519376188,34.0435932625688],[-118.934485869028,34.0435487054841],[-118.934495263609,34.0434854389987],[-118.934450927258,34.0434410523149],[-118.934461141103,34.0434138401422],[-118.934504248559,34.043404144901],[-118.934569216517,34.0434031221554],[-118.934602314943,34.0434296525013],[-118.93460354294,34.0434837351686],[-118.934636641367,34.0435102640005],[-118.934628475681,34.043627613043],[-118.93460722783,34.0436459807303],[-118.93455329298,34.043655846401]]]}},{"type":"Feature","id":"183328","properties":{"site_id":"leo-carrillo","source_feature_id":183328,"source_dataset":"California Aquatic Resources Inventory (CARI) v3.3","source_class":"Marine Rocky Shore Natural Intertidal","source_legcode":"RS","source_attributes":{"OBJECTID":183328,"clickcode":"WMNrnIN","clicklabel":"Marine Rocky Shore Natural Intertidal","name":null,"orig_dataset":"Elevation Modeled Polygons via ESI Classification","orig_class":"1A","organization":"San Francisco Estuary Institute (SFEI)","orig_dataset_pubyear":2022,"process_adjustment":null,"source_data":"ESI Classification; NOAA VDatum; USGS Modeled Dune Toe; 2016 El Nino DEM; USGS CoNED Topobathy DEM","source_estimatedyear":2016,"orig_scale":null,"legend_headings":"Estuarine and Marine","legcode":"RS","leglabellevel1":"Rocky Shore","leglabellevel2":"Rocky Shore","major_class":"Wetland","wetland_class":"Marine","anthropogenic_modifier":"Natural","wetland_type":"Rocky","wetland_subtype":"none","tidal_modifier":"Intertidal","vegetation_modifier":"Non-vegetated","salinity_modifier":"Saline","salinity_source":"CARI Marine","salinity_additional_information":"Wetland Mapping classified Marine","lastupdate":1770120526000,"CARI_id":183328,"Shape__Area":4906.83203125,"Shape__Length":553.9863764680262}},"geometry":{"type":"Polygon","coordinates":[[[-118.934194151021,34.0441078378848],[-118.933977866345,34.0439083599862],[-118.934082388922,34.0439067157127],[-118.934114053637,34.0438701494149],[-118.934146539413,34.0438696387892],[-118.934157774642,34.0438874950543],[-118.934222334765,34.0438684455925],[-118.934243172086,34.0438320497348],[-118.934230501349,34.0437510968833],[-118.934262369982,34.0437235446405],[-118.93426196035,34.0437055171396],[-118.934229068536,34.0436880010059],[-118.93422845319,34.0436609601139],[-118.93427074228,34.0436152091202],[-118.93431364492,34.0435965005117],[-118.934432958258,34.0436036396171],[-118.934487711473,34.0436298282417],[-118.934499154213,34.0436566986865],[-118.934575564013,34.0436825471249],[-118.934683229794,34.0436538024044],[-118.934727360431,34.043689174852],[-118.934759843512,34.0436886627365],[-118.934780886547,34.0436612816749],[-118.934845852709,34.043660258188],[-118.934845033445,34.0436242038997],[-118.934898558663,34.0435963107012],[-118.934942283261,34.0436136556523],[-118.93498538892,34.0436039596896],[-118.935018706536,34.0436402060299],[-118.935019510528,34.0436755583855],[-118.935052144525,34.0436840611407],[-118.935242352007,34.04393353992],[-118.935209117935,34.0439160297883],[-118.93514414818,34.0439170532721],[-118.935069170295,34.0439543006314],[-118.934917477183,34.0439521807182],[-118.934841167994,34.0439308401562],[-118.93480265632,34.0439043955676],[-118.93477425698,34.0438462326284],[-118.93472001311,34.0438425778576],[-118.934693249603,34.0438565240453],[-118.934693864051,34.0438835656193],[-118.934597946436,34.0439527025086],[-118.934565465152,34.0439532138781],[-118.934560460638,34.0439713261825],[-118.934588552753,34.0440159686454],[-118.934567307597,34.0440343369931],[-118.934518374567,34.0440260910741],[-118.934486505934,34.0440536432186],[-118.934443193662,34.0440543242995],[-118.934432775002,34.0440725229269],[-118.934303249616,34.0440925950802],[-118.934264940062,34.0440751638824],[-118.934222855788,34.0441299279626],[-118.934194151021,34.0441078378848]],[[-118.934447469643,34.0437657159814],[-118.934446140136,34.0437071264323],[-118.934396900781,34.0436853600383],[-118.934359002655,34.0436859562658],[-118.934332854494,34.0437269441032],[-118.93439312606,34.0437575541482],[-118.934388121545,34.0437756664943],[-118.934436951269,34.0437794068686],[-118.934447469643,34.0437657159814]]]}},{"type":"Feature","id":"183332","properties":{"site_id":"leo-carrillo","source_feature_id":183332,"source_dataset":"California Aquatic Resources Inventory (CARI) v3.3","source_class":"Marine Rocky Shore Natural Intertidal","source_legcode":"RS","source_attributes":{"OBJECTID":183332,"clickcode":"WMNrnIN","clicklabel":"Marine Rocky Shore Natural Intertidal","name":null,"orig_dataset":"Elevation Modeled Polygons via ESI Classification","orig_class":"1A","organization":"San Francisco Estuary Institute (SFEI)","orig_dataset_pubyear":2022,"process_adjustment":null,"source_data":"ESI Classification; NOAA VDatum; USGS Modeled Dune Toe; 2016 El Nino DEM; USGS CoNED Topobathy DEM","source_estimatedyear":2016,"orig_scale":null,"legend_headings":"Estuarine and Marine","legcode":"RS","leglabellevel1":"Rocky Shore","leglabellevel2":"Rocky Shore","major_class":"Wetland","wetland_class":"Marine","anthropogenic_modifier":"Natural","wetland_type":"Rocky","wetland_subtype":"none","tidal_modifier":"Intertidal","vegetation_modifier":"Non-vegetated","salinity_modifier":"Saline","salinity_source":"CARI Marine","salinity_additional_information":"Wetland Mapping classified Marine","lastupdate":1770120526000,"CARI_id":183332,"Shape__Area":1372.33203125,"Shape__Length":221.75986227889314}},"geometry":{"type":"Polygon","coordinates":[[[-118.935819662409,34.0437305839919],[-118.935788978654,34.0436544239401],[-118.935798100147,34.0436182125906],[-118.93583037931,34.0436086870857],[-118.935863068105,34.0436171891032],[-118.935885543954,34.0436529032246],[-118.935972167598,34.043651538079],[-118.936069005088,34.0436229623165],[-118.936089840612,34.0435865663535],[-118.936143981176,34.0435857133229],[-118.936197505496,34.0435578193675],[-118.936241226501,34.0435751643264],[-118.936300199102,34.0435652182561],[-118.936390447449,34.0437892196746],[-118.936344008142,34.0438079848114],[-118.936246145675,34.0437914921843],[-118.936148898554,34.0438020418983],[-118.936126422706,34.043766328584],[-118.936061249932,34.0437583379522],[-118.936029586115,34.0437949042982],[-118.936028970769,34.0437678641847],[-118.935985659396,34.0437685452678],[-118.935936112816,34.043733258454],[-118.935887796929,34.0437520533773],[-118.935819662409,34.0437305839919]]]}},{"type":"Feature","id":"183333","properties":{"site_id":"leo-carrillo","source_feature_id":183333,"source_dataset":"California Aquatic Resources Inventory (CARI) v3.3","source_class":"Marine Rocky Shore Natural Intertidal","source_legcode":"RS","source_attributes":{"OBJECTID":183333,"clickcode":"WMNrnIN","clicklabel":"Marine Rocky Shore Natural Intertidal","name":null,"orig_dataset":"Elevation Modeled Polygons via ESI Classification","orig_class":"1A","organization":"San Francisco Estuary Institute (SFEI)","orig_dataset_pubyear":2022,"process_adjustment":null,"source_data":"ESI Classification; NOAA VDatum; USGS Modeled Dune Toe; 2016 El Nino DEM; USGS CoNED Topobathy DEM","source_estimatedyear":2016,"orig_scale":null,"legend_headings":"Estuarine and Marine","legcode":"RS","leglabellevel1":"Rocky Shore","leglabellevel2":"Rocky Shore","major_class":"Wetland","wetland_class":"Marine","anthropogenic_modifier":"Natural","wetland_type":"Rocky","wetland_subtype":"none","tidal_modifier":"Intertidal","vegetation_modifier":"Non-vegetated","salinity_modifier":"Saline","salinity_source":"CARI Marine","salinity_additional_information":"Wetland Mapping classified Marine","lastupdate":1770120526000,"CARI_id":183333,"Shape__Area":7050.69921875,"Shape__Length":1059.913197293237}},"geometry":{"type":"Polygon","coordinates":[[[-118.937665020293,34.043787164516],[-118.937588815309,34.0437703324597],[-118.937522719068,34.0437217812669],[-118.937516485658,34.0436858118611],[-118.937449876478,34.0436147260341],[-118.937453855116,34.0435515451988],[-118.937431481676,34.0435203381064],[-118.937387246834,34.0434804600036],[-118.937338623723,34.0434857345079],[-118.937315943059,34.0434410083979],[-118.937272118748,34.0434191563346],[-118.937275482938,34.0433289336114],[-118.937209899634,34.0433029168404],[-118.937183445148,34.0433303843632],[-118.937166280139,34.0432900796542],[-118.937129203074,34.0433267310589],[-118.937129612706,34.0433447586404],[-118.937145854246,34.0433445025816],[-118.937146879224,34.0433895718908],[-118.937109391629,34.0434081956883],[-118.937076601324,34.0433951880604],[-118.937050966101,34.0434587091829],[-118.937019199876,34.0434907693294],[-118.936975888503,34.0434914526478],[-118.936964650579,34.043473595555],[-118.936931960886,34.0434650942675],[-118.936931141622,34.0434290391518],[-118.936880980595,34.0433667112109],[-118.936837874038,34.0433764072008],[-118.936817243329,34.0434218174081],[-118.936763820519,34.0434542177393],[-118.936791710513,34.0434898470727],[-118.93676556325,34.043530835005],[-118.936792837899,34.0435394218868],[-118.936816133909,34.0436111903501],[-118.936837789596,34.0436108486913],[-118.936838609758,34.0436469037296],[-118.936784674908,34.0436567708888],[-118.936740543373,34.0436213976834],[-118.936734513881,34.043594442371],[-118.93669068957,34.0435725903473],[-118.936681194377,34.0436313504464],[-118.936709903636,34.0437030332311],[-118.93665576397,34.0437038862606],[-118.936602649282,34.0437498084077],[-118.936504991631,34.0437423298894],[-118.936518554395,34.0435076758766],[-118.936607533422,34.043488240009],[-118.936639402055,34.0434606869364],[-118.936667170777,34.0432528610331],[-118.936688417731,34.0432344917718],[-118.936687392753,34.0431894238689],[-118.936665120822,34.0431627237341],[-118.936662866949,34.0430635728924],[-118.93674743974,34.0429720709801],[-118.936823031174,34.0429618635685],[-118.936844276331,34.0429434942442],[-118.936963587872,34.0429506311716],[-118.936996686298,34.0429771601703],[-118.936997096828,34.0429951878261],[-118.937051850942,34.0430213751498],[-118.937052466288,34.0430484169901],[-118.937085563816,34.0430749452139],[-118.937065958983,34.0431654235223],[-118.937087820384,34.0431740960424],[-118.937088229117,34.043192122912],[-118.937185476238,34.0431815738664],[-118.937273328778,34.0432342900509],[-118.937392025872,34.043214385175],[-118.93739161624,34.0431963575658],[-118.937413271927,34.0431960173941],[-118.937392642116,34.043241425465],[-118.937425330013,34.0432499282637],[-118.937427176051,34.0433310513071],[-118.937449035655,34.0433397238102],[-118.937491322948,34.0432939726431],[-118.937523601213,34.0432844463574],[-118.937599806197,34.0433012792545],[-118.937610224858,34.0432830812059],[-118.937598781219,34.0432562098983],[-118.937630855566,34.0432376709242],[-118.937619002296,34.043192773481],[-118.937672320902,34.0431558652148],[-118.937714197665,34.0430920870615],[-118.937779369541,34.0431000755231],[-118.937804306773,34.043243953304],[-118.937860087661,34.0433152091553],[-118.937861317454,34.0433692911512],[-118.937882625493,34.0433689554464],[-118.937665020293,34.043787164516]],[[-118.93779001278,34.0433298394938],[-118.93774965417,34.0432222723924],[-118.937716863865,34.0432092647359],[-118.937705419328,34.0431823934049],[-118.937689281094,34.0431871565536],[-118.937662723301,34.0432101185146],[-118.93767937627,34.0432278893174],[-118.937675090408,34.0432775498857],[-118.937707880712,34.043290558276],[-118.937714012612,34.0433220207673],[-118.937735770707,34.0433261854452],[-118.937747316753,34.043357563811],[-118.937774386586,34.0433571358058],[-118.93779001278,34.0433298394938]],[[-118.936927144119,34.0432532719186],[-118.936947774828,34.0432078623652],[-118.936926220651,34.0432127111137],[-118.936923556248,34.0430955326998],[-118.936890560229,34.0430735100893],[-118.936875343666,34.0431188348575],[-118.936848477751,34.0431282748163],[-118.936843576543,34.0431508951326],[-118.936837752765,34.0431329531112],[-118.936783818814,34.0431428195858],[-118.936844500011,34.0431914559669],[-118.936819376828,34.0432775126678],[-118.93683205026,34.043358465227],[-118.936896812503,34.0433484283198],[-118.936923369398,34.0433254671406],[-118.936927144119,34.0432532719186]]]}}]}