{"type":"FeatureCollection","properties":{"site_id":"ocean-beach-pier-reefs","dataset_name":"California Aquatic Resources Inventory (CARI) v3.3","source_url":"https://www.sfei.org/data/california-aquatic-resource-inventory-cari-gis-data","dataset_date":"2026-02-19","resolution_meters":null,"provenance":"official-gis","outline_kind":"rocky-intertidal","geometry_status":"exploratory","disclaimer":"Static modeled rocky-intertidal habitat context, not a tide-specific waterline, surveyed boundary, navigational chart, safe route, or real-time access condition.","coordinate":{"latitude":32.74862,"longitude":-117.253754},"selection_radius_meters":350.0,"selection_method":"Original CARI Rocky Shore polygons intersecting a local-radius buffer; geometry is selected, not crop-clipped.","simplify_meters":1.0,"source":{"dataset_name":"California Aquatic Resources Inventory (CARI) v3.3","publisher":"San Francisco Estuary Institute","endpoint":"https://services2.arcgis.com/Uq9r85Potqm3MfRV/arcgis/rest/services/biosds2835_fpu/FeatureServer/0/query","dataset_url":"https://www.sfei.org/data/california-aquatic-resource-inventory-cari-gis-data","license":"GPL-3.0-or-later","license_url":"https://www.gnu.org/licenses/gpl-3.0.html","citation":"San Francisco Estuary Institute (SFEI). 2026. California Aquatic Resource Inventory (CARI), version 3.3. Accessed 2026-09-18.","accessed_at":"2026-09-18T16:45:11.935397+00:00"}},"features":[{"type":"Feature","id":"215491","properties":{"site_id":"ocean-beach-pier-reefs","source_feature_id":215491,"source_dataset":"California Aquatic Resources Inventory (CARI) v3.3","source_class":"Marine Rocky Shore Natural Intertidal","source_legcode":"RS","source_attributes":{"OBJECTID":215491,"clickcode":"WMNrnIN","clicklabel":"Marine Rocky Shore Natural Intertidal","name":null,"orig_dataset":"Elevation Modeled Polygons via ESI Classification","orig_class":"2A","organization":"San Francisco Estuary Institute (SFEI)","orig_dataset_pubyear":2022,"process_adjustment":null,"source_data":"ESI Classification; NOAA VDatum; USGS Modeled Dune Toe; 2016 El Nino DEM; USGS CoNED Topobathy DEM","source_estimatedyear":2016,"orig_scale":null,"legend_headings":"Estuarine and Marine","legcode":"RS","leglabellevel1":"Rocky Shore","leglabellevel2":"Rocky Shore","major_class":"Wetland","wetland_class":"Marine","anthropogenic_modifier":"Natural","wetland_type":"Rocky","wetland_subtype":"none","tidal_modifier":"Intertidal","vegetation_modifier":"Non-vegetated","salinity_modifier":"Saline","salinity_source":"CARI Marine","salinity_additional_information":"Wetland Mapping classified Marine","lastupdate":1770120526000,"CARI_id":215491,"Shape__Area":22818.078125,"Shape__Length":3553.927784323065}},"geometry":{"type":"Polygon","coordinates":[[[-117.255461491823,32.7449140711178],[-117.2554560651,32.7448825098042],[-117.255466597847,32.7448328739265],[-117.255487932835,32.7448283209097],[-117.255493141267,32.7447832062875],[-117.255514413373,32.7447561004807],[-117.25549281967,32.7446704483438],[-117.255460707593,32.7446389405888],[-117.255519221156,32.7445711665021],[-117.255519143901,32.7445441044535],[-117.255476344568,32.7445081085992],[-117.255497448689,32.7444223693337],[-117.255454700559,32.7444044148288],[-117.255449004342,32.7442781362957],[-117.255368640158,32.7441700508986],[-117.255320542561,32.7441475976921],[-117.255315076313,32.7441025053924],[-117.255283002864,32.7440845296671],[-117.25527214852,32.7440214056854],[-117.255271994908,32.7439672820016],[-117.255293277794,32.7439446866969],[-117.255352101276,32.7439851610377],[-117.255378785731,32.7439851066367],[-117.255400082092,32.7439670220857],[-117.255399902429,32.7439038768648],[-117.255330496793,32.7438949974069],[-117.255314510374,32.7439040514014],[-117.255319886791,32.7439175708126],[-117.255154529405,32.7439494800301],[-117.255079965643,32.7440037563496],[-117.254957574678,32.7441302944315],[-117.254930863273,32.7441213288614],[-117.254941473274,32.7440987555073],[-117.254904075511,32.7440853003469],[-117.254893298422,32.7440492393283],[-117.254839916935,32.7440448373852],[-117.254834515365,32.7440222965011],[-117.25480780396,32.7440133301645],[-117.25485573447,32.7439771504925],[-117.254855606011,32.7439320475285],[-117.254876838591,32.7438914107161],[-117.254930131146,32.7438642396589],[-117.254967502858,32.7438686748561],[-117.254999486475,32.7438550783693],[-117.25505805214,32.7438053459618],[-117.255143340888,32.7437690883815],[-117.255121890916,32.7437330491465],[-117.255121761559,32.7436879460589],[-117.255169692069,32.7436517662547],[-117.255207076358,32.7436607099605],[-117.255228244259,32.7435975222104],[-117.255281511661,32.7435613310359],[-117.255259983535,32.7434982293507],[-117.255206638878,32.7435073596985],[-117.255121607947,32.7436338221726],[-117.255057615559,32.7436519936819],[-117.255015060568,32.7437016944411],[-117.255020307627,32.7436701107864],[-117.255089534498,32.7436158463527],[-117.255132023912,32.7435435939626],[-117.255073215702,32.7435076309493],[-117.255035985025,32.743552810441],[-117.255009299672,32.7435528648422],[-117.254966487762,32.7435123578155],[-117.2549503109,32.7434537562928],[-117.254907577144,32.7434403123685],[-117.254896851259,32.7434222926864],[-117.254944755718,32.7433770919724],[-117.255019485669,32.7433814501253],[-117.255077986655,32.7433091650552],[-117.255077883349,32.7432730825665],[-117.255045784747,32.7432460858587],[-117.255024463234,32.7432551497416],[-117.255003063567,32.7432371519337],[-117.255013403176,32.7431198615964],[-117.254992004407,32.7431018637612],[-117.254986559718,32.743064211855],[-117.255141299916,32.7430528260642],[-117.255162863974,32.7431285786827],[-117.255130867781,32.7431376644893],[-117.255130945036,32.7431647262095],[-117.255162992434,32.7431736812978],[-117.255173948287,32.7432728868725],[-117.255206073838,32.7433089051374],[-117.255206150195,32.7433359668056],[-117.255227497759,32.7433359237379],[-117.255259674514,32.7433899820702],[-117.255302396593,32.7433989159798],[-117.255355689147,32.7433717447724],[-117.255409058956,32.7433716359697],[-117.255440976098,32.7433354885269],[-117.25544087369,32.7432994060487],[-117.255376625283,32.7432273702521],[-117.25535527682,32.743227414831],[-117.255323178218,32.7432004173538],[-117.255259109474,32.7431915280033],[-117.255258688164,32.7430441890617],[-117.255493470948,32.7430286770606],[-117.255514973921,32.7430827574911],[-117.255557771458,32.7431187531656],[-117.255568548547,32.7431548138052],[-117.255589923061,32.7431637908062],[-117.255611424237,32.7432178711547],[-117.255654249621,32.7432628883446],[-117.255729637138,32.7434972727948],[-117.255719246325,32.7435965218324],[-117.25568735254,32.743641690701],[-117.255676601502,32.7436146495262],[-117.255687171978,32.7435785452495],[-117.255655073377,32.7435515486343],[-117.255665711226,32.7435387061609],[-117.25565497007,32.7435154662437],[-117.255612300993,32.7435245739225],[-117.255580227544,32.7435065980806],[-117.255612119533,32.7434614298991],[-117.25564419388,32.7434794057501],[-117.255665516292,32.7434703418898],[-117.25566533573,32.7434071963169],[-117.255643961216,32.7433982193404],[-117.255654584693,32.743380156582],[-117.255611862615,32.7433712226705],[-117.255601292139,32.7434073277868],[-117.255505458068,32.7434887083705],[-117.255558853928,32.7434976203586],[-117.255558956336,32.743533703512],[-117.255569681322,32.743551722416],[-117.255591029785,32.7435516793484],[-117.255591133091,32.7435877624799],[-117.255548411013,32.7435788285893],[-117.2555270895,32.743587893194],[-117.255505869496,32.7436330393998],[-117.255473848149,32.743633104379],[-117.255345580405,32.7435702211051],[-117.255313585109,32.7435793076223],[-117.255324335248,32.7436063472968],[-117.255281639221,32.7436064341876],[-117.255281691324,32.7436244757441],[-117.255335061133,32.7436243669417],[-117.255399284388,32.7436873808913],[-117.255420607697,32.7436783170523],[-117.255420530442,32.7436512554881],[-117.255431229377,32.7436602543506],[-117.255505921598,32.7436510809509],[-117.255505998853,32.7436781425151],[-117.255527347316,32.743678098692],[-117.255506050057,32.7436961848127],[-117.255506127313,32.7437232463632],[-117.255559522275,32.7437321583278],[-117.255591621775,32.7437591548884],[-117.255623901836,32.7438492959895],[-117.255613330462,32.7438854001565],[-117.255634704976,32.7438943770839],[-117.255613382564,32.7439034416565],[-117.255602785139,32.7439305258112],[-117.255613484972,32.7439395246455],[-117.255634807384,32.7439304600766],[-117.255634884639,32.7439575223116],[-117.255656207949,32.7439484577445],[-117.255666906884,32.743957456577],[-117.2556671647,32.7440476632121],[-117.255710349411,32.7442189686012],[-117.25572148852,32.7443813186949],[-117.255711329473,32.7445617536822],[-117.255679384483,32.7445888814595],[-117.255593940327,32.7445710138781],[-117.255561995337,32.744598140897],[-117.255583472258,32.7446432004566],[-117.255615520555,32.7446521561519],[-117.255647490697,32.7446340498251],[-117.255668890364,32.7446520473508],[-117.255647567952,32.7446611118463],[-117.255647620055,32.7446791524337],[-117.255669018823,32.7446971507058],[-117.255658397143,32.7447152139528],[-117.255679770759,32.7447241915522],[-117.255690651153,32.744796334184],[-117.255669379946,32.7448234399786],[-117.255648495912,32.7449858554602],[-117.255627122296,32.7449768786428],[-117.255605851089,32.7450039836268],[-117.255637949691,32.7450309805575],[-117.255627482521,32.745103167519],[-117.255691553062,32.7451120581899],[-117.255723910378,32.7452292605265],[-117.255735950498,32.7457073336978],[-117.255716405853,32.7463388232446],[-117.255695468818,32.7464831980119],[-117.25564238108,32.7465825336334],[-117.255557218096,32.7466638931836],[-117.255557270198,32.7466819348766],[-117.25545057819,32.7467001941631],[-117.255461098361,32.7466460479292],[-117.255503718031,32.746618899623],[-117.255492940942,32.7465828381188],[-117.255439594489,32.7465919681505],[-117.255428869503,32.7465739483503],[-117.25539684636,32.7465740133273],[-117.255407623448,32.7466100740795],[-117.255396974819,32.7466191164649],[-117.255364951676,32.746619181442],[-117.255322332904,32.7466463312592],[-117.255300957492,32.7466373538535],[-117.255290489424,32.746709540269],[-117.255247740396,32.7466915854695],[-117.255237117818,32.7467096498232],[-117.255226391035,32.7466916300467],[-117.255226443137,32.7467096709785],[-117.255205094674,32.7467097148001],[-117.255215845712,32.7467367542801],[-117.25520532644,32.7467909004588],[-117.255120342221,32.7469354044471],[-117.255088293924,32.7469264497369],[-117.255099123115,32.7469805512233],[-117.255065279985,32.7470076820418],[-117.254677657838,32.7467694210556],[-117.254692830384,32.7467468385503],[-117.254735476105,32.7467287107383],[-117.254730074535,32.7467061697778],[-117.25475678594,32.7467151365988],[-117.254767408518,32.7466970737574],[-117.254788770456,32.746701541302],[-117.254794056143,32.7466834882798],[-117.254820767548,32.7466924543477],[-117.254820716344,32.7466744134124],[-117.254842129485,32.7466969218925],[-117.254879502096,32.7467013561932],[-117.254873984644,32.7466382227323],[-117.254900696947,32.7466471888047],[-117.254927357148,32.7466381139336],[-117.254959225781,32.7465839253513],[-117.254953773007,32.7465433433923],[-117.254916323141,32.7465118461218],[-117.254926829837,32.7464531906614],[-117.254953490038,32.7464441157706],[-117.254990887802,32.7464575705747],[-117.255012133856,32.7464214447836],[-117.255086725466,32.746376188925],[-117.255113206004,32.7463039697509],[-117.255139892256,32.7463039153513],[-117.255171760889,32.7462497258101],[-117.25514484377,32.7461685948135],[-117.255192594617,32.7460692700638],[-117.25520292165,32.7459474690282],[-117.255186742991,32.7458888675961],[-117.255138579817,32.7458438623107],[-117.255138426205,32.7457897374674],[-117.255106352757,32.745771761327],[-117.255095498413,32.7457086392962],[-117.255116704044,32.7456589819676],[-117.255095214545,32.7456094115003],[-117.255095060035,32.7455552880256],[-117.255127019398,32.7455326712126],[-117.25516439111,32.7455371048156],[-117.255180338003,32.7455145204869],[-117.2551587982,32.7454469095109],[-117.255190845597,32.7454558643698],[-117.25519080697,32.7454423346142],[-117.255158668842,32.7454018065353],[-117.255158540383,32.745356703537],[-117.255179876269,32.7453521490358],[-117.255185289517,32.7453792002611],[-117.255201313665,32.7453836784496],[-117.255217274033,32.7453656040049],[-117.255227999917,32.7453836240495],[-117.255212014397,32.7453926771372],[-117.255244062693,32.7454016327572],[-117.255286682363,32.7453744833162],[-117.255275660035,32.7452527266643],[-117.255254272945,32.7452392384336],[-117.255254118434,32.7451851147341],[-117.255232693615,32.7451580966945],[-117.25524860188,32.7451219809543],[-117.255227240841,32.745117514086],[-117.255221762914,32.7450679115839],[-117.255237773588,32.7450678790948],[-117.25524320031,32.7450994403428],[-117.255264562248,32.745103907212],[-117.255274965637,32.7450091682833],[-117.255296327575,32.745013635157],[-117.25529637788,32.7450316764286],[-117.255413741874,32.7450133963999],[-117.255488499672,32.745026774353],[-117.255461491823,32.7449140711178]],[[-117.255317906006,32.7450947770278],[-117.255328735197,32.7451488796265],[-117.255360834697,32.7451758765133],[-117.25538218316,32.7451758326909],[-117.25540363403,32.7452118720978],[-117.255424982493,32.7452118282754],[-117.255413871231,32.7450584995721],[-117.255371122203,32.7450405451954],[-117.255328503431,32.7450676947381],[-117.255317906006,32.7450947770278]],[[-117.255339898561,32.7453202508985],[-117.255361374584,32.7453653108486],[-117.255318652506,32.7453563771361],[-117.255340206683,32.7454284981005],[-117.255286862026,32.7454376282504],[-117.255254993393,32.7454918167744],[-117.255265847737,32.74555494047],[-117.255297921186,32.7455729158985],[-117.255287298608,32.7455909789679],[-117.255319296598,32.7455818934115],[-117.255319244496,32.7455638522513],[-117.255340645061,32.7455818503448],[-117.255288019955,32.7458435570671],[-117.255298874298,32.7459066805134],[-117.255320247914,32.7459156579927],[-117.255309701693,32.7459607826191],[-117.255331050155,32.7459607387971],[-117.25533115436,32.7459968217084],[-117.255309805897,32.7459968647749],[-117.255309933458,32.7460419682048],[-117.255277885162,32.7460330134047],[-117.255267159277,32.7460149934914],[-117.255278142978,32.7461232194494],[-117.255257231097,32.7462766143198],[-117.255268162695,32.7463667989623],[-117.255246891488,32.7463939042792],[-117.2551828461,32.746394034989],[-117.255182922456,32.7464210972312],[-117.255204270919,32.7464210534095],[-117.255214997702,32.7464390732407],[-117.255183206324,32.7465203241231],[-117.25520457994,32.7465293015405],[-117.255204527837,32.7465112598168],[-117.255225851147,32.746502196265],[-117.255225723586,32.7464570923126],[-117.255257668576,32.7464299658598],[-117.255321713964,32.7464298351499],[-117.255343140581,32.7464568535594],[-117.255428637738,32.7464927624938],[-117.255418091516,32.746537886828],[-117.25545011466,32.7465378218508],[-117.255460866595,32.7465648621385],[-117.255482215058,32.7465648183167],[-117.255492709177,32.7465016522706],[-117.255471283459,32.7464746331191],[-117.255471025643,32.7463844266747],[-117.25549214234,32.7463031983348],[-117.255470742673,32.746285200387],[-117.255481365252,32.7462671367028],[-117.255470640266,32.7462491168368],[-117.255491962677,32.7462400532585],[-117.255481107435,32.7461769300484],[-117.255491756963,32.746167887618],[-117.255459681717,32.7461499115539],[-117.255395302156,32.7460327731393],[-117.25533040786,32.7457352234807],[-117.255340772622,32.7456269532291],[-117.255383289884,32.7455637207846],[-117.25540438053,32.7454734718623],[-117.255468194153,32.7453921550471],[-117.255468116898,32.7453650924924],[-117.25541474619,32.7453652020482],[-117.255425291513,32.7453200763646],[-117.255393243217,32.7453111207365],[-117.255371818398,32.7452841027351],[-117.255350469935,32.7452841458019],[-117.255339898561,32.7453202508985]],[[-117.255087201573,32.7465430713952],[-117.255087136894,32.7465205190544],[-117.255119146563,32.7465159442129],[-117.255119082782,32.7464933926209],[-117.255097708269,32.7464844151997],[-117.255102956226,32.746452831776],[-117.255081606865,32.7464528755977],[-117.255102904124,32.7464347907922],[-117.255092165663,32.746412260335],[-117.255076257398,32.7464483763076],[-117.25504431151,32.7464755035104],[-117.255022963047,32.7464755465767],[-117.255039103078,32.7465206180312],[-117.255087201573,32.7465430713952]],[[-117.255255996812,32.7458436228002],[-117.255213170529,32.7457986061587],[-117.255213120223,32.7457805650424],[-117.255234468686,32.7457805219759],[-117.25522371675,32.7457534814502],[-117.255244859499,32.745681272349],[-117.255202188624,32.7456903798064],[-117.255191437587,32.7456633400089],[-117.255170089124,32.7456633830755],[-117.255180865314,32.7456994441963],[-117.255170191532,32.7456994653518],[-117.255148740662,32.7456634268977],[-117.255148945477,32.7457355921912],[-117.255191976576,32.7458527740632],[-117.255255996812,32.7458436228002]],[[-117.255572179537,32.7444267274355],[-117.255593501949,32.7444176629161],[-117.255614875564,32.7444266397899],[-117.255625499041,32.74440857724],[-117.255614644697,32.7443454534878],[-117.255593296234,32.7443454973106],[-117.255604021221,32.7443635168061],[-117.255571998976,32.7443635817847],[-117.255582776962,32.7443996434316],[-117.255561454551,32.7444087079528],[-117.255572179537,32.7444267274355]],[[-117.25556114553,32.7443004595118],[-117.255550393595,32.7442734192925],[-117.255496895326,32.7442284252801],[-117.255531928724,32.7442193327846],[-117.255550265136,32.7442283164784],[-117.255592832704,32.7441831252402],[-117.255624236009,32.7439665649663],[-117.255592188612,32.7439576092021],[-117.255581462727,32.7439395896246],[-117.2555708662,32.7439666737683],[-117.255549518636,32.7439667168357],[-117.255560294826,32.7440027778876],[-117.255453504003,32.7439849540117],[-117.255506977119,32.7440209274103],[-117.255517754207,32.7440569891958],[-117.255475084231,32.7440660968193],[-117.255464487704,32.744093180169],[-117.255443165293,32.7441022439658],[-117.255464718571,32.7441743667009],[-117.25549679202,32.744192342408],[-117.255496843224,32.7442103838459],[-117.25547549566,32.7442104269132],[-117.255475572915,32.7442374890632],[-117.255507646364,32.7442554647576],[-117.255529149337,32.744309545199],[-117.25556114553,32.7443004595118]],[[-117.255409084109,32.7433806567722],[-117.255419757891,32.7433806348606],[-117.255419732738,32.7433716148137],[-117.255409058956,32.7433716359697],[-117.255409084109,32.7433806567722]],[[-117.255482240211,32.7465738387959],[-117.25547156553,32.7465738607068],[-117.25547159248,32.7465828811851],[-117.25548226716,32.7465828592742],[-117.255482240211,32.7465738387959]],[[-117.255466829612,32.74491406054],[-117.255466816137,32.7449095498387],[-117.255461480145,32.7449095604166],[-117.255461491823,32.7449140711178],[-117.255466829612,32.74491406054]]]}},{"type":"Feature","id":"215520","properties":{"site_id":"ocean-beach-pier-reefs","source_feature_id":215520,"source_dataset":"California Aquatic Resources Inventory (CARI) v3.3","source_class":"Marine Rocky Shore Natural Intertidal","source_legcode":"RS","source_attributes":{"OBJECTID":215520,"clickcode":"WMNrnIN","clicklabel":"Marine Rocky Shore Natural Intertidal","name":null,"orig_dataset":"Elevation Modeled Polygons via ESI Classification","orig_class":"2A","organization":"San Francisco Estuary Institute (SFEI)","orig_dataset_pubyear":2022,"process_adjustment":null,"source_data":"ESI Classification; NOAA VDatum; USGS Modeled Dune Toe; 2016 El Nino DEM; USGS CoNED Topobathy DEM","source_estimatedyear":2016,"orig_scale":null,"legend_headings":"Estuarine and Marine","legcode":"RS","leglabellevel1":"Rocky Shore","leglabellevel2":"Rocky Shore","major_class":"Wetland","wetland_class":"Marine","anthropogenic_modifier":"Natural","wetland_type":"Rocky","wetland_subtype":"none","tidal_modifier":"Intertidal","vegetation_modifier":"Non-vegetated","salinity_modifier":"Saline","salinity_source":"CARI Marine","salinity_additional_information":"Wetland Mapping classified Marine","lastupdate":1770120526000,"CARI_id":215520,"Shape__Area":253.92578125,"Shape__Length":88.15815479532563}},"geometry":{"type":"Polygon","coordinates":[[[-117.255332105676,32.7463305862463],[-117.255310665585,32.7462985940157],[-117.255331951165,32.7462764616987],[-117.2553105506,32.7462584645011],[-117.255299748359,32.7462133830919],[-117.255310242478,32.7461502167965],[-117.255352940302,32.7461501299082],[-117.255385038904,32.7461771264915],[-117.255417062047,32.7461770607586],[-117.255395816891,32.7462131866488],[-117.255417191404,32.7462221640972],[-117.255438694377,32.7462762448559],[-117.255417448323,32.7463123707058],[-117.255332105676,32.7463305862463]]]}},{"type":"Feature","id":"215521","properties":{"site_id":"ocean-beach-pier-reefs","source_feature_id":215521,"source_dataset":"California Aquatic Resources Inventory (CARI) v3.3","source_class":"Marine Rocky Shore Unnatural Intertidal","source_legcode":"RS","source_attributes":{"OBJECTID":215521,"clickcode":"WMUrnIN","clicklabel":"Marine Rocky Shore Unnatural Intertidal","name":null,"orig_dataset":"Elevation Modeled Polygons via ESI Classification","orig_class":"1B","organization":"San Francisco Estuary Institute (SFEI)","orig_dataset_pubyear":2022,"process_adjustment":null,"source_data":"ESI Classification; NOAA VDatum; USGS Modeled Dune Toe; 2016 El Nino DEM; USGS CoNED Topobathy DEM","source_estimatedyear":2016,"orig_scale":null,"legend_headings":"Estuarine and Marine","legcode":"RS","leglabellevel1":"Rocky Shore","leglabellevel2":"Rocky Shore","major_class":"Wetland","wetland_class":"Marine","anthropogenic_modifier":"Unnatural","wetland_type":"Rocky","wetland_subtype":"none","tidal_modifier":"Intertidal","vegetation_modifier":"Non-vegetated","salinity_modifier":"Saline","salinity_source":"CARI Marine","salinity_additional_information":"Wetland Mapping classified Marine","lastupdate":1770120526000,"CARI_id":215521,"Shape__Area":3167.234375,"Shape__Length":400.5671630712485}},"geometry":{"type":"Polygon","coordinates":[[[-117.254640836793,32.7472315236345],[-117.253986716841,32.7468294581998],[-117.253988528743,32.7468204339688],[-117.254041797941,32.7467842433479],[-117.254116594366,32.746811153607],[-117.254191290181,32.7468019820428],[-117.254255464028,32.7468469558668],[-117.254255502655,32.7468604854091],[-117.254308912889,32.746873909173],[-117.254362412056,32.7469189041159],[-117.254431847336,32.7469368044704],[-117.254554423354,32.746873409758],[-117.254554357777,32.7468508590119],[-117.254532984162,32.7468418823824],[-117.25454894453,32.7468238074779],[-117.254607691654,32.7468372191586],[-117.254677657838,32.7467694210556],[-117.255065279985,32.7470076820418],[-117.254928563585,32.7470620849405],[-117.254907318429,32.7470982104719],[-117.25483269987,32.7471344455422],[-117.254811427764,32.7471615513809],[-117.254640836793,32.7472315236345]],[[-117.254640638266,32.7471618974192],[-117.254651261742,32.7471438346683],[-117.254651312946,32.7471618762641],[-117.254672636256,32.747152812023],[-117.25469401077,32.7471617893767],[-117.254693805954,32.747089624483],[-117.254629783922,32.7470987748623],[-117.254619263752,32.7471529208211],[-117.254640638266,32.7471618974192]]]}},{"type":"Feature","id":"215522","properties":{"site_id":"ocean-beach-pier-reefs","source_feature_id":215522,"source_dataset":"California Aquatic Resources Inventory (CARI) v3.3","source_class":"Marine Rocky Shore Unnatural Intertidal","source_legcode":"RS","source_attributes":{"OBJECTID":215522,"clickcode":"WMUrnIN","clicklabel":"Marine Rocky Shore Unnatural Intertidal","name":null,"orig_dataset":"Elevation Modeled Polygons via ESI Classification","orig_class":"6B","organization":"San Francisco Estuary Institute (SFEI)","orig_dataset_pubyear":2022,"process_adjustment":null,"source_data":"ESI Classification; NOAA VDatum; USGS Modeled Dune Toe; 2016 El Nino DEM; USGS CoNED Topobathy DEM","source_estimatedyear":2016,"orig_scale":null,"legend_headings":"Estuarine and Marine","legcode":"RS","leglabellevel1":"Rocky Shore","leglabellevel2":"Rocky Shore","major_class":"Wetland","wetland_class":"Marine","anthropogenic_modifier":"Unnatural","wetland_type":"Rocky","wetland_subtype":"none","tidal_modifier":"Intertidal","vegetation_modifier":"Non-vegetated","salinity_modifier":"Saline","salinity_source":"CARI Marine","salinity_additional_information":"Wetland Mapping classified Marine","lastupdate":1770120526000,"CARI_id":215522,"Shape__Area":33.03515625,"Shape__Length":28.931752937758752}},"geometry":{"type":"Polygon","coordinates":[[[-117.253702661463,32.7514125523744],[-117.253723883264,32.7513674055778],[-117.253766659241,32.7513943809369],[-117.253766740089,32.751422653492],[-117.253702661463,32.7514125523744]]]}},{"type":"Feature","id":"215525","properties":{"site_id":"ocean-beach-pier-reefs","source_feature_id":215525,"source_dataset":"California Aquatic Resources Inventory (CARI) v3.3","source_class":"Marine Rocky Shore Unnatural Intertidal","source_legcode":"RS","source_attributes":{"OBJECTID":215525,"clickcode":"WMUrnIN","clicklabel":"Marine Rocky Shore Unnatural Intertidal","name":null,"orig_dataset":"Elevation Modeled Polygons via ESI Classification","orig_class":"6B","organization":"San Francisco Estuary Institute (SFEI)","orig_dataset_pubyear":2022,"process_adjustment":null,"source_data":"ESI Classification; NOAA VDatum; USGS Modeled Dune Toe; 2016 El Nino DEM; USGS CoNED Topobathy DEM","source_estimatedyear":2016,"orig_scale":null,"legend_headings":"Estuarine and Marine","legcode":"RS","leglabellevel1":"Rocky Shore","leglabellevel2":"Rocky Shore","major_class":"Wetland","wetland_class":"Marine","anthropogenic_modifier":"Unnatural","wetland_type":"Rocky","wetland_subtype":"none","tidal_modifier":"Intertidal","vegetation_modifier":"Non-vegetated","salinity_modifier":"Saline","salinity_source":"CARI Marine","salinity_additional_information":"Wetland Mapping classified Marine","lastupdate":1770120526000,"CARI_id":215525,"Shape__Area":491.63671875,"Shape__Length":285.6835885247629}},"geometry":{"type":"Polygon","coordinates":[[[-117.252859383262,32.751427787156],[-117.252869957331,32.7513916830236],[-117.252773865443,32.7513857228335],[-117.253606486931,32.7513772097864],[-117.253585213028,32.7514037688586],[-117.253563862769,32.7514038119225],[-117.253574587755,32.7514218322568],[-117.253606587542,32.7514127457839],[-117.253627962954,32.7514217234639],[-117.253640135126,32.7514036570437],[-117.253724036875,32.7514215292988],[-117.252848721158,32.751432021012],[-117.252859383262,32.751427787156]],[[-117.252971470551,32.7514275605041],[-117.253003494593,32.7514274962862],[-117.253008794653,32.7514139545939],[-117.252966043829,32.7513959992315],[-117.252912682104,32.7514006176418],[-117.252902045153,32.7514141699132],[-117.252971470551,32.7514275605041]]]}},{"type":"Feature","id":"215526","properties":{"site_id":"ocean-beach-pier-reefs","source_feature_id":215526,"source_dataset":"California Aquatic Resources Inventory (CARI) v3.3","source_class":"Marine Rocky Shore Unnatural Intertidal","source_legcode":"RS","source_attributes":{"OBJECTID":215526,"clickcode":"WMUrnIN","clicklabel":"Marine Rocky Shore Unnatural Intertidal","name":null,"orig_dataset":"Elevation Modeled Polygons via ESI Classification","orig_class":"6B","organization":"San Francisco Estuary Institute (SFEI)","orig_dataset_pubyear":2022,"process_adjustment":null,"source_data":"ESI Classification; NOAA VDatum; USGS Modeled Dune Toe; 2016 El Nino DEM; USGS CoNED Topobathy DEM","source_estimatedyear":2016,"orig_scale":null,"legend_headings":"Estuarine and Marine","legcode":"RS","leglabellevel1":"Rocky Shore","leglabellevel2":"Rocky Shore","major_class":"Wetland","wetland_class":"Marine","anthropogenic_modifier":"Unnatural","wetland_type":"Rocky","wetland_subtype":"none","tidal_modifier":"Intertidal","vegetation_modifier":"Non-vegetated","salinity_modifier":"Saline","salinity_source":"CARI Marine","salinity_additional_information":"Wetland Mapping classified Marine","lastupdate":1770120526000,"CARI_id":215526,"Shape__Area":31.41796875,"Shape__Length":38.14385490107036}},"geometry":{"type":"Polygon","coordinates":[[[-117.252843384266,32.7514320761639],[-117.252709950311,32.7514334345638],[-117.252709935938,32.7514280886029],[-117.252715234201,32.7514145469108],[-117.252757921245,32.7514099496554],[-117.252789984813,32.7514234165531],[-117.252821983701,32.751414330836],[-117.252843384266,32.7514320761639]]]}}]}