{"type":"FeatureCollection","properties":{"site_id":"pelican-point-crystal-cove","dataset_name":"California Aquatic Resources Inventory (CARI) v3.3","source_url":"https://www.sfei.org/data/california-aquatic-resource-inventory-cari-gis-data","dataset_date":"2026-02-19","resolution_meters":null,"provenance":"official-gis","outline_kind":"rocky-intertidal","geometry_status":"exploratory","disclaimer":"Static modeled rocky-intertidal habitat context, not a tide-specific waterline, surveyed boundary, navigational chart, safe route, or real-time access condition.","coordinate":{"latitude":33.58363,"longitude":-117.860252},"selection_radius_meters":350.0,"selection_method":"Original CARI Rocky Shore polygons intersecting a local-radius buffer; geometry is selected, not crop-clipped.","simplify_meters":1.0,"source":{"dataset_name":"California Aquatic Resources Inventory (CARI) v3.3","publisher":"San Francisco Estuary Institute","endpoint":"https://services2.arcgis.com/Uq9r85Potqm3MfRV/arcgis/rest/services/biosds2835_fpu/FeatureServer/0/query","dataset_url":"https://www.sfei.org/data/california-aquatic-resource-inventory-cari-gis-data","license":"GPL-3.0-or-later","license_url":"https://www.gnu.org/licenses/gpl-3.0.html","citation":"San Francisco Estuary Institute (SFEI). 2026. California Aquatic Resource Inventory (CARI), version 3.3. Accessed 2026-09-18.","accessed_at":"2026-09-18T16:45:07.405627+00:00"}},"features":[{"type":"Feature","id":"199171","properties":{"site_id":"pelican-point-crystal-cove","source_feature_id":199171,"source_dataset":"California Aquatic Resources Inventory (CARI) v3.3","source_class":"Marine Rocky Shore Natural Intertidal","source_legcode":"RS","source_attributes":{"OBJECTID":199171,"clickcode":"WMNrnIN","clicklabel":"Marine Rocky Shore Natural Intertidal","name":null,"orig_dataset":"Elevation Modeled Polygons via ESI Classification","orig_class":"2A","organization":"San Francisco Estuary Institute (SFEI)","orig_dataset_pubyear":2022,"process_adjustment":null,"source_data":"ESI Classification; NOAA VDatum; USGS Modeled Dune Toe; 2016 El Nino DEM; USGS CoNED Topobathy DEM","source_estimatedyear":2016,"orig_scale":null,"legend_headings":"Estuarine and Marine","legcode":"RS","leglabellevel1":"Rocky Shore","leglabellevel2":"Rocky Shore","major_class":"Wetland","wetland_class":"Marine","anthropogenic_modifier":"Natural","wetland_type":"Rocky","wetland_subtype":"none","tidal_modifier":"Intertidal","vegetation_modifier":"Non-vegetated","salinity_modifier":"Saline","salinity_source":"CARI Marine","salinity_additional_information":"Wetland Mapping classified Marine","lastupdate":1770120526000,"CARI_id":199171,"Shape__Area":13236.328125,"Shape__Length":1461.6663758379698}},"geometry":{"type":"Polygon","coordinates":[[[-117.864253716949,33.5850611641053],[-117.864253491472,33.5850386176487],[-117.864210075895,33.5850073543367],[-117.864225879057,33.5849711668295],[-117.864192519221,33.5848676810716],[-117.864165535626,33.5848633585606],[-117.864127373396,33.5848185304568],[-117.864089660324,33.5848187938786],[-117.864068380133,33.5848459989171],[-117.864036054258,33.5848462256695],[-117.864035873696,33.5848281880107],[-117.863970862619,33.5847925654384],[-117.863890093295,33.5847976385558],[-117.863851705588,33.5847302631324],[-117.863851256431,33.5846851715371],[-117.863786964904,33.584721696674],[-117.863814442572,33.5847756188744],[-117.863787503893,33.5847758074606],[-117.863782341275,33.5847983914037],[-117.863815071393,33.5848387480826],[-117.863578104804,33.5848494219035],[-117.863486336508,33.5848320233427],[-117.863442964948,33.5848052695595],[-117.863399999426,33.5848190977118],[-117.863372926,33.5848057574887],[-117.863367269308,33.5847787402753],[-117.863302572642,33.5847746819302],[-117.863269933254,33.5847433421901],[-117.863237607379,33.5847435681943],[-117.863193922306,33.5846852486181],[-117.863150686392,33.5846720213765],[-117.8630742721,33.5845733442194],[-117.863073283954,33.584474140852],[-117.863051778286,33.5844788001447],[-117.863045987745,33.5844382547105],[-117.863019049067,33.5844384425491],[-117.86300329082,33.5844791376553],[-117.862975992815,33.5844432515159],[-117.862917268148,33.5844977770687],[-117.862895673547,33.5844934171212],[-117.86285813924,33.5845117175244],[-117.862814949139,33.5845029998755],[-117.862728926468,33.5845216377871],[-117.862630348043,33.5845223240333],[-117.862961864112,33.5841063829661],[-117.863005041636,33.584113851636],[-117.863026412557,33.5840956634031],[-117.863046796229,33.5839782727255],[-117.863121862149,33.5839416731858],[-117.863132457778,33.5839235612498],[-117.86315400926,33.5839234108284],[-117.863228626022,33.583841718481],[-117.863347062604,33.5838318722284],[-117.863358016661,33.5838498345104],[-117.863392768886,33.5840931084889],[-117.863469092448,33.5841827669237],[-117.863480818157,33.5842780559431],[-117.863481484707,33.5843450246109],[-117.863460114685,33.584363212043],[-117.863471248404,33.5843992112182],[-117.863535810324,33.5843897414549],[-117.863589865548,33.5844074027796],[-117.863740808566,33.5844153683353],[-117.86379495452,33.5844420474033],[-117.863828178711,33.5845320070647],[-117.863936019664,33.5845402734495],[-117.863957390585,33.5845220853064],[-117.863946256865,33.5844860869308],[-117.864021413515,33.584458504605],[-117.864053379166,33.5844222053617],[-117.864029941222,33.584232967105],[-117.864040446121,33.5842058367095],[-117.864061906873,33.5841966670186],[-117.86404632829,33.5842554007694],[-117.864073895789,33.5843183417711],[-117.864166114141,33.5843808322132],[-117.864246792735,33.5843667390708],[-117.864268567898,33.5843891352823],[-117.864264125729,33.5844838672937],[-117.864296585453,33.5844971694001],[-117.864318495363,33.5845330929351],[-117.864308034481,33.5845647328439],[-117.86431903525,33.58458720384],[-117.864302872762,33.5845873168423],[-117.86430309734,33.5846098634168],[-117.864368243165,33.5846590126537],[-117.864427371175,33.5846450714736],[-117.864454040359,33.5846178282053],[-117.864474781561,33.5845365099471],[-117.864463915539,33.5845275677927],[-117.864474196758,33.5844778908867],[-117.864447258079,33.5844780787252],[-117.864419916057,33.5844376829628],[-117.864441286977,33.5844194955465],[-117.864430241293,33.5843925156302],[-117.864440566528,33.584347348274],[-117.864413358355,33.5843204805893],[-117.864407657646,33.5842889535937],[-117.864389920411,33.5842980970822],[-117.864364555581,33.5842892544353],[-117.864358809058,33.5842532177961],[-117.864374791883,33.584235067759],[-117.864342510924,33.5842398033976],[-117.864331555969,33.5842218411968],[-117.864299499588,33.5842491235049],[-117.864266904218,33.5842222932079],[-117.864234669072,33.5842315377324],[-117.864239382532,33.5841638617732],[-117.864212489668,33.5841685585009],[-117.864196147516,33.5841506337034],[-117.864169343585,33.5841643504545],[-117.864083007401,33.5841514247234],[-117.864061817042,33.584187648496],[-117.864040267356,33.5841877989169],[-117.864039996963,33.5841607440919],[-117.864061547547,33.5841605936709],[-117.864114884119,33.5841061060715],[-117.864157804725,33.5840877681641],[-117.864233410532,33.5841052783812],[-117.864319611969,33.5841046766967],[-117.864341791373,33.5841676552265],[-117.864363162294,33.5841494685016],[-117.864351758181,33.5840864143738],[-117.864388068983,33.5840951792117],[-117.864416408135,33.584085962362],[-117.864449003506,33.584112791953],[-117.864502969796,33.5841214340565],[-117.86451446374,33.5841935066817],[-117.864493633606,33.5842658045037],[-117.864472262685,33.5842839927008],[-117.864483577864,33.5843380281773],[-117.864462386607,33.5843742526198],[-117.864462746831,33.5844103266266],[-117.864484387246,33.5844191947053],[-117.864495611696,33.5844642123519],[-117.864486095842,33.5845905460138],[-117.864573017727,33.5846620921507],[-117.864563051817,33.5847433339581],[-117.864574007671,33.5847612953021],[-117.864595557356,33.5847611448821],[-117.864595719053,33.5847773288723],[-117.864253716949,33.5850611641053]],[[-117.863101928533,33.5841041565839],[-117.863139955117,33.5841354583896],[-117.863134793398,33.584158041752],[-117.863113331747,33.5841672106988],[-117.863102376792,33.5841492484828],[-117.863070096731,33.5841539841261],[-117.863113512309,33.5841852477473],[-117.863168554781,33.5843021127931],[-117.863190105365,33.584301961624],[-117.863243352105,33.5842384570933],[-117.863247931716,33.5841572522287],[-117.863220590592,33.5841168570645],[-117.863139732335,33.5841129116912],[-117.863117822425,33.5840769887297],[-117.863101659937,33.5840771009843],[-117.863101928533,33.5841041565839]],[[-117.863091018494,33.5840907039957],[-117.863069422994,33.584086344776],[-117.863069603556,33.5841043818414],[-117.863091153241,33.5841042321687],[-117.863091018494,33.5840907039957]],[[-117.863091153241,33.5841042321687],[-117.863091243073,33.5841132499516],[-117.863102017466,33.5841131751153],[-117.863101928533,33.5841041565839],[-117.863091153241,33.5841042321687]]]}},{"type":"Feature","id":"199200","properties":{"site_id":"pelican-point-crystal-cove","source_feature_id":199200,"source_dataset":"California Aquatic Resources Inventory (CARI) v3.3","source_class":"Marine Rocky Shore Natural Intertidal","source_legcode":"RS","source_attributes":{"OBJECTID":199200,"clickcode":"WMNrnIN","clicklabel":"Marine Rocky Shore Natural Intertidal","name":null,"orig_dataset":"Elevation Modeled Polygons via ESI Classification","orig_class":"2A","organization":"San Francisco Estuary Institute (SFEI)","orig_dataset_pubyear":2022,"process_adjustment":null,"source_data":"ESI Classification; NOAA VDatum; USGS Modeled Dune Toe; 2016 El Nino DEM; USGS CoNED Topobathy DEM","source_estimatedyear":2016,"orig_scale":null,"legend_headings":"Estuarine and Marine","legcode":"RS","leglabellevel1":"Rocky Shore","leglabellevel2":"Rocky Shore","major_class":"Wetland","wetland_class":"Marine","anthropogenic_modifier":"Natural","wetland_type":"Rocky","wetland_subtype":"none","tidal_modifier":"Intertidal","vegetation_modifier":"Non-vegetated","salinity_modifier":"Saline","salinity_source":"CARI Marine","salinity_additional_information":"Wetland Mapping classified Marine","lastupdate":1770120526000,"CARI_id":199200,"Shape__Area":4967.8515625,"Shape__Length":461.24628134674634}},"geometry":{"type":"Polygon","coordinates":[[[-117.861554476252,33.5840292580601],[-117.861953301288,33.5834624996176],[-117.862029088556,33.5834983337791],[-117.862147525138,33.583488488984],[-117.862169433251,33.5835244136873],[-117.862287869833,33.5835145688952],[-117.86236338491,33.5835230621333],[-117.862374789023,33.5835861166727],[-117.862342732642,33.5836133969367],[-117.862332316676,33.5836495460983],[-117.86227871061,33.5836769775124],[-117.862268742904,33.5837582187506],[-117.862312829523,33.583857122098],[-117.862324770828,33.5839742876825],[-117.862346501075,33.5839921743501],[-117.862357814457,33.5840462100093],[-117.862384259063,33.584064063734],[-117.862252100715,33.5842518662535],[-117.862198070644,33.5842367253822],[-117.862154611049,33.5842009513964],[-117.862110702296,33.5841200847569],[-117.86206733343,33.5840933300045],[-117.86205566162,33.5840032202129],[-117.862076807962,33.5839624867157],[-117.862070657197,33.5838858668279],[-117.861979696486,33.5839496342942],[-117.86195271379,33.5839453124856],[-117.861946833418,33.5838957489959],[-117.861898434886,33.5839051050619],[-117.861888557011,33.5839953646289],[-117.861819056154,33.5840499638044],[-117.86179750557,33.5840501134773],[-117.861786551514,33.5840321519853],[-117.861727287858,33.5840325643341],[-117.86171134905,33.5840552233081],[-117.861565795024,33.5840472173076],[-117.861544908295,33.5840428535955],[-117.861554476252,33.5840292580601]]]}},{"type":"Feature","id":"199201","properties":{"site_id":"pelican-point-crystal-cove","source_feature_id":199201,"source_dataset":"California Aquatic Resources Inventory (CARI) v3.3","source_class":"Marine Rocky Shore Natural Intertidal","source_legcode":"RS","source_attributes":{"OBJECTID":199201,"clickcode":"WMNrnIN","clicklabel":"Marine Rocky Shore Natural Intertidal","name":null,"orig_dataset":"Elevation Modeled Polygons via ESI Classification","orig_class":"2A","organization":"San Francisco Estuary Institute (SFEI)","orig_dataset_pubyear":2022,"process_adjustment":null,"source_data":"ESI Classification; NOAA VDatum; USGS Modeled Dune Toe; 2016 El Nino DEM; USGS CoNED Topobathy DEM","source_estimatedyear":2016,"orig_scale":null,"legend_headings":"Estuarine and Marine","legcode":"RS","leglabellevel1":"Rocky Shore","leglabellevel2":"Rocky Shore","major_class":"Wetland","wetland_class":"Marine","anthropogenic_modifier":"Natural","wetland_type":"Rocky","wetland_subtype":"none","tidal_modifier":"Intertidal","vegetation_modifier":"Non-vegetated","salinity_modifier":"Saline","salinity_source":"CARI Marine","salinity_additional_information":"Wetland Mapping classified Marine","lastupdate":1770120526000,"CARI_id":199201,"Shape__Area":7222.90625,"Shape__Length":617.7489946930625}},"geometry":{"type":"Polygon","coordinates":[[[-117.86003961395,33.5835888392364],[-117.860298120343,33.5830594232103],[-117.860344145527,33.5831041990936],[-117.860387246694,33.5831038982478],[-117.860451449287,33.583058356779],[-117.860472640545,33.5830221325324],[-117.860569526543,33.5830124396028],[-117.860580570431,33.583039420699],[-117.860634803522,33.583075120329],[-117.860774969452,33.5830831638384],[-117.860882092651,33.5830192857209],[-117.860903194976,33.5829740428085],[-117.860989484447,33.5829824612624],[-117.861011482392,33.5830274040728],[-117.861001513787,33.5831086459225],[-117.861034197192,33.5831444951983],[-117.86103455562,33.5831805689708],[-117.861067507621,33.5832434733379],[-117.861121831441,33.5832881907527],[-117.861208300575,33.5833146464064],[-117.861249278125,33.5833594573307],[-117.860998612228,33.5837580436328],[-117.860991352044,33.5837129986766],[-117.86095889232,33.5836996957009],[-117.860958579706,33.5836681310601],[-117.860936759628,33.5836412249973],[-117.860930565744,33.5835600959043],[-117.860897972171,33.5835332646446],[-117.86085478207,33.583524546897],[-117.86084921521,33.5835065463804],[-117.860854424541,33.5834884717715],[-117.860886659686,33.5834792294125],[-117.860896986719,33.5834340615782],[-117.86084284346,33.5834073807018],[-117.860842350285,33.5833577787363],[-117.860874541413,33.5833440259352],[-117.860907135885,33.5833708572536],[-117.860928416974,33.58334365175],[-117.860928237311,33.5833256152739],[-117.86090664271,33.5833212552672],[-117.860734286549,33.5833269638376],[-117.860718437573,33.5833586408588],[-117.860680948181,33.5833814496838],[-117.860681305711,33.5834175241056],[-117.860713855267,33.5834398449782],[-117.860607045579,33.5835352882336],[-117.860596806582,33.583589474601],[-117.860526633785,33.5835764342835],[-117.860516082174,33.583599055959],[-117.860376409418,33.5836406128324],[-117.860230810477,33.5836280963802],[-117.86003961395,33.5835888392364]]]}}]}