{"type":"FeatureCollection","properties":{"site_id":"rockpile-beach","dataset_name":"California Aquatic Resources Inventory (CARI) v3.3","source_url":"https://www.sfei.org/data/california-aquatic-resource-inventory-cari-gis-data","dataset_date":"2026-02-19","resolution_meters":null,"provenance":"official-gis","outline_kind":"rocky-intertidal","geometry_status":"exploratory","disclaimer":"Static modeled rocky-intertidal habitat context, not a tide-specific waterline, surveyed boundary, navigational chart, safe route, or real-time access condition.","coordinate":{"latitude":33.5432,"longitude":-117.7922},"selection_radius_meters":350.0,"selection_method":"Original CARI Rocky Shore polygons intersecting a local-radius buffer; geometry is selected, not crop-clipped.","simplify_meters":1.0,"source":{"dataset_name":"California Aquatic Resources Inventory (CARI) v3.3","publisher":"San Francisco Estuary Institute","endpoint":"https://services2.arcgis.com/Uq9r85Potqm3MfRV/arcgis/rest/services/biosds2835_fpu/FeatureServer/0/query","dataset_url":"https://www.sfei.org/data/california-aquatic-resource-inventory-cari-gis-data","license":"GPL-3.0-or-later","license_url":"https://www.gnu.org/licenses/gpl-3.0.html","citation":"San Francisco Estuary Institute (SFEI). 2026. California Aquatic Resource Inventory (CARI), version 3.3. Accessed 2026-09-18.","accessed_at":"2026-09-18T16:45:07.898222+00:00"}},"features":[{"type":"Feature","id":"199998","properties":{"site_id":"rockpile-beach","source_feature_id":199998,"source_dataset":"California Aquatic Resources Inventory (CARI) v3.3","source_class":"Marine Rocky Shore Natural Intertidal","source_legcode":"RS","source_attributes":{"OBJECTID":199998,"clickcode":"WMNrnIN","clicklabel":"Marine Rocky Shore Natural Intertidal","name":null,"orig_dataset":"Elevation Modeled Polygons via ESI Classification","orig_class":"1A","organization":"San Francisco Estuary Institute (SFEI)","orig_dataset_pubyear":2022,"process_adjustment":null,"source_data":"ESI Classification; NOAA VDatum; USGS Modeled Dune Toe; 2016 El Nino DEM; USGS CoNED Topobathy DEM","source_estimatedyear":2016,"orig_scale":null,"legend_headings":"Estuarine and Marine","legcode":"RS","leglabellevel1":"Rocky Shore","leglabellevel2":"Rocky Shore","major_class":"Wetland","wetland_class":"Marine","anthropogenic_modifier":"Natural","wetland_type":"Rocky","wetland_subtype":"none","tidal_modifier":"Intertidal","vegetation_modifier":"Non-vegetated","salinity_modifier":"Saline","salinity_source":"CARI Marine","salinity_additional_information":"Wetland Mapping classified Marine","lastupdate":1770120526000,"CARI_id":199998,"Shape__Area":2276.30859375,"Shape__Length":648.5582212984152}},"geometry":{"type":"Polygon","coordinates":[[[-117.794537407212,33.5448698020684],[-117.794658428247,33.5446976591556],[-117.794690739749,33.5446974525129],[-117.794733574117,33.5446701195221],[-117.794732995602,33.5446069886432],[-117.794700271773,33.5445621022009],[-117.794710381413,33.5444898834361],[-117.794807233275,33.5444802430823],[-117.794828855724,33.5444891227497],[-117.794829021912,33.5445071606008],[-117.794850397324,33.5444889842389],[-117.794893726664,33.5445157639926],[-117.794905075979,33.5445788260571],[-117.794894387824,33.5445879138547],[-117.794915928526,33.5445877753441],[-117.794916092918,33.5446058124258],[-117.794948651457,33.544632661773],[-117.795024623777,33.5446953082207],[-117.795057017925,33.5447041197339],[-117.795057264961,33.5447311764418],[-117.795089659109,33.5447399872026],[-117.795079053599,33.5447580938821],[-117.795100595199,33.5447579553717],[-117.795111778326,33.5448029802226],[-117.795090237624,33.544803118733],[-117.795079632114,33.5448212253993],[-117.795155107665,33.5448297591303],[-117.795166291691,33.5448747839438],[-117.795187833291,33.5448746454336],[-117.795199264353,33.5449467261154],[-117.79526388646,33.5449463113338],[-117.79528575864,33.5449822475827],[-117.795307299343,33.5449821090726],[-117.795340272005,33.5450540511549],[-117.795361896251,33.5450629315121],[-117.795362308577,33.5451080250846],[-117.795383931925,33.5451169054362],[-117.795384098113,33.5451349431563],[-117.7954705924,33.5451704645462],[-117.795492628972,33.5452244384032],[-117.795524940475,33.5452242310131],[-117.79553546334,33.5451971055791],[-117.795567609552,33.5451788604817],[-117.795600063887,33.5451942515307],[-117.79547796667,33.5453875329839],[-117.795445607557,33.5453825773425],[-117.795363796187,33.5452703622002],[-117.795351703067,33.5451261316871],[-117.795275070485,33.5449913353379],[-117.795258749893,33.5449734024063],[-117.79518323212,33.5449603577535],[-117.795167282533,33.5449830082648],[-117.795135053675,33.5449922345299],[-117.795145493895,33.5449560908945],[-117.795166951953,33.5449469335062],[-117.795166621372,33.5449108587326],[-117.795123622613,33.5449201538861],[-117.795091188041,33.5449068337024],[-117.795091063176,33.544893305377],[-117.795069522473,33.5448934438871],[-117.795069357183,33.5448754061167],[-117.795010202224,33.5448848060926],[-117.794983193476,33.5448759594088],[-117.795015175297,33.5448396772145],[-117.795004073917,33.5448036720255],[-117.794961074259,33.5448129671906],[-117.794982037345,33.5447496979057],[-117.794960331352,33.544731797867],[-117.79492801985,33.5447320052583],[-117.794938542715,33.5447048804184],[-117.794906231213,33.5447050878098],[-117.794906065923,33.54468705],[-117.794851965783,33.544660339929],[-117.794787261031,33.5446517365516],[-117.794766793816,33.5447691178114],[-117.794800013515,33.5448681159873],[-117.794789655042,33.544913279291],[-117.794757591474,33.5449405425755],[-117.794692885824,33.5449319384773],[-117.794692721433,33.5449139014635],[-117.79464947384,33.5448961407177],[-117.794537407212,33.5448698020684]],[[-117.795047403256,33.544830450933],[-117.795047485901,33.5448394698234],[-117.795026109591,33.5448576461116],[-117.795069026603,33.5448393313131],[-117.795047403256,33.544830450933]],[[-117.795077268646,33.5448212403734],[-117.795068862212,33.5448212942801],[-117.795068943958,33.5448303124228],[-117.795079714759,33.544830243542],[-117.795077268646,33.5448212403734]]]}},{"type":"Feature","id":"200009","properties":{"site_id":"rockpile-beach","source_feature_id":200009,"source_dataset":"California Aquatic Resources Inventory (CARI) v3.3","source_class":"Marine Rocky Shore Natural Intertidal","source_legcode":"RS","source_attributes":{"OBJECTID":200009,"clickcode":"WMNrnIN","clicklabel":"Marine Rocky Shore Natural Intertidal","name":null,"orig_dataset":"Elevation Modeled Polygons via ESI Classification","orig_class":"2A","organization":"San Francisco Estuary Institute (SFEI)","orig_dataset_pubyear":2022,"process_adjustment":null,"source_data":"ESI Classification; NOAA VDatum; USGS Modeled Dune Toe; 2016 El Nino DEM; USGS CoNED Topobathy DEM","source_estimatedyear":2016,"orig_scale":null,"legend_headings":"Estuarine and Marine","legcode":"RS","leglabellevel1":"Rocky Shore","leglabellevel2":"Rocky Shore","major_class":"Wetland","wetland_class":"Marine","anthropogenic_modifier":"Natural","wetland_type":"Rocky","wetland_subtype":"none","tidal_modifier":"Intertidal","vegetation_modifier":"Non-vegetated","salinity_modifier":"Saline","salinity_source":"CARI Marine","salinity_additional_information":"Wetland Mapping classified Marine","lastupdate":1770120526000,"CARI_id":200009,"Shape__Area":246.63671875,"Shape__Length":144.17746887159686}},"geometry":{"type":"Polygon","coordinates":[[[-117.789214074381,33.5417831853155],[-117.789159977835,33.5417564721008],[-117.789138110146,33.5417205345106],[-117.789105717795,33.5417117211958],[-117.789083850106,33.5416757835869],[-117.78909975927,33.5416486255924],[-117.789148225176,33.5416483156174],[-117.789191877909,33.5417111723758],[-117.789294399937,33.5417330667716],[-117.789374969835,33.5417100058525],[-117.789385411852,33.5416738623418],[-117.789363585485,33.5416424335804],[-117.789417518538,33.5416511098844],[-117.789396511436,33.541709868086],[-117.789375134227,33.5417280435349],[-117.789342823623,33.5417282486873],[-117.789310923549,33.5417735484033],[-117.789267925687,33.5417828423969],[-117.789256991394,33.5417648728604],[-117.789214074381,33.5417831853155]]]}},{"type":"Feature","id":"200010","properties":{"site_id":"rockpile-beach","source_feature_id":200010,"source_dataset":"California Aquatic Resources Inventory (CARI) v3.3","source_class":"Marine Rocky Shore Natural Intertidal","source_legcode":"RS","source_attributes":{"OBJECTID":200010,"clickcode":"WMNrnIN","clicklabel":"Marine Rocky Shore Natural Intertidal","name":null,"orig_dataset":"Elevation Modeled Polygons via ESI Classification","orig_class":"2A","organization":"San Francisco Estuary Institute (SFEI)","orig_dataset_pubyear":2022,"process_adjustment":null,"source_data":"ESI Classification; NOAA VDatum; USGS Modeled Dune Toe; 2016 El Nino DEM; USGS CoNED Topobathy DEM","source_estimatedyear":2016,"orig_scale":null,"legend_headings":"Estuarine and Marine","legcode":"RS","leglabellevel1":"Rocky Shore","leglabellevel2":"Rocky Shore","major_class":"Wetland","wetland_class":"Marine","anthropogenic_modifier":"Natural","wetland_type":"Rocky","wetland_subtype":"none","tidal_modifier":"Intertidal","vegetation_modifier":"Non-vegetated","salinity_modifier":"Saline","salinity_source":"CARI Marine","salinity_additional_information":"Wetland Mapping classified Marine","lastupdate":1770120526000,"CARI_id":200010,"Shape__Area":72.22265625,"Shape__Length":45.69533133213881}},"geometry":{"type":"Polygon","coordinates":[[[-117.792808754856,33.542662147151],[-117.792786967117,33.5426352283091],[-117.792808425174,33.5426260714236],[-117.792808013746,33.5425809788021],[-117.792840076415,33.5425537147732],[-117.792861618015,33.5425535777567],[-117.792851752717,33.5426528517546],[-117.792808754856,33.542662147151]]]}},{"type":"Feature","id":"200014","properties":{"site_id":"rockpile-beach","source_feature_id":200014,"source_dataset":"California Aquatic Resources Inventory (CARI) v3.3","source_class":"Marine Rocky Shore Natural Intertidal","source_legcode":"RS","source_attributes":{"OBJECTID":200014,"clickcode":"WMNrnIN","clicklabel":"Marine Rocky Shore Natural Intertidal","name":null,"orig_dataset":"Elevation Modeled Polygons via ESI Classification","orig_class":"2A","organization":"San Francisco Estuary Institute (SFEI)","orig_dataset_pubyear":2022,"process_adjustment":null,"source_data":"ESI Classification; NOAA VDatum; USGS Modeled Dune Toe; 2016 El Nino DEM; USGS CoNED Topobathy DEM","source_estimatedyear":2016,"orig_scale":null,"legend_headings":"Estuarine and Marine","legcode":"RS","leglabellevel1":"Rocky Shore","leglabellevel2":"Rocky Shore","major_class":"Wetland","wetland_class":"Marine","anthropogenic_modifier":"Natural","wetland_type":"Rocky","wetland_subtype":"none","tidal_modifier":"Intertidal","vegetation_modifier":"Non-vegetated","salinity_modifier":"Saline","salinity_source":"CARI Marine","salinity_additional_information":"Wetland Mapping classified Marine","lastupdate":1770120526000,"CARI_id":200014,"Shape__Area":7414.921875,"Shape__Length":861.9205450582228}},"geometry":{"type":"Polygon","coordinates":[[[-117.792904880879,33.5437528604553],[-117.792872159745,33.5437079735694],[-117.792871830063,33.5436718990272],[-117.792850041426,33.5436449804998],[-117.792849713541,33.5436089066801],[-117.792828090194,33.5436000246761],[-117.792827842259,33.5435729691115],[-117.792773743018,33.5435462579474],[-117.792773579524,33.5435282206445],[-117.792719809965,33.5435375840798],[-117.792698186617,33.543528703566],[-117.792697857834,33.5434926282002],[-117.792622136144,33.5434570357414],[-117.792621724715,33.5434119420561],[-117.792545591597,33.5433312558365],[-117.792545015777,33.5432681247283],[-117.792571200769,33.5431867839946],[-117.792490340715,33.543178283045],[-117.792447012274,33.5431515021281],[-117.792457660005,33.5431379046457],[-117.792446766136,33.543124446423],[-117.792360438037,33.5431069600893],[-117.792349298029,33.5430664446411],[-117.792300379372,33.5430171511821],[-117.79224118309,33.543022040323],[-117.792177425162,33.5431171501562],[-117.792133973652,33.543076842108],[-117.792107008922,33.5430725040277],[-117.792069847415,33.5431313675811],[-117.792021710293,33.5431677523184],[-117.79195166326,33.5431636905198],[-117.791919680541,33.5431999719203],[-117.791941714418,33.543253947008],[-117.791888315863,33.543303894711],[-117.791878162205,33.543371603448],[-117.79184597467,33.5433853386575],[-117.791835410482,33.5434079536432],[-117.791700414357,33.5434403842936],[-117.792019641473,33.5428836588103],[-117.792078438004,33.5428923027946],[-117.792056403229,33.5428383274811],[-117.792077778641,33.5428201530143],[-117.792163775262,33.5428015637519],[-117.792152347793,33.5427294827783],[-117.79224919696,33.5427198437255],[-117.792281096136,33.5426745430079],[-117.79235657079,33.5426830791971],[-117.792367092756,33.5426559544629],[-117.792399405157,33.5426557478154],[-117.792442650055,33.5426735090216],[-117.792475866161,33.5427725095982],[-117.792529717467,33.5427721644373],[-117.792540652659,33.5427901330157],[-117.792594585712,33.5427988069582],[-117.7926379959,33.5428346055866],[-117.792638324683,33.5428706804782],[-117.792670717933,33.5428794929261],[-117.792660359459,33.5429246550229],[-117.792703358218,33.5429153604034],[-117.792735421786,33.5428880972287],[-117.792789273092,33.542887752817],[-117.792800208284,33.5429057213713],[-117.792875600293,33.5429052384464],[-117.792886204905,33.5428871321273],[-117.792940056211,33.5428867877156],[-117.792950991403,33.5429047555214],[-117.792972531207,33.5429046185055],[-117.792951650766,33.5429769059798],[-117.793027371558,33.5430124978877],[-117.793038305852,33.543030466416],[-117.792963327068,33.5430760424757],[-117.792963738497,33.5431211363363],[-117.792942195998,33.5431212748493],[-117.792931591386,33.5431393803706],[-117.792888593525,33.543148674966],[-117.792856529059,33.5431759380585],[-117.792846417622,33.5432481556751],[-117.792868700333,33.5433291871309],[-117.792901257075,33.5433560368747],[-117.792912357557,33.5433920426667],[-117.792977474636,33.5434457413582],[-117.792977721672,33.5434727977114],[-117.793021050114,33.54349957778],[-117.793021212709,33.5435176150889],[-117.793046949442,33.5435174496228],[-117.792904880879,33.5437528604553]],[[-117.792855336096,33.5430451667793],[-117.792844482651,33.5430362173326],[-117.792833878039,33.5430543236205],[-117.792833507035,33.5430137392653],[-117.792811883688,33.5430048586976],[-117.792790549598,33.5430275434139],[-117.792780314194,33.5430862340436],[-117.792828863643,33.5430949416489],[-117.792855336096,33.5430451667793]],[[-117.79237950927,33.5428362602611],[-117.792389991711,33.5428046260239],[-117.792352008246,33.5427733017461],[-117.792330714581,33.5428004953259],[-117.792336511409,33.5428455541404],[-117.79237950927,33.5428362602611]]]}},{"type":"Feature","id":"200015","properties":{"site_id":"rockpile-beach","source_feature_id":200015,"source_dataset":"California Aquatic Resources Inventory (CARI) v3.3","source_class":"Marine Rocky Shore Natural Intertidal","source_legcode":"RS","source_attributes":{"OBJECTID":200015,"clickcode":"WMNrnIN","clicklabel":"Marine Rocky Shore Natural Intertidal","name":null,"orig_dataset":"Elevation Modeled Polygons via ESI Classification","orig_class":"2A","organization":"San Francisco Estuary Institute (SFEI)","orig_dataset_pubyear":2022,"process_adjustment":null,"source_data":"ESI Classification; NOAA VDatum; USGS Modeled Dune Toe; 2016 El Nino DEM; USGS CoNED Topobathy DEM","source_estimatedyear":2016,"orig_scale":null,"legend_headings":"Estuarine and Marine","legcode":"RS","leglabellevel1":"Rocky Shore","leglabellevel2":"Rocky Shore","major_class":"Wetland","wetland_class":"Marine","anthropogenic_modifier":"Natural","wetland_type":"Rocky","wetland_subtype":"none","tidal_modifier":"Intertidal","vegetation_modifier":"Non-vegetated","salinity_modifier":"Saline","salinity_source":"CARI Marine","salinity_additional_information":"Wetland Mapping classified Marine","lastupdate":1770120526000,"CARI_id":200015,"Shape__Area":15451.35546875,"Shape__Length":1246.4362173380362}},"geometry":{"type":"Polygon","coordinates":[[[-117.789620196433,33.5426193868217],[-117.78964181978,33.5426282681778],[-117.78964206502,33.5426553240381],[-117.789674540016,33.5426731563732],[-117.789685638701,33.542709161701],[-117.789717948407,33.542708956551],[-117.789718276292,33.5427450307464],[-117.789696572995,33.5427271302925],[-117.789643459205,33.5428086429161],[-117.789643705344,33.54283569872],[-117.789670430224,33.5428265096607],[-117.789549327442,33.5430753102281],[-117.789473349732,33.5430532469617],[-117.789451482043,33.5430173099107],[-117.789419007047,33.5429994783954],[-117.789338147892,33.5429909751811],[-117.789310566019,33.5429189969403],[-117.789278173668,33.5429101837477],[-117.789245493857,33.5428698044744],[-117.789169650894,33.5428206831092],[-117.789098538459,33.542699376645],[-117.789033383652,33.5426411656841],[-117.788952811957,33.5426642278522],[-117.788818798588,33.542732725495],[-117.788711137298,33.5427379216281],[-117.788533960778,33.5427976748909],[-117.788367104104,33.5428077564295],[-117.788313130626,33.5427945706901],[-117.788221665063,33.5428041730473],[-117.787957630438,33.5427878149727],[-117.787844788563,33.5428155910533],[-117.787812396212,33.5428067771015],[-117.78764553864,33.5428168578904],[-117.787639948424,33.5427943453249],[-117.787607515649,33.542781023316],[-117.787602498558,33.5428216414729],[-117.787554149433,33.5428219484488],[-117.787791134886,33.542270266895],[-117.78779683829,33.5422792501138],[-117.787893688356,33.5422696147544],[-117.787958554804,33.5422962596763],[-117.788014179385,33.5422868856243],[-117.788087796322,33.542295437575],[-117.788109500518,33.5423133373697],[-117.788335756494,33.5423209167228],[-117.7883463638,33.5423028102813],[-117.788367903604,33.5423026725157],[-117.788432770951,33.5423293181762],[-117.788593913442,33.5422831951526],[-117.78865853465,33.5422827841018],[-117.788679911859,33.5422646087696],[-117.788733679622,33.5422552474424],[-117.788765744986,33.5422279855569],[-117.788808907239,33.5422367299362],[-117.788798382577,33.5422638540533],[-117.788830693181,33.5422636489022],[-117.788841217843,33.5422365240364],[-117.788862758545,33.5422363870194],[-117.788895314389,33.542263236354],[-117.788937985263,33.5422178687605],[-117.788959525067,33.5422177317434],[-117.788959279827,33.5421906749973],[-117.789002360333,33.5421904009632],[-117.789013294627,33.5422083696625],[-117.789045522586,33.5421991453463],[-117.789045276448,33.5421720885944],[-117.789012884995,33.5421632760744],[-117.789034016066,33.5421180454455],[-117.78908794822,33.542126720953],[-117.789098636376,33.5421176328966],[-117.789152814669,33.5421533651703],[-117.789185125273,33.5421531592703],[-117.789260844268,33.5421887530149],[-117.789270876653,33.5421075160872],[-117.789184632996,33.5420990464779],[-117.789184141618,33.5420449344004],[-117.789162519169,33.5420360529844],[-117.78916227303,33.5420089961814],[-117.789248680181,33.5420355041665],[-117.789270548768,33.5420714416257],[-117.78933508823,33.5420620106459],[-117.789367644074,33.5420888607834],[-117.789346678293,33.5421521290214],[-117.789368464236,33.5421790480138],[-117.789422479035,33.5421967426814],[-117.789444757255,33.5422777736255],[-117.789401759393,33.5422870668161],[-117.789379726414,33.5422330918732],[-117.789336809402,33.5422514042291],[-117.789336973793,33.5422694417985],[-117.789380382185,33.5423052421437],[-117.78939172611,33.5423683043237],[-117.789434889261,33.5423770479401],[-117.789445905301,33.5424040357452],[-117.789500001848,33.5424307487597],[-117.78950016624,33.5424487870404],[-117.789543411137,33.5424665490379],[-117.789479445699,33.5425391109117],[-117.789447135095,33.5425393168108],[-117.789447299487,33.5425573543201],[-117.78950123254,33.5425660297835],[-117.789533379651,33.5425477863769],[-117.789522280067,33.5425117794844],[-117.789565361471,33.5425115054513],[-117.789554837708,33.5425386302308],[-117.789598164352,33.5425654113376],[-117.789620196433,33.5426193868217]],[[-117.789016081201,33.542515006486],[-117.789016244694,33.5425330440004],[-117.789086825326,33.5425957294063],[-117.789103308513,33.5426317010739],[-117.789179027509,33.5426672953702],[-117.789211297689,33.5426625806616],[-117.789221862775,33.5426399639833],[-117.789243403477,33.5426398277158],[-117.789296803829,33.5425898811264],[-117.789264041372,33.5425404840716],[-117.789231649021,33.5425316715892],[-117.789209862181,33.5425047527066],[-117.789183101368,33.542522961681],[-117.789178249568,33.5425816174634],[-117.789135045094,33.5425683635557],[-117.7891241108,33.54255039568],[-117.789081030294,33.5425506704617],[-117.789043007303,33.5425148350282],[-117.789016081201,33.542515006486]],[[-117.789610082301,33.5426916056521],[-117.789588542497,33.5426917426683],[-117.789599476791,33.5427097112634],[-117.789578263974,33.5427459239721],[-117.789610738071,33.5427637555397],[-117.789664507631,33.5427543927692],[-117.78964247555,33.5427004181183],[-117.789610082301,33.5426916056521]],[[-117.789015875487,33.5424924594006],[-117.788961575023,33.5424432000554],[-117.788918329227,33.5424254373044],[-117.788940279561,33.5424703937391],[-117.788983524458,33.5424881564809],[-117.788999925899,33.5425151090613],[-117.789016081201,33.542515006486],[-117.789015875487,33.5424924594006]],[[-117.789609426531,33.5426194549555],[-117.789609508278,33.5426284740766],[-117.78962027818,33.5426284059428],[-117.789620196433,33.5426193868217],[-117.789609426531,33.5426194549555]]]}}]}