{"type":"FeatureCollection","properties":{"site_id":"shell-beach-seal-rock","dataset_name":"California Aquatic Resources Inventory (CARI) v3.3","source_url":"https://www.sfei.org/data/california-aquatic-resource-inventory-cari-gis-data","dataset_date":"2026-02-19","resolution_meters":null,"provenance":"official-gis","outline_kind":"rocky-intertidal","geometry_status":"exploratory","disclaimer":"Static modeled rocky-intertidal habitat context, not a tide-specific waterline, surveyed boundary, navigational chart, safe route, or real-time access condition.","coordinate":{"latitude":32.8489,"longitude":-117.2761},"selection_radius_meters":350.0,"selection_method":"Original CARI Rocky Shore polygons intersecting a local-radius buffer; geometry is selected, not crop-clipped.","simplify_meters":1.0,"source":{"dataset_name":"California Aquatic Resources Inventory (CARI) v3.3","publisher":"San Francisco Estuary Institute","endpoint":"https://services2.arcgis.com/Uq9r85Potqm3MfRV/arcgis/rest/services/biosds2835_fpu/FeatureServer/0/query","dataset_url":"https://www.sfei.org/data/california-aquatic-resource-inventory-cari-gis-data","license":"GPL-3.0-or-later","license_url":"https://www.gnu.org/licenses/gpl-3.0.html","citation":"San Francisco Estuary Institute (SFEI). 2026. California Aquatic Resource Inventory (CARI), version 3.3. Accessed 2026-09-18.","accessed_at":"2026-09-18T16:45:08.860973+00:00"}},"features":[{"type":"Feature","id":"224566","properties":{"site_id":"shell-beach-seal-rock","source_feature_id":224566,"source_dataset":"California Aquatic Resources Inventory (CARI) v3.3","source_class":"Marine Rocky Shore Natural Intertidal","source_legcode":"RS","source_attributes":{"OBJECTID":224566,"clickcode":"WMNrnIN","clicklabel":"Marine Rocky Shore Natural Intertidal","name":null,"orig_dataset":"Elevation Modeled Polygons via ESI Classification","orig_class":"1B/2A","organization":"San Francisco Estuary Institute (SFEI)","orig_dataset_pubyear":2022,"process_adjustment":null,"source_data":"ESI Classification; NOAA VDatum; USGS Modeled Dune Toe; 2016 El Nino DEM; USGS CoNED Topobathy DEM","source_estimatedyear":2016,"orig_scale":null,"legend_headings":"Estuarine and Marine","legcode":"RS","leglabellevel1":"Rocky Shore","leglabellevel2":"Rocky Shore","major_class":"Wetland","wetland_class":"Marine","anthropogenic_modifier":"Natural","wetland_type":"Rocky","wetland_subtype":"none","tidal_modifier":"Intertidal","vegetation_modifier":"Non-vegetated","salinity_modifier":"Saline","salinity_source":"CARI Marine","salinity_additional_information":"Wetland Mapping classified Marine","lastupdate":1770120526000,"CARI_id":224566,"Shape__Area":6130.5625,"Shape__Length":807.210482022528}},"geometry":{"type":"Polygon","coordinates":[[[-117.278417314579,32.8480611802303],[-117.278417230138,32.8480341187183],[-117.278385142316,32.848025169656],[-117.27838508662,32.8480071281384],[-117.278353027544,32.8480071998336],[-117.278342425627,32.8480342855038],[-117.278321052012,32.8480343322943],[-117.278320939722,32.8479982507686],[-117.278352942204,32.8479801383051],[-117.278342030369,32.8479079985902],[-117.278352661032,32.8478899328988],[-117.278470069941,32.8478445694169],[-117.278469986398,32.8478175078388],[-117.278395153141,32.8478086538453],[-117.278395097446,32.8477906130384],[-117.278448388203,32.8477453913871],[-117.278394702187,32.847664325778],[-117.278266297,32.8476104885308],[-117.278223552464,32.8476105836217],[-117.278198949405,32.8476376996005],[-117.278062904047,32.8474978344929],[-117.278126896434,32.8474574487492],[-117.27819630207,32.8474392531594],[-117.278238947791,32.8474075863337],[-117.27829236611,32.8474029578142],[-117.278313765776,32.8474119310893],[-117.27836717062,32.8474027910275],[-117.278372555122,32.8474163098057],[-117.278409943902,32.8474117160024],[-117.278409985225,32.847425247609],[-117.278436687647,32.8474206772016],[-117.278506219945,32.8474430741581],[-117.2785651638,32.8474970662183],[-117.278581347848,32.8475466433108],[-117.278645748071,32.8476367056751],[-117.278779553031,32.8477085716586],[-117.278736990853,32.8477673007332],[-117.27867302811,32.8478170565357],[-117.278550317344,32.8478759628899],[-117.278395448687,32.8479033685873],[-117.278395519654,32.8479259201327],[-117.278529043441,32.8479075820031],[-117.278544988537,32.847880484974],[-117.278593091524,32.8478848878173],[-117.278705115033,32.847826005619],[-117.278758405791,32.8477807839857],[-117.278822270618,32.8476994565321],[-117.278822185278,32.8476723949097],[-117.278864817525,32.8476362173914],[-117.278875279304,32.8475640298515],[-117.278896609801,32.8475504514752],[-117.278901733791,32.8474805513319],[-117.279312483963,32.8475991364951],[-117.279292160478,32.8475991825312],[-117.279281529815,32.8476172467724],[-117.279228070174,32.8476083459682],[-117.279185380435,32.847626481903],[-117.279185465775,32.8476535435393],[-117.279281587307,32.8476352883692],[-117.279313758673,32.8476712983471],[-117.279303128908,32.8476893633282],[-117.279228409737,32.8477165917316],[-117.279185777491,32.8477527692172],[-117.27919694355,32.8479060930063],[-117.279090362035,32.8479965368769],[-117.279068960571,32.8479875636608],[-117.279058133177,32.8479424855003],[-117.279036872749,32.8479786145939],[-117.279026129797,32.8479605972168],[-117.278994070721,32.8479606696667],[-117.278951438474,32.8479968470528],[-117.278972952227,32.8480419017905],[-117.278940893151,32.8480419727309],[-117.278930093605,32.8480059153583],[-117.278844602736,32.8480061055391],[-117.278823286612,32.8480241938474],[-117.27882322912,32.8480061530843],[-117.278726995299,32.8479883258937],[-117.278705734871,32.8480244557233],[-117.278630959107,32.8480336432663],[-117.27855612585,32.8480247892944],[-117.278523981434,32.8479977987117],[-117.278460060912,32.84806108514],[-117.278417314579,32.8480611802303]]]}},{"type":"Feature","id":"224567","properties":{"site_id":"shell-beach-seal-rock","source_feature_id":224567,"source_dataset":"California Aquatic Resources Inventory (CARI) v3.3","source_class":"Marine Rocky Shore Natural Intertidal","source_legcode":"RS","source_attributes":{"OBJECTID":224567,"clickcode":"WMNrnIN","clicklabel":"Marine Rocky Shore Natural Intertidal","name":null,"orig_dataset":"Elevation Modeled Polygons via ESI Classification","orig_class":"2A","organization":"San Francisco Estuary Institute (SFEI)","orig_dataset_pubyear":2022,"process_adjustment":null,"source_data":"ESI Classification; NOAA VDatum; USGS Modeled Dune Toe; 2016 El Nino DEM; USGS CoNED Topobathy DEM","source_estimatedyear":2016,"orig_scale":null,"legend_headings":"Estuarine and Marine","legcode":"RS","leglabellevel1":"Rocky Shore","leglabellevel2":"Rocky Shore","major_class":"Wetland","wetland_class":"Marine","anthropogenic_modifier":"Natural","wetland_type":"Rocky","wetland_subtype":"none","tidal_modifier":"Intertidal","vegetation_modifier":"Non-vegetated","salinity_modifier":"Saline","salinity_source":"CARI Marine","salinity_additional_information":"Wetland Mapping classified Marine","lastupdate":1770120526000,"CARI_id":224567,"Shape__Area":10080.5546875,"Shape__Length":1315.5038956366752}},"geometry":{"type":"Polygon","coordinates":[[[-117.278907062597,32.8474759054583],[-117.278885485963,32.8474106571711],[-117.278896094168,32.8473854889807],[-117.278885048483,32.847270840006],[-117.278906336759,32.8472437307073],[-117.278917036592,32.847248217353],[-117.278922280957,32.8472166334754],[-117.278858191551,32.8472257969519],[-117.278831405586,32.8472033048493],[-117.278804407618,32.8471131597835],[-117.278798627858,32.8469733542249],[-117.278766301084,32.8468877310603],[-117.27872874342,32.8468382019001],[-117.278717661803,32.8467119389442],[-117.27878691203,32.8466441301617],[-117.278786854538,32.8466260883634],[-117.27881885702,32.8466079763745],[-117.278813401551,32.846571906344],[-117.278850690618,32.8465357412069],[-117.278839694341,32.8464365390734],[-117.278892885386,32.846359746134],[-117.278882100212,32.8463281981658],[-117.278897945596,32.8462695292696],[-117.278956536413,32.8462107652423],[-117.27898325231,32.8462107056209],[-117.279020569225,32.8461835612821],[-117.279009728356,32.8461339721076],[-117.27898828557,32.8461114684077],[-117.278950868942,32.846107041326],[-117.278956156426,32.846088988098],[-117.278988139145,32.846064805174],[-117.279351497796,32.8460729665248],[-117.279244866873,32.846146977882],[-117.279234265855,32.8461740633653],[-117.279202178033,32.8461651141154],[-117.27914883158,32.8461922946856],[-117.279170374079,32.8462463705239],[-117.279149058853,32.8462644591908],[-117.279159829654,32.8462914963374],[-117.279138653668,32.8463546873809],[-117.279106652084,32.8463728001761],[-117.279074791536,32.8464360153121],[-117.279021415438,32.8464541756368],[-117.278978840684,32.8465083939536],[-117.278957467966,32.8465084414996],[-117.278968238767,32.8465354793265],[-117.278989611484,32.8465354317806],[-117.279000354436,32.8465534486923],[-117.279021698407,32.8465443802384],[-117.279032469208,32.8465714188091],[-117.279075270338,32.8465893640172],[-117.279075384424,32.846625445361],[-117.279107527043,32.8466524356064],[-117.279107584535,32.8466704773993],[-117.279193017912,32.8466522454227],[-117.279214247797,32.8466070948875],[-117.279256993231,32.8466069997956],[-117.279225048242,32.8466431535832],[-117.279225188379,32.8466882550447],[-117.279278648918,32.8466971566959],[-117.279278704614,32.8467151977251],[-117.279246674284,32.8467242895571],[-117.279236214301,32.8467964777801],[-117.279246957253,32.8468144953935],[-117.279279015431,32.8468144229427],[-117.279289645195,32.8467963585381],[-117.279332362782,32.8467872425631],[-117.279332418478,32.846805283574],[-117.279268414412,32.8468415082223],[-117.279257841241,32.8468776143685],[-117.279225866607,32.8469047479293],[-117.279161749353,32.8469048905667],[-117.279161919135,32.8469590135166],[-117.27921535003,32.8469588942748],[-117.27921543537,32.8469859561147],[-117.279194119246,32.8470040446309],[-117.279204832555,32.8470130413419],[-117.279247550141,32.8470039253892],[-117.279236920376,32.8470219897516],[-117.279258348789,32.8470399839237],[-117.279258434129,32.8470670449842],[-117.27930120831,32.8470759699929],[-117.279290635139,32.8471120760438],[-117.27921591507,32.8471393046242],[-117.27919476783,32.847211515905],[-117.279248228369,32.8472204167491],[-117.279258858134,32.8472023524271],[-117.279322919692,32.8471841681053],[-117.279333548558,32.847166103776],[-117.279429641344,32.8471388269034],[-117.279450900874,32.8471026967132],[-117.279472273591,32.8471026499222],[-117.279525534704,32.8470484078183],[-117.279568223545,32.8470302710107],[-117.279610997725,32.8470391960231],[-117.279632341697,32.8470301276188],[-117.279664542706,32.8470751579425],[-117.27964336672,32.8471383491826],[-117.27961133639,32.847147441726],[-117.279632793549,32.8471744552081],[-117.279718255672,32.8471652441807],[-117.279718143383,32.8471291615469],[-117.279750230306,32.8471381106996],[-117.279760831325,32.8471110247558],[-117.279814291864,32.8471199271193],[-117.279825062664,32.8471469640053],[-117.279953326816,32.8471556980686],[-117.279963985326,32.8471466530717],[-117.279985385891,32.847155625618],[-117.279985442485,32.8471736673087],[-117.279964126362,32.8471917557867],[-117.279900036956,32.8472009192657],[-117.27986806322,32.8472280527276],[-117.279761199634,32.8472282919652],[-117.279729225898,32.847255424664],[-117.279643706283,32.8472465947646],[-117.279633218452,32.8473097632419],[-117.279611648106,32.847246667215],[-117.279568901773,32.8472467623063],[-117.279515612812,32.8472919849664],[-117.279494239196,32.847292032512],[-117.279483779213,32.8473642202731],[-117.279398401532,32.8474004929935],[-117.279398458126,32.8474185338797],[-117.279377085409,32.8474185814252],[-117.279366456542,32.8474366464578],[-117.279345082927,32.8474366924939],[-117.279334425314,32.8474457389706],[-117.279345196114,32.847472776512],[-117.279409286418,32.847463613061],[-117.279494550912,32.8473912570846],[-117.279547926111,32.8473730977064],[-117.27955852713,32.8473460118344],[-117.279622645281,32.847345868443],[-117.279675991735,32.8473186882262],[-117.279750796245,32.8473185206847],[-117.279814800311,32.8472822954764],[-117.279889661415,32.8473001688451],[-117.279911176964,32.8473452231818],[-117.279868487225,32.8473633599251],[-117.279868543819,32.8473814015735],[-117.279825827131,32.8473905167327],[-117.279825911572,32.847417578441],[-117.279761793421,32.8474177218323],[-117.279751192402,32.8474448076825],[-117.279612297588,32.8474541386767],[-117.279558979881,32.8474903396646],[-117.279516206598,32.8474814146976],[-117.279452200736,32.8475176405792],[-117.27942014166,32.8475177115201],[-117.279334905014,32.8475990874404],[-117.278907062597,32.8474759054583]],[[-117.279141546243,32.8472786495594],[-117.279120077406,32.8472477645377],[-117.279066616867,32.8472388636964],[-117.279066730054,32.8472749447761],[-117.279045413931,32.8472930339881],[-117.279013354855,32.8472931056839],[-117.27900272509,32.847311170742],[-117.278970637268,32.8473022216069],[-117.278949321145,32.8473203100586],[-117.278938916857,32.8474105379299],[-117.278960347067,32.8474285312686],[-117.278992406143,32.8474284603276],[-117.279035038389,32.8473922827098],[-117.279077755976,32.8473831675508],[-117.279120388223,32.8473469899145],[-117.279120275035,32.8473109081093],[-117.279141546243,32.8472786495594]]]}},{"type":"Feature","id":"224568","properties":{"site_id":"shell-beach-seal-rock","source_feature_id":224568,"source_dataset":"California Aquatic Resources Inventory (CARI) v3.3","source_class":"Marine Rocky Shore Natural Intertidal","source_legcode":"RS","source_attributes":{"OBJECTID":224568,"clickcode":"WMNrnIN","clicklabel":"Marine Rocky Shore Natural Intertidal","name":null,"orig_dataset":"Elevation Modeled Polygons via ESI Classification","orig_class":"2A","organization":"San Francisco Estuary Institute (SFEI)","orig_dataset_pubyear":2022,"process_adjustment":null,"source_data":"ESI Classification; NOAA VDatum; USGS Modeled Dune Toe; 2016 El Nino DEM; USGS CoNED Topobathy DEM","source_estimatedyear":2016,"orig_scale":null,"legend_headings":"Estuarine and Marine","legcode":"RS","leglabellevel1":"Rocky Shore","leglabellevel2":"Rocky Shore","major_class":"Wetland","wetland_class":"Marine","anthropogenic_modifier":"Natural","wetland_type":"Rocky","wetland_subtype":"none","tidal_modifier":"Intertidal","vegetation_modifier":"Non-vegetated","salinity_modifier":"Saline","salinity_source":"CARI Marine","salinity_additional_information":"Wetland Mapping classified Marine","lastupdate":1770120526000,"CARI_id":224568,"Shape__Area":5206.16796875,"Shape__Length":857.6519688646104}},"geometry":{"type":"Polygon","coordinates":[[[-117.275430215935,32.8497185511761],[-117.275408871066,32.8497276185511],[-117.275408814472,32.8497095781343],[-117.275376783244,32.8497186696596],[-117.275355353933,32.8497006760306],[-117.275312636346,32.8497097894422],[-117.27530206048,32.8497458951762],[-117.275342617619,32.8497367847869],[-117.275355493172,32.8497457774475],[-117.275323628132,32.8498089916901],[-117.275323711675,32.8498360534156],[-117.275345141885,32.8498540470171],[-117.275302451247,32.8498721817383],[-117.27528124382,32.8499263519319],[-117.275259843255,32.8499173781564],[-117.275227811129,32.8499264696604],[-117.275217207415,32.8499535539901],[-117.275238636726,32.8499715490771],[-117.275238720269,32.849998610753],[-117.275206743839,32.8500257418502],[-117.275163996608,32.8500258361838],[-117.275195834698,32.8499536015342],[-117.275152976076,32.8499176136133],[-117.27514237326,32.8499446987004],[-117.275120999645,32.8499447462445],[-117.275110396829,32.8499718305687],[-117.275057075529,32.8500080305296],[-117.275057130326,32.8500260708857],[-117.275003809026,32.8500622700699],[-117.274961284577,32.8501345287803],[-117.274918649635,32.8501707045255],[-117.274918761027,32.8502067859225],[-117.274961590903,32.850233753948],[-117.274961702294,32.8502698360741],[-117.274865494523,32.8502610268506],[-117.274822858683,32.8502972025442],[-117.274833712129,32.8503513015398],[-117.274758877076,32.8503424455351],[-117.274748357804,32.8503965920471],[-117.274673606294,32.8504147968412],[-117.274652313527,32.8504410395703],[-117.274523769999,32.8503428394708],[-117.274550375403,32.850306821521],[-117.274630414397,32.850270562818],[-117.274662224639,32.850189308585],[-117.274715448922,32.8501215371743],[-117.274795446593,32.8500717487038],[-117.274832585641,32.8499859723122],[-117.274896511554,32.8499226880114],[-117.274944364809,32.8498459078995],[-117.275002987966,32.849796166064],[-117.275034825158,32.8497239312275],[-117.275146853159,32.8496650517588],[-117.275146714818,32.8496199487915],[-117.275130643059,32.8496064544984],[-117.275183923037,32.8495567230941],[-117.275280466777,32.8495384698249],[-117.275365595625,32.8495563238723],[-117.275418971723,32.8495381656917],[-117.27562210147,32.8495647799789],[-117.275643530781,32.8495827743902],[-117.275750396164,32.8495825381777],[-117.275803759685,32.8495598693243],[-117.275835693895,32.8495192067995],[-117.275910443608,32.8495010003122],[-117.275920990728,32.8494558746213],[-117.275888819363,32.8494198631036],[-117.275899366482,32.8493747366168],[-117.276070253897,32.8493427889882],[-117.276086173841,32.849307370599],[-117.276316375217,32.8494485995684],[-117.276305736469,32.8494640462257],[-117.276220215057,32.8494552135273],[-117.276102802555,32.8495005761859],[-117.275974591404,32.8495098790411],[-117.275964045183,32.8495550054591],[-117.275942670669,32.8495550530035],[-117.275942727263,32.8495730934517],[-117.275910695136,32.8495821842363],[-117.275910750832,32.8496002254336],[-117.275889405962,32.8496092935753],[-117.275846631782,32.8496003673121],[-117.275761389746,32.8496817398132],[-117.275675897081,32.849681928481],[-117.275622519186,32.8497000866322],[-117.275526312314,32.8496912788615],[-117.275504966547,32.8497003462392],[-117.275494363731,32.8497274313926],[-117.275474714881,32.8497184530689],[-117.2754516165,32.8497275249718],[-117.275451561703,32.8497094838003],[-117.275430215935,32.8497185511761]],[[-117.275259369843,32.8497640306741],[-117.275259480336,32.8498001114818],[-117.275291596904,32.8498180832052],[-117.275312802534,32.8497639129455],[-117.275302088328,32.8497549157587],[-117.275259369843,32.8497640306741]],[[-117.275430199766,32.849713041321],[-117.275419501729,32.8497095547395],[-117.275419529577,32.8497185753256],[-117.275430215935,32.8497185511761],[-117.275430199766,32.849713041321]],[[-117.275174349691,32.8499175660691],[-117.275174322742,32.8499085462578],[-117.275163635485,32.8499085696526],[-117.275163663333,32.8499175902185],[-117.275174349691,32.8499175660691]]]}},{"type":"Feature","id":"224648","properties":{"site_id":"shell-beach-seal-rock","source_feature_id":224648,"source_dataset":"California Aquatic Resources Inventory (CARI) v3.3","source_class":"Marine Rocky Shore Natural Intertidal","source_legcode":"RS","source_attributes":{"OBJECTID":224648,"clickcode":"WMNrnIN","clicklabel":"Marine Rocky Shore Natural Intertidal","name":null,"orig_dataset":"Elevation Modeled Polygons via ESI Classification","orig_class":"2A","organization":"San Francisco Estuary Institute (SFEI)","orig_dataset_pubyear":2022,"process_adjustment":null,"source_data":"ESI Classification; NOAA VDatum; USGS Modeled Dune Toe; 2016 El Nino DEM; USGS CoNED Topobathy DEM","source_estimatedyear":2016,"orig_scale":null,"legend_headings":"Estuarine and Marine","legcode":"RS","leglabellevel1":"Rocky Shore","leglabellevel2":"Rocky Shore","major_class":"Wetland","wetland_class":"Marine","anthropogenic_modifier":"Natural","wetland_type":"Rocky","wetland_subtype":"none","tidal_modifier":"Intertidal","vegetation_modifier":"Non-vegetated","salinity_modifier":"Saline","salinity_source":"CARI Marine","salinity_additional_information":"Wetland Mapping classified Marine","lastupdate":1770120526000,"CARI_id":224648,"Shape__Area":78.20703125,"Shape__Length":40.54963782730793}},"geometry":{"type":"Polygon","coordinates":[[[-117.275068825493,32.8503526878611],[-117.275036731383,32.8503418357651],[-117.27502585009,32.8502787154807],[-117.275111371502,32.8502875473424],[-117.275100879179,32.8503507151644],[-117.275068825493,32.8503526878611]]]}},{"type":"Feature","id":"224649","properties":{"site_id":"shell-beach-seal-rock","source_feature_id":224649,"source_dataset":"California Aquatic Resources Inventory (CARI) v3.3","source_class":"Marine Rocky Shore Natural Intertidal","source_legcode":"RS","source_attributes":{"OBJECTID":224649,"clickcode":"WMNrnIN","clicklabel":"Marine Rocky Shore Natural Intertidal","name":null,"orig_dataset":"Elevation Modeled Polygons via ESI Classification","orig_class":"2A","organization":"San Francisco Estuary Institute (SFEI)","orig_dataset_pubyear":2022,"process_adjustment":null,"source_data":"ESI Classification; NOAA VDatum; USGS Modeled Dune Toe; 2016 El Nino DEM; USGS CoNED Topobathy DEM","source_estimatedyear":2016,"orig_scale":null,"legend_headings":"Estuarine and Marine","legcode":"RS","leglabellevel1":"Rocky Shore","leglabellevel2":"Rocky Shore","major_class":"Wetland","wetland_class":"Marine","anthropogenic_modifier":"Natural","wetland_type":"Rocky","wetland_subtype":"none","tidal_modifier":"Intertidal","vegetation_modifier":"Non-vegetated","salinity_modifier":"Saline","salinity_source":"CARI Marine","salinity_additional_information":"Wetland Mapping classified Marine","lastupdate":1770120526000,"CARI_id":224649,"Shape__Area":264.47265625,"Shape__Length":73.92765046877545}},"geometry":{"type":"Polygon","coordinates":[[[-117.274887526604,32.8504749096895],[-117.274866050581,32.8504414365242],[-117.274865883494,32.8503873134342],[-117.274887172668,32.8503602050876],[-117.274908546283,32.8503601582983],[-117.274919177845,32.8503420931061],[-117.275036787078,32.8503598760533],[-117.275037009861,32.8504320401882],[-117.275005032531,32.8504591719075],[-117.274887526604,32.8504749096895]]]}},{"type":"Feature","id":"224655","properties":{"site_id":"shell-beach-seal-rock","source_feature_id":224655,"source_dataset":"California Aquatic Resources Inventory (CARI) v3.3","source_class":"Marine Rocky Shore Natural Intertidal","source_legcode":"RS","source_attributes":{"OBJECTID":224655,"clickcode":"WMNrnIN","clicklabel":"Marine Rocky Shore Natural Intertidal","name":null,"orig_dataset":"Elevation Modeled Polygons via ESI Classification","orig_class":"1A","organization":"San Francisco Estuary Institute (SFEI)","orig_dataset_pubyear":2022,"process_adjustment":null,"source_data":"ESI Classification; NOAA VDatum; USGS Modeled Dune Toe; 2016 El Nino DEM; USGS CoNED Topobathy DEM","source_estimatedyear":2016,"orig_scale":null,"legend_headings":"Estuarine and Marine","legcode":"RS","leglabellevel1":"Rocky Shore","leglabellevel2":"Rocky Shore","major_class":"Wetland","wetland_class":"Marine","anthropogenic_modifier":"Natural","wetland_type":"Rocky","wetland_subtype":"none","tidal_modifier":"Intertidal","vegetation_modifier":"Non-vegetated","salinity_modifier":"Saline","salinity_source":"CARI Marine","salinity_additional_information":"Wetland Mapping classified Marine","lastupdate":1770120526000,"CARI_id":224655,"Shape__Area":3428.1953125,"Shape__Length":684.1691167333214}},"geometry":{"type":"Polygon","coordinates":[[[-117.272976629433,32.8511401540634],[-117.272944568561,32.8511402250013],[-117.272933799557,32.851113187068],[-117.272944209235,32.8510229584335],[-117.273039977729,32.8508878892518],[-117.273040058577,32.8509145023795],[-117.273072202993,32.8509414943391],[-117.273125663532,32.8509503985823],[-117.273125719228,32.8509684387468],[-117.273147119793,32.850977412416],[-117.273157890593,32.8510044503907],[-117.273147313829,32.8510405563525],[-117.273168825785,32.8510856118088],[-117.273211655661,32.8511125803219],[-117.273201134593,32.8511667263639],[-117.273222535158,32.8511757007677],[-117.273233319433,32.8512072485219],[-117.273249335496,32.851202703213],[-117.273243882722,32.8511666335408],[-117.273275941798,32.8511665633575],[-117.273286712598,32.8511936012746],[-117.273329514626,32.8512115493213],[-117.273329570322,32.8512295894327],[-117.273361685093,32.8512475616212],[-117.273383169202,32.8512835957916],[-117.273404571563,32.8512925701836],[-117.273495382255,32.8512833512824],[-117.273511453116,32.8512968460751],[-117.273538156436,32.851292278131],[-117.27355424167,32.8513102842664],[-117.273607593513,32.8512831052639],[-117.273639709182,32.8513010766869],[-117.273650327269,32.8512785018502],[-117.273703662942,32.8512468137548],[-117.273655545582,32.8512378982216],[-117.273660860016,32.8512288657153],[-117.273741012197,32.8512286906345],[-117.273772975153,32.8511970485556],[-117.273751517994,32.851170034034],[-117.273821024241,32.8511834126265],[-117.273820955071,32.8511608611543],[-117.27385300157,32.8511562811286],[-117.273884951051,32.8511201291797],[-117.273885020222,32.8511426799076],[-117.273949196764,32.8511605811758],[-117.274013317611,32.8511604400545],[-117.274055047051,32.8511332874192],[-117.27407587988,32.8513362044919],[-117.274024738791,32.8513994598623],[-117.27398199156,32.8513995541944],[-117.273971387846,32.8514266388292],[-117.273939300024,32.851417687845],[-117.273918036902,32.8514538155237],[-117.27388594908,32.8514448668063],[-117.273864603312,32.8514539340048],[-117.273821828233,32.8514450071725],[-117.273821772538,32.8514269663502],[-117.273789712563,32.8514270365333],[-117.273768366796,32.8514361037335],[-117.273768448542,32.8514631649628],[-117.273728554361,32.8514722729109],[-117.273693641337,32.8514633287233],[-117.273704286373,32.8514496543476],[-117.273693530844,32.8514272463278],[-117.273650783613,32.8514273399053],[-117.273618612248,32.851391328433],[-117.273586551375,32.8513913986161],[-117.273575794948,32.8513687007932],[-117.273586413035,32.8513462965263],[-117.273564983724,32.851328301718],[-117.273532951597,32.8513373923228],[-117.273543583159,32.8513193280843],[-117.273532868054,32.8513103303005],[-117.273511550134,32.8513284186899],[-117.273383336288,32.8513377190895],[-117.273383391086,32.8513557606846],[-117.273415507654,32.8513737313382],[-117.273426332353,32.8514188100197],[-117.273404958737,32.8514188568084],[-117.273394381973,32.851454961847],[-117.273373036205,32.8514640290444],[-117.273319574768,32.8514551248527],[-117.273330206329,32.8514370613929],[-117.273351579046,32.8514370146042],[-117.273340671702,32.8513648746809],[-117.273330067989,32.8513919593262],[-117.273287403403,32.8514191133917],[-117.273255315581,32.8514101631615],[-117.273244684019,32.8514282273816],[-117.273228710177,32.8514192416834],[-117.273212623147,32.8514282975646],[-117.273191193836,32.8514103035277],[-117.273191277379,32.8514373647648],[-117.273169903763,32.8514374115535],[-117.273148280416,32.8513562738516],[-117.273133416892,32.8513472851275],[-117.27311622134,32.8513563440347],[-117.27310545054,32.8513293054126],[-117.273116110848,32.8513202615958],[-117.273105230453,32.8512571412527],[-117.273137262579,32.8512480506398],[-117.273147976786,32.8512570484298],[-117.273169239908,32.8512209191616],[-117.273137179934,32.8512209893449],[-117.273126436982,32.8512029718715],[-117.273073003392,32.8512030880889],[-117.273062234388,32.8511760501748],[-117.273051629777,32.8512031348778],[-117.272966108365,32.8511943015979],[-117.272955310615,32.8511582424875],[-117.272976629433,32.8511401540634]],[[-117.272983912075,32.8511401397248],[-117.273008744205,32.85115812627],[-117.273030118719,32.8511580794811],[-117.273030035175,32.8511310181588],[-117.272976601586,32.8511311343763],[-117.272983912075,32.8511401397248]],[[-117.273821052089,32.8511924338175],[-117.273826395268,32.851192421743],[-117.273826368319,32.851183400552],[-117.273821024241,32.8511834126265],[-117.273821052089,32.8511924338175]]]}}]}