{"type":"FeatureCollection","properties":{"site_id":"sunset-cliffs-reef","dataset_name":"California Aquatic Resources Inventory (CARI) v3.3","source_url":"https://www.sfei.org/data/california-aquatic-resource-inventory-cari-gis-data","dataset_date":"2026-02-19","resolution_meters":null,"provenance":"official-gis","outline_kind":"rocky-intertidal","geometry_status":"exploratory","disclaimer":"Static modeled rocky-intertidal habitat context, not a tide-specific waterline, surveyed boundary, navigational chart, safe route, or real-time access condition.","coordinate":{"latitude":32.734587,"longitude":-117.256577},"selection_radius_meters":350.0,"selection_method":"Original CARI Rocky Shore polygons intersecting a local-radius buffer; geometry is selected, not crop-clipped.","simplify_meters":1.0,"source":{"dataset_name":"California Aquatic Resources Inventory (CARI) v3.3","publisher":"San Francisco Estuary Institute","endpoint":"https://services2.arcgis.com/Uq9r85Potqm3MfRV/arcgis/rest/services/biosds2835_fpu/FeatureServer/0/query","dataset_url":"https://www.sfei.org/data/california-aquatic-resource-inventory-cari-gis-data","license":"GPL-3.0-or-later","license_url":"https://www.gnu.org/licenses/gpl-3.0.html","citation":"San Francisco Estuary Institute (SFEI). 2026. California Aquatic Resource Inventory (CARI), version 3.3. Accessed 2026-09-18.","accessed_at":"2026-09-18T16:45:12.566075+00:00"}},"features":[{"type":"Feature","id":"215469","properties":{"site_id":"sunset-cliffs-reef","source_feature_id":215469,"source_dataset":"California Aquatic Resources Inventory (CARI) v3.3","source_class":"Marine Rocky Shore Natural Intertidal","source_legcode":"RS","source_attributes":{"OBJECTID":215469,"clickcode":"WMNrnIN","clicklabel":"Marine Rocky Shore Natural Intertidal","name":null,"orig_dataset":"Elevation Modeled Polygons via ESI Classification","orig_class":"2A","organization":"San Francisco Estuary Institute (SFEI)","orig_dataset_pubyear":2022,"process_adjustment":null,"source_data":"ESI Classification; NOAA VDatum; USGS Modeled Dune Toe; 2016 El Nino DEM; USGS CoNED Topobathy DEM","source_estimatedyear":2016,"orig_scale":null,"legend_headings":"Estuarine and Marine","legcode":"RS","leglabellevel1":"Rocky Shore","leglabellevel2":"Rocky Shore","major_class":"Wetland","wetland_class":"Marine","anthropogenic_modifier":"Natural","wetland_type":"Rocky","wetland_subtype":"none","tidal_modifier":"Intertidal","vegetation_modifier":"Non-vegetated","salinity_modifier":"Saline","salinity_source":"CARI Marine","salinity_additional_information":"Wetland Mapping classified Marine","lastupdate":1770120526000,"CARI_id":215469,"Shape__Area":112.7578125,"Shape__Length":116.70284428935459}},"geometry":{"type":"Polygon","coordinates":[[[-117.256818083547,32.732228167527],[-117.256807463664,32.7322462310345],[-117.256786117896,32.7322462748633],[-117.256775393808,32.7322282559403],[-117.256786040641,32.7322192128501],[-117.256764669721,32.7322102362579],[-117.256823317132,32.732192074506],[-117.256871213506,32.7321468726298],[-117.256871162303,32.7321288310165],[-117.256903128852,32.732110724412],[-117.25690307675,32.7320926827914],[-117.256913800837,32.7321107017419],[-117.256945818591,32.7321106359987],[-117.256903180056,32.7321287652733],[-117.256892637428,32.7321738908361],[-117.256860671777,32.7321919981835],[-117.256882145105,32.7322370572155],[-117.256860852338,32.7322551426356],[-117.256828834585,32.7322552076231],[-117.256850102199,32.7322281017838],[-117.25682873038,32.7322191259482],[-117.256818083547,32.732228167527]],[[-117.256871240456,32.7321558930572],[-117.25688191334,32.7321558711428],[-117.256881887289,32.7321468507153],[-117.256871213506,32.7321468726298],[-117.256871240456,32.7321558930572]],[[-117.256807360358,32.7322101486003],[-117.256796686576,32.7322101705147],[-117.256796713525,32.7322191909357],[-117.256807385511,32.732219169777],[-117.256807360358,32.7322101486003]],[[-117.256818061988,32.7322206871603],[-117.256807385511,32.732219169777],[-117.256807411562,32.7322281894414],[-117.256818083547,32.732228167527],[-117.256818061988,32.7322206871603]]]}},{"type":"Feature","id":"215470","properties":{"site_id":"sunset-cliffs-reef","source_feature_id":215470,"source_dataset":"California Aquatic Resources Inventory (CARI) v3.3","source_class":"Marine Rocky Shore Natural Intertidal","source_legcode":"RS","source_attributes":{"OBJECTID":215470,"clickcode":"WMNrnIN","clicklabel":"Marine Rocky Shore Natural Intertidal","name":null,"orig_dataset":"Elevation Modeled Polygons via ESI Classification","orig_class":"2A","organization":"San Francisco Estuary Institute (SFEI)","orig_dataset_pubyear":2022,"process_adjustment":null,"source_data":"ESI Classification; NOAA VDatum; USGS Modeled Dune Toe; 2016 El Nino DEM; USGS CoNED Topobathy DEM","source_estimatedyear":2016,"orig_scale":null,"legend_headings":"Estuarine and Marine","legcode":"RS","leglabellevel1":"Rocky Shore","leglabellevel2":"Rocky Shore","major_class":"Wetland","wetland_class":"Marine","anthropogenic_modifier":"Natural","wetland_type":"Rocky","wetland_subtype":"none","tidal_modifier":"Intertidal","vegetation_modifier":"Non-vegetated","salinity_modifier":"Saline","salinity_source":"CARI Marine","salinity_additional_information":"Wetland Mapping classified Marine","lastupdate":1770120526000,"CARI_id":215470,"Shape__Area":136.8515625,"Shape__Length":74.25530004860653}},"geometry":{"type":"Polygon","coordinates":[[[-117.256690374555,32.7323547193076],[-117.256722328528,32.7323321021667],[-117.256711487659,32.7322734895134],[-117.256732832529,32.7322734456846],[-117.256743376055,32.7322283209278],[-117.256764721823,32.7322282778546],[-117.256764773027,32.7322463179364],[-117.256786144846,32.7322552952806],[-117.256764850282,32.7322733806971],[-117.256786195151,32.7322733368683],[-117.256786273305,32.7323003988651],[-117.256828937891,32.7322912907948],[-117.256829015146,32.7323183535418],[-117.256786428713,32.732354522834],[-117.256690374555,32.7323547193076]]]}},{"type":"Feature","id":"215472","properties":{"site_id":"sunset-cliffs-reef","source_feature_id":215472,"source_dataset":"California Aquatic Resources Inventory (CARI) v3.3","source_class":"Marine Rocky Shore Natural Intertidal","source_legcode":"RS","source_attributes":{"OBJECTID":215472,"clickcode":"WMNrnIN","clicklabel":"Marine Rocky Shore Natural Intertidal","name":null,"orig_dataset":"Elevation Modeled Polygons via ESI Classification","orig_class":"2A","organization":"San Francisco Estuary Institute (SFEI)","orig_dataset_pubyear":2022,"process_adjustment":null,"source_data":"ESI Classification; NOAA VDatum; USGS Modeled Dune Toe; 2016 El Nino DEM; USGS CoNED Topobathy DEM","source_estimatedyear":2016,"orig_scale":null,"legend_headings":"Estuarine and Marine","legcode":"RS","leglabellevel1":"Rocky Shore","leglabellevel2":"Rocky Shore","major_class":"Wetland","wetland_class":"Marine","anthropogenic_modifier":"Natural","wetland_type":"Rocky","wetland_subtype":"none","tidal_modifier":"Intertidal","vegetation_modifier":"Non-vegetated","salinity_modifier":"Saline","salinity_source":"CARI Marine","salinity_additional_information":"Wetland Mapping classified Marine","lastupdate":1770120526000,"CARI_id":215472,"Shape__Area":9123.0078125,"Shape__Length":2307.9220282597207}},"geometry":{"type":"Polygon","coordinates":[[[-117.256934886992,32.7320204512851],[-117.256849325156,32.7319574819824],[-117.256849248799,32.7319304206372],[-117.256827851828,32.731912422809],[-117.256816868127,32.731804196216],[-117.256838213895,32.731804152387],[-117.256827398179,32.7317545598544],[-117.25675267811,32.7317502034],[-117.256741941446,32.7317276730081],[-117.256709884166,32.7317142076674],[-117.256720427693,32.7316690826275],[-117.256688332684,32.7316420861827],[-117.256688048817,32.7315428585919],[-117.256714677577,32.7315247624478],[-117.256709264329,32.7314977123063],[-117.256741125775,32.7314435220734],[-117.256762445492,32.7314344577447],[-117.2567836098,32.7313712696377],[-117.256868989278,32.7313710943208],[-117.256906421177,32.7313980795126],[-117.256954446909,32.7313979812747],[-117.25690611036,32.7312898318917],[-117.25681521343,32.7312268734081],[-117.256793764356,32.7311908336348],[-117.256804377951,32.7311699716384],[-117.25679347959,32.7310916062975],[-117.256814773255,32.7310735206412],[-117.256830549469,32.730992302526],[-117.256846532294,32.7309832487309],[-117.256835717476,32.730933657253],[-117.256899830238,32.7309605881683],[-117.256947842495,32.730955979278],[-117.256974471255,32.7309378837704],[-117.256985041731,32.7309017781362],[-117.256953023978,32.7309018438804],[-117.256920928969,32.7308748479589],[-117.256920876867,32.7308568068439],[-117.256888833961,32.7308478512735],[-117.256856712901,32.7308118340175],[-117.256824462484,32.7307307139023],[-117.256754898745,32.7306632005276],[-117.256738669781,32.7305865584536],[-117.25669592794,32.7305686041839],[-117.25669586416,32.7305460523342],[-117.256663781728,32.7305235662232],[-117.256652877078,32.7304424020162],[-117.256684816678,32.7304152744665],[-117.256764885316,32.7304241310856],[-117.256802303741,32.7304466066421],[-117.256839915304,32.7305367362717],[-117.256909221226,32.7305140423455],[-117.256935941614,32.7305275184471],[-117.256957285585,32.7305274746174],[-117.256962583849,32.7305139335271],[-117.257005297842,32.7305228664605],[-117.257037368596,32.7305408426543],[-117.257048195092,32.7305949442655],[-117.257096286401,32.730617397864],[-117.257123135248,32.7306759776007],[-117.257176574228,32.7307029297529],[-117.257240608836,32.7307027982642],[-117.257293893306,32.7306756262085],[-117.257283181794,32.730662117635],[-117.257293582488,32.7305673792217],[-117.257272238517,32.7305674230514],[-117.257261513531,32.7305494030332],[-117.257218837267,32.730554001365],[-117.257208100603,32.7305314706708],[-117.257165384813,32.7305225384939],[-117.2571172423,32.7304820436806],[-117.25709034135,32.7304054226101],[-117.257047586933,32.7303829583786],[-117.25704747105,32.7303423652628],[-117.256994083274,32.7303334534705],[-117.256919221272,32.7302794831899],[-117.256897436228,32.7301261748902],[-117.256854721336,32.7301172419171],[-117.256801205101,32.73006322692],[-117.256758489311,32.7300542939406],[-117.256758437209,32.7300362526595],[-117.256726368252,32.7300182771196],[-117.256651636505,32.7300094091248],[-117.25664624841,32.7299913791699],[-117.256614231555,32.7299914449148],[-117.256587499489,32.7299734572748],[-117.256470115732,32.7299782082852],[-117.256470065426,32.7299601669887],[-117.256427362213,32.729955743946],[-117.256416612074,32.7299287039081],[-117.256352475057,32.7298927520255],[-117.256293584202,32.7298252168568],[-117.256239642166,32.7296223609099],[-117.256244771546,32.7295501840786],[-117.256228724042,32.7295366851585],[-117.256218079006,32.7295457277651],[-117.256212600181,32.7294961256635],[-117.25619116548,32.7294645974296],[-117.256175170078,32.729469139896],[-117.256180299459,32.7293969636964],[-117.256153542239,32.729369955228],[-117.256131862298,32.7292527305214],[-117.25613137092,32.729081338174],[-117.256157873017,32.7290184929964],[-117.256424637623,32.7290039329983],[-117.256435349134,32.7290175710472],[-117.256403332279,32.7290176367927],[-117.256392762701,32.729053740923],[-117.256360772796,32.729062827409],[-117.256382142818,32.7290718043181],[-117.256371548088,32.7290988884463],[-117.256392944161,32.7291168860868],[-117.256467597754,32.7290986919655],[-117.256531683567,32.7291166019454],[-117.256606389262,32.7291164492949],[-117.256606466518,32.7291435114944],[-117.256585147699,32.729152576056],[-117.256606879743,32.7292878423305],[-117.256564164851,32.7292789092734],[-117.256564242106,32.7293059706678],[-117.256596285012,32.7293149263931],[-117.25659623291,32.7292968842067],[-117.256638922649,32.7292967973019],[-117.256639051108,32.7293419008719],[-117.256607060304,32.7293509873285],[-117.256617810443,32.729378026786],[-117.256596491625,32.7293870913238],[-117.256607215712,32.7294051115768],[-117.256585897792,32.7294141753562],[-117.256564552025,32.7294142191863],[-117.256553827937,32.7293961996908],[-117.256500518315,32.7294143499212],[-117.256479149191,32.7294053730466],[-117.256468631715,32.7294595184213],[-117.256426019231,32.7294866681769],[-117.256404933975,32.729576918932],[-117.256394183836,32.7295498787792],[-117.256372838967,32.7295499218536],[-117.256394157785,32.7295408573324],[-117.256394106581,32.7295228174588],[-117.256372787763,32.7295318812261],[-117.25637273566,32.7295138398393],[-117.256394079632,32.7295137960092],[-117.256372684456,32.7294957984488],[-117.256383253136,32.7294596937419],[-117.256351261434,32.7294687801864],[-117.256340538244,32.729450760702],[-117.256351147348,32.7294284745733],[-117.256340408887,32.7294056564313],[-117.25637242664,32.7294055914418],[-117.256361676501,32.729378551237],[-117.256382995319,32.7293694866983],[-117.256382917166,32.7293424245674],[-117.25632955634,32.7293425333873],[-117.256340331631,32.7293785950672],[-117.256319296681,32.729486886572],[-117.256372891069,32.7295679632331],[-117.256362270287,32.7295860272797],[-117.256383666361,32.7296040248218],[-117.256383769667,32.7296401075553],[-117.256405113638,32.7296400637252],[-117.256394544959,32.7296761676035],[-117.256416096441,32.729748289923],[-117.256437543718,32.7297843287681],[-117.256458889486,32.7297842856938],[-117.256490982698,32.7298112811899],[-117.256480414019,32.7298473865101],[-117.256533775743,32.7298472776909],[-117.256544499831,32.7298652970953],[-117.256576516686,32.7298652305947],[-117.256576438533,32.72983816937],[-117.256597757351,32.729829104878],[-117.25666181801,32.7298379948057],[-117.256661921317,32.7298740774445],[-117.256683318288,32.7298920749285],[-117.25666199947,32.729901139414],[-117.25667272266,32.7299191580518],[-117.256694067529,32.7299191149775],[-117.256694118733,32.7299371562823],[-117.256651403841,32.7299282225346],[-117.256640835162,32.7299643278075],[-117.25669424809,32.729982260284],[-117.256715567807,32.7299731958068],[-117.256715462704,32.7299371124524],[-117.25675812729,32.7299280041406],[-117.256768877429,32.7299550449345],[-117.256790246553,32.7299640217538],[-117.256801074846,32.730018123715],[-117.256822367613,32.7300000385967],[-117.256865083403,32.7300089723372],[-117.256875807491,32.7300269917089],[-117.256865211862,32.7300540755469],[-117.25688655763,32.7300540317171],[-117.256918677791,32.7300900492793],[-117.256897358973,32.7300991137447],[-117.256897411075,32.7301171542574],[-117.256940073865,32.7301080459639],[-117.2569507728,32.7301170454385],[-117.256940177171,32.7301441292491],[-117.256961599295,32.7301711480625],[-117.256982945063,32.730171103477],[-117.256993695202,32.7301981434414],[-117.256983048369,32.7302071867366],[-117.257004392341,32.7302071429068],[-117.257004445341,32.7302251841533],[-117.256983099573,32.7302252279831],[-117.25698320288,32.7302613104652],[-117.257015271837,32.730279285956],[-117.257015323939,32.7302973279436],[-117.256993979968,32.7302973717734],[-117.256994031172,32.7303154130016],[-117.257090185942,32.7303512982134],[-117.257154634674,32.7304954978722],[-117.257250763392,32.7305223624197],[-117.257282858401,32.7305493592036],[-117.257304099964,32.7305132322528],[-117.257325522088,32.7305402509544],[-117.257357565893,32.7305492058],[-117.257357643148,32.7305762683202],[-117.257400384989,32.7305942218327],[-117.257379403039,32.7307205552741],[-117.257336765402,32.7307386840758],[-117.257315368431,32.7307206867627],[-117.257315446584,32.7307477477195],[-117.257304721598,32.7307297292492],[-117.257272730794,32.7307388155644],[-117.257262031859,32.7307298169083],[-117.257240816347,32.7307749635827],[-117.257198127506,32.7307750512418],[-117.257059540814,32.7308294602729],[-117.256942195685,32.7308477424555],[-117.256942247788,32.7308657835724],[-117.257027730572,32.730901691233],[-117.257017135841,32.7309287755609],[-117.257027989286,32.7309918982375],[-117.257049386258,32.7310098954958],[-117.257049464412,32.7310369571204],[-117.257081507318,32.7310459126718],[-117.257081584573,32.7310729742856],[-117.257049593769,32.7310820613214],[-117.257038894834,32.7310730619443],[-117.257038946936,32.7310911037712],[-117.257017628118,32.7311001681349],[-117.256985609466,32.7311002338789],[-117.256974886277,32.7310822139685],[-117.256953645612,32.7311183406886],[-117.256911033128,32.731145489939],[-117.256911136434,32.7311815728043],[-117.256889791565,32.7311816166335],[-117.256900541704,32.7312086570472],[-117.256868549103,32.7312177433135],[-117.256921911726,32.7312176329845],[-117.256964653567,32.7312355871236],[-117.25696470567,32.7312536289176],[-117.256986075692,32.7312626056062],[-117.256986205948,32.7313077089373],[-117.257007550817,32.731307665108],[-117.257029025044,32.7313527253427],[-117.2570610949,32.7313707006135],[-117.257052740568,32.7313797385001],[-117.257018404262,32.7313707875163],[-117.257018456365,32.7313888292829],[-117.257082646382,32.7314428223178],[-117.257072051651,32.7314699057257],[-117.257093396521,32.7314698618965],[-117.257093525878,32.7315149658783],[-117.257114844696,32.7315059015569],[-117.257114896799,32.7315239432962],[-117.256986851836,32.7315332260058],[-117.25694405969,32.7314972309413],[-117.256901395103,32.7315063390928],[-117.256869455503,32.7315334663104],[-117.25685911859,32.7316507575399],[-117.256869895678,32.7316868175304],[-117.256837825822,32.7316688415676],[-117.256837748567,32.7316417801348],[-117.256816402799,32.7316418239638],[-117.256805601456,32.7315967419607],[-117.256762884768,32.7315878098906],[-117.256762962922,32.7316148713398],[-117.256784307791,32.7316148275107],[-117.256784411097,32.731650910186],[-117.256805808069,32.7316689080668],[-117.256805963478,32.7317230316636],[-117.25689144716,32.7317589397346],[-117.256902093993,32.7317498965967],[-117.256891317803,32.7317138366318],[-117.256912662672,32.7317137928027],[-117.256976801485,32.7317497439508],[-117.256966310061,32.7318129113864],[-117.256944991242,32.7318219756766],[-117.256934395614,32.7318490589692],[-117.256913050744,32.7318491027982],[-117.256913128898,32.7318761649238],[-117.25693449892,32.7318851415497],[-117.256945352365,32.7319482643047],[-117.25697739617,32.7319572197645],[-117.25697744917,32.7319752614124],[-117.257020242215,32.7320112555283],[-117.257020422777,32.7320744008641],[-117.256999103959,32.7320834658834],[-117.257009687909,32.7320524652668],[-117.256998897346,32.7320112993572],[-117.256988327768,32.7320474045421],[-117.256956283964,32.7320384490913],[-117.256945637131,32.7320474921998],[-117.256934886992,32.7320204512851]],[[-117.256350830242,32.7293178947575],[-117.256361392633,32.7292793233937],[-117.256329143115,32.7291982026397],[-117.256350487984,32.7291981588094],[-117.256361030612,32.7291530340072],[-117.256339686641,32.7291530778375],[-117.256328885298,32.7291079960871],[-117.25630756648,32.7291170606524],[-117.256296867545,32.7291080618327],[-117.256275549625,32.7291171263979],[-117.256286247661,32.7291261252167],[-117.256275782288,32.7291983122154],[-117.256297153209,32.7292072891109],[-117.256286634835,32.7292614353616],[-117.256318754997,32.7292974524884],[-117.256308134215,32.7293155158341],[-117.256350830242,32.7293178947575]],[[-117.256542898135,32.7293060144981],[-117.256542924186,32.729315035213],[-117.256564268157,32.7293149913827],[-117.256564242106,32.7293059706678],[-117.256542898135,32.7293060144981]],[[-117.256564500821,32.7293961777757],[-117.25656447477,32.729387157069],[-117.256553802784,32.7293871789842],[-117.256553827937,32.7293961996908],[-117.256564500821,32.7293961777757]],[[-117.25665137779,32.7299192026374],[-117.256662024623,32.7299101600686],[-117.256608637746,32.7299012482332],[-117.256619386986,32.7299282882794],[-117.25665137779,32.7299192026374]],[[-117.25699397368,32.7302951817974],[-117.256993927866,32.7302793297858],[-117.256972582996,32.7302793736156],[-117.256983306186,32.7302973936882],[-117.25699397368,32.7302951817974]],[[-117.256974870107,32.7310766325261],[-117.256964187342,32.7310732153471],[-117.256964214291,32.7310822358831],[-117.256974886277,32.7310822139685],[-117.256974870107,32.7310766325261]],[[-117.256901369052,32.7314973178439],[-117.256933309551,32.7314701898596],[-117.256933231397,32.7314431283664],[-117.256901214542,32.7314431941102],[-117.256890592862,32.7314612577768],[-117.256901343001,32.7314882973499],[-117.25689072222,32.7315063602517],[-117.256901369052,32.7314973178439]],[[-117.256848420553,32.7316417589759],[-117.2568483954,32.7316327377407],[-117.256837721618,32.7316327596553],[-117.256837748567,32.7316417801348],[-117.256848420553,32.7316417589759]],[[-117.256805575405,32.7315877214767],[-117.256805549354,32.7315787017475],[-117.256784204485,32.7315787455766],[-117.256784229638,32.7315877653058],[-117.256805575405,32.7315877214767]],[[-117.256934732482,32.7319663278689],[-117.256924059598,32.7319663497834],[-117.256924085649,32.7319753702291],[-117.256934757635,32.7319753483146],[-117.256934732482,32.7319663278689]],[[-117.256945560774,32.7320204293706],[-117.256956258811,32.732029428652],[-117.256934757635,32.7319753483146],[-117.256934886992,32.7320204512851],[-117.256945560774,32.7320204293706]],[[-117.256843859806,32.7319123895595],[-117.256843833755,32.7319033691075],[-117.25683849866,32.7319033796868],[-117.256838523813,32.7319124008946],[-117.256843859806,32.7319123895595]],[[-117.256985092935,32.7309198199978],[-117.256990428928,32.7309198094183],[-117.256990416351,32.7309152980086],[-117.25698507946,32.7309153093438],[-117.256985092935,32.7309198199978]],[[-117.256797442957,32.7306946860194],[-117.256802937053,32.7306676121999],[-117.256813583886,32.7306585697071],[-117.256781592184,32.7306676560295],[-117.256797442957,32.7306946860194]]]}},{"type":"Feature","id":"215478","properties":{"site_id":"sunset-cliffs-reef","source_feature_id":215478,"source_dataset":"California Aquatic Resources Inventory (CARI) v3.3","source_class":"Marine Rocky Shore Natural Intertidal","source_legcode":"RS","source_attributes":{"OBJECTID":215478,"clickcode":"WMNrnIN","clicklabel":"Marine Rocky Shore Natural Intertidal","name":null,"orig_dataset":"Elevation Modeled Polygons via ESI Classification","orig_class":"2A","organization":"San Francisco Estuary Institute (SFEI)","orig_dataset_pubyear":2022,"process_adjustment":null,"source_data":"ESI Classification; NOAA VDatum; USGS Modeled Dune Toe; 2016 El Nino DEM; USGS CoNED Topobathy DEM","source_estimatedyear":2016,"orig_scale":null,"legend_headings":"Estuarine and Marine","legcode":"RS","leglabellevel1":"Rocky Shore","leglabellevel2":"Rocky Shore","major_class":"Wetland","wetland_class":"Marine","anthropogenic_modifier":"Natural","wetland_type":"Rocky","wetland_subtype":"none","tidal_modifier":"Intertidal","vegetation_modifier":"Non-vegetated","salinity_modifier":"Saline","salinity_source":"CARI Marine","salinity_additional_information":"Wetland Mapping classified Marine","lastupdate":1770120526000,"CARI_id":215478,"Shape__Area":31.21484375,"Shape__Length":28.60468472273125}},"geometry":{"type":"Polygon","coordinates":[[[-117.257279154647,32.7329752012897],[-117.257268457508,32.7329669441644],[-117.2572683021,32.7329128205673],[-117.257300345904,32.7329217751746],[-117.25731107089,32.7329397947131],[-117.257311149044,32.7329668565076],[-117.257289855378,32.7329849417796],[-117.257279154647,32.7329752012897]]]}},{"type":"Feature","id":"215479","properties":{"site_id":"sunset-cliffs-reef","source_feature_id":215479,"source_dataset":"California Aquatic Resources Inventory (CARI) v3.3","source_class":"Marine Rocky Shore Natural Intertidal","source_legcode":"RS","source_attributes":{"OBJECTID":215479,"clickcode":"WMNrnIN","clicklabel":"Marine Rocky Shore Natural Intertidal","name":null,"orig_dataset":"Elevation Modeled Polygons via ESI Classification","orig_class":"2A","organization":"San Francisco Estuary Institute (SFEI)","orig_dataset_pubyear":2022,"process_adjustment":null,"source_data":"ESI Classification; NOAA VDatum; USGS Modeled Dune Toe; 2016 El Nino DEM; USGS CoNED Topobathy DEM","source_estimatedyear":2016,"orig_scale":null,"legend_headings":"Estuarine and Marine","legcode":"RS","leglabellevel1":"Rocky Shore","leglabellevel2":"Rocky Shore","major_class":"Wetland","wetland_class":"Marine","anthropogenic_modifier":"Natural","wetland_type":"Rocky","wetland_subtype":"none","tidal_modifier":"Intertidal","vegetation_modifier":"Non-vegetated","salinity_modifier":"Saline","salinity_source":"CARI Marine","salinity_additional_information":"Wetland Mapping classified Marine","lastupdate":1770120526000,"CARI_id":215479,"Shape__Area":65.2578125,"Shape__Length":50.00294747479411}},"geometry":{"type":"Polygon","coordinates":[[[-117.25631602322,32.7358014032434],[-117.256347964616,32.7357742758134],[-117.256390735204,32.7358012498488],[-117.256444099623,32.7358011402812],[-117.256444151725,32.7358191819068],[-117.256422779008,32.7358102049215],[-117.256412209431,32.7358463093231],[-117.256390863663,32.7358463531502],[-117.256326748206,32.7358194229554],[-117.25631602322,32.7358014032434]]]}},{"type":"Feature","id":"215480","properties":{"site_id":"sunset-cliffs-reef","source_feature_id":215480,"source_dataset":"California Aquatic Resources Inventory (CARI) v3.3","source_class":"Marine Rocky Shore Natural Intertidal","source_legcode":"RS","source_attributes":{"OBJECTID":215480,"clickcode":"WMNrnIN","clicklabel":"Marine Rocky Shore Natural Intertidal","name":null,"orig_dataset":"Elevation Modeled Polygons via ESI Classification","orig_class":"2A","organization":"San Francisco Estuary Institute (SFEI)","orig_dataset_pubyear":2022,"process_adjustment":null,"source_data":"ESI Classification; NOAA VDatum; USGS Modeled Dune Toe; 2016 El Nino DEM; USGS CoNED Topobathy DEM","source_estimatedyear":2016,"orig_scale":null,"legend_headings":"Estuarine and Marine","legcode":"RS","leglabellevel1":"Rocky Shore","leglabellevel2":"Rocky Shore","major_class":"Wetland","wetland_class":"Marine","anthropogenic_modifier":"Natural","wetland_type":"Rocky","wetland_subtype":"none","tidal_modifier":"Intertidal","vegetation_modifier":"Non-vegetated","salinity_modifier":"Saline","salinity_source":"CARI Marine","salinity_additional_information":"Wetland Mapping classified Marine","lastupdate":1770120526000,"CARI_id":215480,"Shape__Area":26116.75390625,"Shape__Length":5625.6652845229555}},"geometry":{"type":"Polygon","coordinates":[[[-117.255215620234,32.7372965780985],[-117.255236799814,32.7372378991921],[-117.255263456422,32.7372288241183],[-117.255257938969,32.737165690746],[-117.255284533593,32.7371340639707],[-117.255246829504,32.7370123610425],[-117.255262620988,32.7369356533988],[-117.255299990006,32.7369400874296],[-117.255310623364,32.7369265337121],[-117.255369327369,32.7369264143227],[-117.255406631708,32.7369082973583],[-117.255395829467,32.7368632149964],[-117.25542237109,32.7368135474488],[-117.255416764705,32.7367188412651],[-117.255464678147,32.7366781505359],[-117.255448641423,32.7366691623026],[-117.255459212797,32.7366330582343],[-117.255501904332,32.736632970581],[-117.255520292846,32.7366194024598],[-117.255571279425,32.7366328292779],[-117.25567785555,32.736578488018],[-117.255683013677,32.7365153322717],[-117.255661487348,32.7364522316419],[-117.255709334315,32.7363889889083],[-117.255714324456,32.7362671988202],[-117.255665881906,32.7361229661829],[-117.255665561207,32.7360102078589],[-117.255692102831,32.7359605390803],[-117.255734730586,32.7359379009409],[-117.255750649631,32.7359062956434],[-117.255739782711,32.735838662264],[-117.25577171243,32.7358070251945],[-117.255771609123,32.7357709419348],[-117.255835505391,32.7357211982146],[-117.255840776705,32.7356986348226],[-117.255888818607,32.7357030470014],[-117.25595301042,32.7357570404455],[-117.256038370135,32.7357478458299],[-117.256032904785,32.7357027530577],[-117.256080983517,32.73572069647],[-117.256107589819,32.7356935803501],[-117.256134323682,32.7357115668357],[-117.256112784777,32.7356439559777],[-117.256086050016,32.7356259687228],[-117.256102021163,32.7356124049821],[-117.256091257549,32.7355808539753],[-117.25602718072,32.7355674542017],[-117.256027128618,32.7355494125252],[-117.25608041668,32.7355222419469],[-117.256069589286,32.7354681395482],[-117.255973402177,32.7354232325224],[-117.255935919972,32.7353782053267],[-117.255909211262,32.735369238876],[-117.255909133109,32.7353421762997],[-117.255882399246,32.7353241904951],[-117.255940805011,32.7352203333974],[-117.255930065651,32.7351978023713],[-117.255940378311,32.7350714918998],[-117.25597237181,32.7350624052707],[-117.255982826403,32.7349857080389],[-117.255972076264,32.7349586680156],[-117.255945405283,32.7349632328714],[-117.255843755519,32.7348732339105],[-117.25585962336,32.734823586412],[-117.255886267391,32.7348100013911],[-117.255880865822,32.7347874604379],[-117.255902172962,32.7347738852349],[-117.255902068757,32.7347378023126],[-117.255928700212,32.7347197068171],[-117.255960539201,32.7346564976139],[-117.256019147985,32.7346248049624],[-117.256029731037,32.734593210534],[-117.256141680884,32.7345523881069],[-117.25620570651,32.7345477476651],[-117.256226895072,32.734493579689],[-117.256253514849,32.7344709736699],[-117.256248036024,32.7344213712864],[-117.256263992799,32.7344032968849],[-117.256312020327,32.7344031978947],[-117.256365488951,32.7344391721388],[-117.256376265141,32.7344752332682],[-117.256408309844,32.7344841884741],[-117.256419111187,32.7345292697725],[-117.256451181941,32.7345472459141],[-117.256451259196,32.7345743079761],[-117.256515399806,32.7346102587261],[-117.25653684888,32.7346462978724],[-117.256606210498,32.7346416468564],[-117.256600808928,32.734619105105],[-117.256531396106,32.7346057165216],[-117.256515192295,32.7345380942456],[-117.256525297443,32.7343396166867],[-117.256498435121,32.7342765273625],[-117.256471752463,32.7342765817695],[-117.25647170036,32.7342585405873],[-117.256439604454,32.7342315434154],[-117.256375541997,32.7342226546815],[-117.256375424318,32.7341820610473],[-117.256396681153,32.7341504453037],[-117.256375232079,32.7341144059569],[-117.256407199526,32.7340962997557],[-117.256407121373,32.7340692375485],[-117.256439075346,32.734046620087],[-117.256428260528,32.7339970280465],[-117.256460253129,32.7339879420635],[-117.256460148924,32.7339518595787],[-117.256481469539,32.733942795505],[-117.256492065168,32.7339157113372],[-117.25649193581,32.7338706078146],[-117.256481209926,32.7338525884642],[-117.256459865955,32.7338526315365],[-117.256459762648,32.7338165497526],[-117.256502428133,32.7338074418372],[-117.256513048016,32.733789378646],[-117.256502117316,32.7336991926083],[-117.256598068168,32.7336629142915],[-117.25659796576,32.7336268316751],[-117.256619335782,32.7336358088803],[-117.256672675049,32.7336266790324],[-117.256720805884,32.7336626626578],[-117.256768806462,32.7336535433918],[-117.256747539746,32.7336806495533],[-117.256768885514,32.7336806057252],[-117.256790205231,32.733671541624],[-117.256779454193,32.7336445012019],[-117.256822119678,32.7336353925133],[-117.256859499475,32.7336443372243],[-117.256896750813,32.7336081775234],[-117.256886024929,32.7335901588756],[-117.25691807053,32.7335991134148],[-117.256918018428,32.7335810728512],[-117.256886000674,32.7335811378377],[-117.256896634032,32.7335675851207],[-117.256869965747,32.7335721500478],[-117.256816485444,32.7335316664435],[-117.256752552346,32.7335678798272],[-117.256693813306,32.7335544691718],[-117.256683038014,32.7335184091812],[-117.256661692246,32.7335184522537],[-117.256650942107,32.7334914117851],[-117.256650837903,32.7334553290993],[-117.25667218367,32.7334552852711],[-117.256682778401,32.7334282017108],[-117.256671924057,32.7333650792482],[-117.256746453683,32.7333017806721],[-117.256810437986,32.7332836085634],[-117.256927889116,32.7333014096431],[-117.25695995987,32.7333193852766],[-117.256960011972,32.7333374266489],[-117.257002701711,32.7333373382367],[-117.25703478594,32.7333598251492],[-117.257061466802,32.7333597714973],[-117.257034668261,32.7333192326334],[-117.25702383907,32.7332651296531],[-117.257034499377,32.7332605979593],[-117.257002416047,32.7332381110218],[-117.25700233969,32.7332110500654],[-117.256970269835,32.73319307441],[-117.256970191681,32.7331660119286],[-117.256948795608,32.73314801435],[-117.256959390338,32.7331209299407],[-117.256948639301,32.7330938901072],[-117.256969985069,32.7330938470345],[-117.25696470028,32.7331118990317],[-117.256986058624,32.7331163649905],[-117.25699679439,32.7331388950313],[-117.257044823715,32.7331387967954],[-117.257044900072,32.7331658585294],[-117.257071659986,32.7331928666033],[-117.257061104781,32.7332334810908],[-117.257087837746,32.7332514680729],[-117.257104015506,32.733310069504],[-117.257141486931,32.7333505857024],[-117.257178802948,32.7333369777872],[-117.257248316381,32.7333864492895],[-117.257317715729,32.7333953275276],[-117.257301564918,32.7333457472152],[-117.257280193099,32.7333367699808],[-117.257280141895,32.7333187286084],[-117.257242746827,32.7333052740873],[-117.257215910556,32.7332512043475],[-117.257215858453,32.7332331629578],[-117.257290607268,32.7332465411681],[-117.257301175948,32.733210436469],[-117.257231725396,32.7331835168127],[-117.257252889704,32.7331203284342],[-117.257194058138,32.7330753454149],[-117.257183283745,32.7330392852305],[-117.257129868121,32.7330213526133],[-117.257140528429,32.7330168209071],[-117.257124506077,32.7330123428527],[-117.257129711814,32.7329672290493],[-117.257076038374,32.7328590906382],[-117.257054692607,32.7328591344667],[-117.257022597598,32.7328321376266],[-117.256979907859,32.7328322252836],[-117.25696931223,32.7328593090249],[-117.25691592176,32.7328503974843],[-117.256873282327,32.7328685266084],[-117.256868180794,32.732949723367],[-117.25677712576,32.7328326408986],[-117.25669719726,32.732873397615],[-117.256702676983,32.7329230001043],[-117.256670658331,32.732923065847],[-117.256617139401,32.7328690510388],[-117.256579759604,32.7328601070056],[-117.256585005765,32.7328285240423],[-117.25662758052,32.7327878436275],[-117.256616850144,32.7327680134866],[-117.256680873972,32.7327634946138],[-117.256691589077,32.7327786910228],[-117.256712885438,32.732761235933],[-117.256734279714,32.7327786041214],[-117.256744896903,32.7327589757409],[-117.256776908368,32.7327567178156],[-117.256809014156,32.7327874718408],[-117.256819816397,32.732832552486],[-117.256841109165,32.7328144686944],[-117.256905121315,32.7328053168481],[-117.257054564148,32.7328140304093],[-117.257097305989,32.7328319842268],[-117.257097358091,32.7328500256978],[-117.257118703859,32.7328499818693],[-117.257129479151,32.7328860421303],[-117.257150824918,32.7328859983018],[-117.257225689616,32.7329399700269],[-117.257161730466,32.7329671633066],[-117.257172532707,32.7330122446166],[-117.257204576512,32.7330211999695],[-117.257226052535,32.7330662585823],[-117.257268795275,32.7330842123491],[-117.257268846479,32.7331022545246],[-117.257290191348,32.7331022106963],[-117.257279286699,32.7330210465701],[-117.257332727475,32.7330479980132],[-117.257332779578,32.7330660401961],[-117.257364848535,32.7330840166327],[-117.257397204953,32.7332012189209],[-117.257418549823,32.7332011750926],[-117.257450670882,32.7332371921389],[-117.257493388469,32.7332461247993],[-117.257504191609,32.7332912059683],[-117.257546934348,32.7333091604453],[-117.257568382524,32.7333451986065],[-117.25761110011,32.7333541312561],[-117.257632495286,32.7333721287931],[-117.257632573439,32.733399191212],[-117.257600634737,32.7334263193649],[-117.257568616086,32.7334263851072],[-117.257547218216,32.7334083875812],[-117.257483182709,32.7334085190658],[-117.257451190108,32.7334176051079],[-117.25744059448,32.733444689427],[-117.257312496517,32.7334359313436],[-117.257227166446,32.7334541480051],[-117.257152352953,32.7334182179472],[-117.257109506907,32.7333641822806],[-117.257098860074,32.733373224499],[-117.257109636264,32.7334092860596],[-117.257088343497,32.7334273712419],[-117.257024384347,32.7334545636172],[-117.256960347942,32.7334546958575],[-117.256970788162,32.7333734874684],[-117.256928148729,32.7333916157305],[-117.256885690756,32.7334728898453],[-117.256896413047,32.7334909085168],[-117.256928406546,32.7334818224822],[-117.256981977578,32.7335538790031],[-117.256992753768,32.733589939735],[-117.256982132986,32.7336080029666],[-117.256960788117,32.7336080467947],[-117.256971538256,32.7336350872279],[-117.256950218539,32.7336441513327],[-117.256950269743,32.7336621926393],[-117.256928872771,32.7336441951609],[-117.25689685412,32.733644260903],[-117.256896905324,32.7336623022095],[-117.25685426589,32.7336804311685],[-117.256854318891,32.7336984724677],[-117.256801006574,32.7337166233335],[-117.256715650452,32.7337258189142],[-117.256694098072,32.7336536960345],[-117.25668347729,32.7336717600088],[-117.25665145774,32.7336718249953],[-117.256640863908,32.7336989092372],[-117.256608871308,32.7337079952496],[-117.256619596294,32.7337260153849],[-117.256608922512,32.7337260365432],[-117.256608974614,32.7337440785888],[-117.256577006268,32.7337621856172],[-117.256577059268,32.7337802268998],[-117.256598405036,32.7337801830718],[-117.25658783456,32.7338162867845],[-117.256609180328,32.7338162437121],[-117.256609233329,32.7338342842282],[-117.256577240728,32.7338433709825],[-117.256588172327,32.733933555363],[-117.256577524596,32.7339425982792],[-117.256609541451,32.7339425325373],[-117.256598921567,32.7339605964531],[-117.256620267335,32.7339605526251],[-117.256620318539,32.7339785938676],[-117.25657773031,32.7340147632418],[-117.256577808463,32.7340418262212],[-117.256599154231,32.7340417816376],[-117.256588532551,32.7340598447776],[-117.256609879217,32.7340598017054],[-117.256620629356,32.7340868420015],[-117.256610111881,32.7341409883109],[-117.256599360844,32.7341139480312],[-117.256578040229,32.7341230120874],[-117.256588766113,32.7341410313831],[-117.25655672141,32.7341320761427],[-117.256556773513,32.7341501181062],[-117.256588790368,32.7341500523644],[-117.256578196536,32.7341771357053],[-117.256503409093,32.7341502269201],[-117.256471416493,32.7341593128866],[-117.256471492849,32.7341863750664],[-117.256492839516,32.7341863319942],[-117.256492891618,32.7342043724354],[-117.256524884218,32.7341952864735],[-117.256524987525,32.7342313688598],[-117.256514365845,32.7342494312057],[-117.256493020077,32.7342494757892],[-117.256493072179,32.7342675177288],[-117.256525089933,32.7342674519872],[-117.256535815817,32.7342854720093],[-117.256514495202,32.734294536048],[-117.256525271392,32.7343305964803],[-117.25654661716,32.7343305526525],[-117.256546539905,32.7343034912721],[-117.256578531607,32.7342944053204],[-117.256599902528,32.734303380947],[-117.25659995463,32.7343214228757],[-117.256568013233,32.734348550748],[-117.256578782237,32.7343816663879],[-117.256568143489,32.7343936540289],[-117.256589490155,32.7343936102011],[-117.256589412002,32.7343665480842],[-117.25661075777,32.7343665050121],[-117.256621586062,32.7344206073239],[-117.256642956983,32.7344295836935],[-117.256632568865,32.7345288330072],[-117.256611197046,32.7345198558919],[-117.256611144944,32.7345018147589],[-117.256579101139,32.7344928595548],[-117.256568453408,32.7345019016587],[-117.256579178394,32.7345199216334],[-117.256568557613,32.7345379846765],[-117.256547211845,32.7345380285042],[-117.25654726215,32.7345560696298],[-117.256568609715,32.7345560265577],[-117.256568685173,32.7345830886171],[-117.256600678672,32.7345740026939],[-117.256590083942,32.7346010851503],[-117.256611429709,32.7346010420784],[-117.256611481812,32.7346190831912],[-117.256654147296,32.7346099753578],[-117.256643371106,32.7345739142829],[-117.256707485664,32.7346008456097],[-117.25670756292,32.7346279076554],[-117.256686191999,32.7346189305502],[-117.256686139897,32.7346008886817],[-117.256664794129,32.7346009325093],[-117.256664844435,32.7346189743778],[-117.25663282758,32.7346190393636],[-117.256643602871,32.7346551004202],[-117.256675622421,32.7346550354344],[-117.256654327858,32.7346731203639],[-117.256675699676,32.7346820974637],[-117.256654353909,32.7346821412914],[-117.25666515615,32.7347272217339],[-117.25662254187,32.7347543713964],[-117.256633266856,32.7347723913201],[-117.256686657326,32.7347813026687],[-117.256676035646,32.7347993656588],[-117.256686759734,32.7348173855734],[-117.256644043046,32.7348084523147],[-117.256611947139,32.7347814553094],[-117.256569254705,32.7347815429645],[-117.25654796104,32.7347996278683],[-117.256515916337,32.7347906726941],[-117.256494622671,32.7348087575961],[-117.256462603121,32.7348088233374],[-117.256441335507,32.7348359291475],[-117.256387970189,32.7348360379607],[-117.256313441462,32.7348993354472],[-117.256228031441,32.734890489096],[-117.256217307353,32.7348724691962],[-117.256110604566,32.7348817092409],[-117.256110785127,32.7349448532989],[-117.256089464512,32.7349539172706],[-117.256089516614,32.7349719590676],[-117.256121458011,32.7349448313852],[-117.256196219402,32.7349627205436],[-117.25618559862,32.734980783497],[-117.256206944388,32.7349807396695],[-117.256207021643,32.7350078023556],[-117.256249764383,32.7350257557313],[-117.256239195704,32.7350618604507],[-117.25620712495,32.735043884413],[-117.256207228256,32.7350799672114],[-117.256239220856,32.7350708813388],[-117.256249997945,32.7351069422126],[-117.256271343713,32.7351068983852],[-117.256271420968,32.7351339610329],[-117.256250049149,32.735124983223],[-117.256239428367,32.7351430468991],[-117.256186010049,32.7351251139495],[-117.256186087304,32.7351521765917],[-117.256079411466,32.7351704359741],[-117.256089980145,32.7351343312986],[-117.256057935442,32.7351253754024],[-117.256068660428,32.7351433952511],[-117.256025969791,32.7351434821501],[-117.256036719032,32.7351705228731],[-117.25602609825,32.7351885857844],[-117.256068787989,32.7351884988853],[-117.256079513874,32.7352065187212],[-117.256026123403,32.7351976066596],[-117.25600480189,32.7352066706057],[-117.255994310465,32.7352698378583],[-117.256026355168,32.7352787922287],[-117.256036950797,32.7352517092226],[-117.256037054103,32.7352877911812],[-117.256079746537,32.7352877042822],[-117.256090522727,32.7353237650683],[-117.256111764291,32.7352876385413],[-117.256154456724,32.7352875516424],[-117.256186552631,32.7353145484944],[-117.25618670804,32.7353686721443],[-117.25620810591,32.7353866700302],[-117.256208183165,32.7354137318373],[-117.256250900752,32.735422665791],[-117.256250952854,32.7354407067375],[-117.256240253919,32.7354317078005],[-117.256208261318,32.7354407943919],[-117.256229656493,32.7354587922632],[-117.256219035712,32.7354768551161],[-117.256240382378,32.7354768112889],[-117.256219139916,32.7355129377392],[-117.256240511735,32.7355219139988],[-117.256272504336,32.7355128281712],[-117.256272580693,32.7355398899401],[-117.256347267524,32.7355307172157],[-117.256357966459,32.7355397161427],[-117.256347345677,32.7355577789791],[-117.256336645844,32.7355487800539],[-117.256315326127,32.7355578447199],[-117.256347369932,32.735566799817],[-117.256368819904,32.7356028393322],[-117.256390164774,32.735602795505],[-117.256422262477,32.7356297915059],[-117.256464954911,32.7356297038517],[-117.256475575692,32.7356116410298],[-117.256486300679,32.7356296607802],[-117.25651831933,32.7356295950395],[-117.256518422637,32.7356656783564],[-117.25649707597,32.7356657214279],[-117.256507801855,32.7356837411673],[-117.256411873461,32.7357290409944],[-117.256347678952,32.7356750475333],[-117.256304989213,32.7356751351875],[-117.256305091621,32.7357112177303],[-117.256262347983,32.7356932637371],[-117.256262295881,32.7356752228417],[-117.256294316329,32.7356751563454],[-117.256294238176,32.7356480953732],[-117.256262191676,32.7356391402842],[-117.25626226983,32.7356662020147],[-117.256219579193,32.735666289669],[-117.256230355383,32.7357023495462],[-117.256219706753,32.735711392283],[-117.256241080369,32.7357203692782],[-117.256209085972,32.7357294550846],[-117.256198490343,32.7357565394569],[-117.256251880814,32.735765450707],[-117.256273151123,32.7357383451795],[-117.256283952466,32.7357834265992],[-117.256326617052,32.7357743188848],[-117.25631602322,32.7358014032434],[-117.256262657902,32.7358015120554],[-117.256241233981,32.7357744934374],[-117.256219888213,32.7357745372644],[-117.256209292584,32.7358016208674],[-117.256198594548,32.7357926219668],[-117.256166601049,32.7358017077658],[-117.256166652253,32.7358197493912],[-117.25613460755,32.7358107943195],[-117.256134684805,32.7358378559979],[-117.256028058374,32.7358741568543],[-117.255996270589,32.7359554083032],[-117.255974899669,32.7359464313316],[-117.25598552045,32.7359283678183],[-117.255974822414,32.7359193689305],[-117.255953526952,32.7359374543591],[-117.255964225887,32.7359464532451],[-117.255953630258,32.7359735367958],[-117.255975002077,32.7359825145202],[-117.255985623757,32.7359644510143],[-117.256006968626,32.7359644071873],[-117.25603922084,32.7360455278288],[-117.256081939325,32.7360544609635],[-117.256146105087,32.7360994341673],[-117.256189030185,32.7361805327725],[-117.256231774721,32.7361984866676],[-117.256231878027,32.7362345697541],[-117.256242498809,32.7362165062993],[-117.256263871526,32.7362254832436],[-117.25626392273,32.7362435247833],[-117.256231954384,32.7362616320595],[-117.256253301948,32.7362615882327],[-117.25624267937,32.7362796516784],[-117.256264026036,32.736279607096],[-117.256253404356,32.7362976697825],[-117.256274854329,32.7363337097578],[-117.256306899032,32.7363426647769],[-117.256296290826,32.73636559071],[-117.256307002338,32.7363787478052],[-117.256264335955,32.7363878554578],[-117.25622161747,32.7363789216009],[-117.256253687326,32.736396898125],[-117.25623239366,32.7364149827011],[-117.256253817581,32.7364420011249],[-117.2562111503,32.7364511095267],[-117.25618975243,32.7364331111002],[-117.256147060895,32.7364331987537],[-117.256136336807,32.7364151791658],[-117.256114990141,32.7364152222369],[-117.255986577768,32.7362982153505],[-117.255965024489,32.7362260945524],[-117.255932928582,32.7361990972208],[-117.255911581916,32.7361991410477],[-117.255911634917,32.7362171825926],[-117.255879641418,32.7362262683484],[-117.255901012338,32.7362352452917],[-117.255901064441,32.7362532868295],[-117.255858320803,32.7362353321898],[-117.255837000188,32.7362443967859],[-117.255869070942,32.7362623725815],[-117.255837180749,32.7363075413897],[-117.255815808032,32.7362985644536],[-117.255751821034,32.7363167367032],[-117.255741044844,32.7362806755633],[-117.255730500419,32.7363258005354],[-117.255741200253,32.7363347993821],[-117.255719981147,32.7363799462402],[-117.25576267448,32.7363798593424],[-117.255752130953,32.7364249842643],[-117.255773553976,32.7364520026851],[-117.255752232463,32.7364610665035],[-117.255773655486,32.736488085669],[-117.255763190113,32.7365602727508],[-117.255741869498,32.7365693373138],[-117.255741946753,32.7365963987619],[-117.255709927203,32.7365964645019],[-117.25572067824,32.736623504784],[-117.255710029611,32.7366325474274],[-117.255671055304,32.7365965430876],[-117.255667285973,32.7366145928641],[-117.255635267321,32.7366146578484],[-117.255613972757,32.7366327423803],[-117.255614076064,32.7366688252911],[-117.255592780601,32.7366869105676],[-117.255614126369,32.736686866741],[-117.255603529842,32.7367139508223],[-117.255614228777,32.7367229496299],[-117.255582236177,32.736732035334],[-117.255582313432,32.7367590974883],[-117.255550292983,32.7367591632282],[-117.255518635455,32.7368855166457],[-117.255540135733,32.736939597782],[-117.255508142234,32.7369486834641],[-117.255529848226,32.7370749300695],[-117.255572542456,32.7370748424166],[-117.255561662062,32.7370026988224],[-117.255561611756,32.7369846574364],[-117.255582956626,32.7369846143656],[-117.255572000772,32.7368854085907],[-117.255614718359,32.7368943423968],[-117.255593423795,32.7369124268719],[-117.25559350105,32.7369394889715],[-117.255614873768,32.7369484665986],[-117.255604611414,32.7370928180447],[-117.255615389401,32.7371288796116],[-117.255604766822,32.7371469428816],[-117.255572748171,32.7371470078655],[-117.255572825426,32.7371740698938],[-117.255658261497,32.7371919374473],[-117.255668883177,32.7371738741864],[-117.255743621212,32.7371827414685],[-117.255754243791,32.7371646789614],[-117.255757805611,32.7371827135103],[-117.255786288493,32.7371736338971],[-117.255786365749,32.7372006959173],[-117.25576499393,32.7371917190712],[-117.255754423454,32.7372278236688],[-117.255797090735,32.737218716102],[-117.255829186642,32.737245712369],[-117.255786495106,32.7372458000217],[-117.255711859479,32.7372730139008],[-117.25570110934,32.7372459738158],[-117.255669088892,32.7372460395552],[-117.255658339651,32.737218999462],[-117.255636966934,32.737210021862],[-117.255615799032,32.7372732103636],[-117.255648077297,32.7373633512255],[-117.255680123797,32.7373723068968],[-117.255658828334,32.7373903920306],[-117.255626783632,32.7373814363611],[-117.255626833039,32.7373994776667],[-117.25560546122,32.737390500085],[-117.255605590577,32.7374356040933],[-117.255584296014,32.7374536884586],[-117.255541602681,32.7374537753554],[-117.255541654784,32.7374718166464],[-117.255595047051,32.7374807292363],[-117.255584424473,32.7374987924349],[-117.255616470074,32.737507747337],[-117.255637893995,32.7375347661852],[-117.255627374723,32.7375889119111],[-117.255638099709,32.7376069320173],[-117.255659446375,32.7376068874356],[-117.255648850747,32.7376339712373],[-117.255670325872,32.7376790312962],[-117.255606311026,32.7376881826421],[-117.255574241171,32.7376702071341],[-117.255563438929,32.7376251251576],[-117.255520769852,32.7376342326828],[-117.25546735333,32.7376163002345],[-117.255488803302,32.7376523396765],[-117.255552894505,32.7376702502046],[-117.25554232313,32.7377063546084],[-117.255553022964,32.7377153540713],[-117.255521003414,32.7377154190548],[-117.255424815406,32.7376705108944],[-117.25541409042,32.7376524915567],[-117.25538207087,32.7376525565403],[-117.255360800561,32.7376796622412],[-117.25532880796,32.7376887478478],[-117.255318262637,32.7377338728627],[-117.255286243087,32.7377339386018],[-117.255328986725,32.7377518929395],[-117.25532909093,32.7377879753972],[-117.255361290143,32.7378510554351],[-117.255329373001,32.7378872028361],[-117.255308026335,32.737887246662],[-117.255307949079,32.7378601840947],[-117.255275904377,32.7378512284724],[-117.255318595912,32.7378511415759],[-117.255329116082,32.7377969960093],[-117.255254429251,32.7378061685005],[-117.255265333901,32.7378873328028],[-117.255243986336,32.7378873766288],[-117.255244090541,32.7379234590316],[-117.255222769028,32.7379325234561],[-117.255222871435,32.7379686058406],[-117.255254892782,32.7379685408573],[-117.255276187346,32.7379504565964],[-117.255254737374,32.7379144165193],[-117.255286757822,32.7379143515359],[-117.255308181743,32.7379413702608],[-117.255308232947,32.7379594122088],[-117.255276264601,32.7379775183807],[-117.255276341856,32.7380045801569],[-117.255297739726,32.738022578266],[-117.255297920288,32.7380857231211],[-117.255255252108,32.7380948305994],[-117.255287297709,32.7381037861972],[-117.255255303312,32.7381128717606],[-117.255266003146,32.7381218711825],[-117.255255508128,32.7381850371246],[-117.255287657035,32.738230074992],[-117.255287734291,32.7382571366914],[-117.255309107906,32.7382661141858],[-117.255309210314,32.7383021971909],[-117.255287863648,32.7383022402611],[-117.255266618491,32.7383383663217],[-117.255266747849,32.7383834698503],[-117.255288094515,32.7383834267802],[-117.255277728855,32.7384916960107],[-117.255309774456,32.7385006515686],[-117.255277910315,32.738554841289],[-117.25536332303,32.738563688032],[-117.255331199276,32.7385276708714],[-117.255341615241,32.7384374420245],[-117.255330788745,32.7383833398843],[-117.255352058156,32.7383562343974],[-117.255351903646,32.7383021102949],[-117.255373199108,32.7382840253462],[-117.255565806888,32.7384550267243],[-117.255608552323,32.7384729809167],[-117.255619430921,32.7385451248319],[-117.25565147742,32.7385540803845],[-117.255651399267,32.7385270180196],[-117.255672746831,32.7385269734383],[-117.25571554347,32.738562969442],[-117.255715646776,32.7385990523269],[-117.255609093109,32.7386624151461],[-117.255587746443,32.7386624589718],[-117.255598342071,32.738635374727],[-117.25563033557,32.7386262892168],[-117.25565160588,32.7385991822927],[-117.255598212714,32.7385902713259],[-117.255587565881,32.7385993137696],[-117.255577047508,32.7386534596044],[-117.255545078263,32.738671566391],[-117.255555854453,32.7387076273191],[-117.255481474846,32.7388250481405],[-117.255460535117,32.7389674810712],[-117.255247072948,32.7389698574701],[-117.255268345952,32.738943676275],[-117.255246944488,32.7389247542383],[-117.25525759222,32.7389157118276],[-117.255246815131,32.7388796502281],[-117.255225468465,32.7388796940536],[-117.255215021058,32.7389588867426],[-117.255038891974,32.7389527194386],[-117.255033515557,32.7389387187048],[-117.2550494355,32.7389071137159],[-117.255022571382,32.7388440238469],[-117.255033064602,32.7387808576163],[-117.255054412167,32.7387808145463],[-117.255070243177,32.7387176369367],[-117.255128791774,32.7386633929111],[-117.255133936426,32.7385957276214],[-117.255176629758,32.7385956407256],[-117.25521385774,32.7385504609873],[-117.255187056503,32.7385099222174],[-117.255203042922,32.738500869186],[-117.255186929841,32.7384648187529],[-117.255208276507,32.7384647749271],[-117.255213561296,32.7384467232585],[-117.255197538944,32.7384422454769],[-117.255175960513,32.7383611028372],[-117.255111855836,32.7383386821697],[-117.255101105697,32.7383116416523],[-117.255069034943,32.7382936655144],[-117.255047533767,32.7382395844442],[-117.255010085697,32.7382080880164],[-117.254977770602,32.7381044156279],[-117.255041709989,32.7380682033318],[-117.255073522028,32.7379959728899],[-117.255121410317,32.7379462606363],[-117.255142563846,32.737878563066],[-117.255174507937,32.7378514355126],[-117.255163474829,32.7377251673386],[-117.255126041133,32.7376981817955],[-117.255120601834,32.7376621098802],[-117.255050942873,32.7375630234924],[-117.255082705505,32.7374727521094],[-117.255104027018,32.7374636876383],[-117.255093328083,32.7374546889055],[-117.255119932589,32.7374275725575],[-117.255141035811,32.7373418332795],[-117.255215620234,32.7372965780985]],[[-117.255654229858,32.738599177759],[-117.255672952546,32.7385991392226],[-117.255683549073,32.7385720557142],[-117.255651528624,32.7385721214528],[-117.255654229858,32.738599177759]],[[-117.255363348183,32.7385727085657],[-117.255374021965,32.7385726874084],[-117.255373996812,32.7385636661192],[-117.25536332303,32.738563688032],[-117.255363348183,32.7385727085657]],[[-117.255651502573,32.7385631009191],[-117.255662176355,32.7385630782506],[-117.255662149406,32.738554057716],[-117.25565147742,32.7385540803845],[-117.255651502573,32.7385631009191]],[[-117.255287760342,32.738266157256],[-117.255287786393,32.7382751785754],[-117.255298460175,32.7382751566625],[-117.255298433226,32.7382661360988],[-117.255287760342,32.738266157256]],[[-117.255480970891,32.737652354789],[-117.255467457535,32.737652382747],[-117.255467482687,32.7376614033729],[-117.255488829353,32.7376613603024],[-117.255480970891,32.737652354789]],[[-117.255541577529,32.7374447547085],[-117.255530903746,32.7374447766217],[-117.255530930696,32.7374537972685],[-117.255541602681,32.7374537753554],[-117.255541577529,32.7374447547085]],[[-117.255215632811,32.7373010876739],[-117.255220968804,32.7373010770951],[-117.255220957126,32.7372965667641],[-117.255215620234,32.7372965780985],[-117.255215632811,32.7373010876739]],[[-117.255562460664,32.737282339838],[-117.25556240946,32.7372642985086],[-117.255541060997,32.7372643415793],[-117.255551582066,32.7372101956562],[-117.2555302354,32.7372102394825],[-117.25548774868,32.7372824917188],[-117.255524866169,32.7372914375752],[-117.255562460664,32.737282339838]],[[-117.255582210126,32.7367230146141],[-117.255571537242,32.7367230365274],[-117.255571562394,32.7367320572473],[-117.255582236177,32.736732035334],[-117.255582210126,32.7367230146141]],[[-117.255720470729,32.7365513389112],[-117.255720522831,32.7365693803849],[-117.255731195715,32.7365693584715],[-117.25573114541,32.7365513169979],[-117.255720470729,32.7365513389112]],[[-117.255720402457,32.736527341539],[-117.255741637732,32.7364881506534],[-117.255698738686,32.7364160730801],[-117.255688221211,32.7364702179744],[-117.255709668488,32.7365062571243],[-117.255709797845,32.7365513608245],[-117.255720402457,32.736527341539]],[[-117.256232342456,32.7363969411961],[-117.256210996688,32.7363969850229],[-117.256200296855,32.7363879861824],[-117.256200348957,32.7364060276891],[-117.256232342456,32.7363969411961]],[[-117.256231902282,32.7362435905235],[-117.256221230296,32.7362436124369],[-117.256221256347,32.7362526332054],[-117.256231929231,32.736252611292],[-117.256231902282,32.7362435905235]],[[-117.255868993687,32.736235311032],[-117.255868968534,32.7362262902618],[-117.255858292955,32.7362263114196],[-117.255858320803,32.7362353321898],[-117.255868993687,32.736235311032]],[[-117.256146209292,32.7361355157827],[-117.256135511255,32.7361265184271],[-117.256135587612,32.736153579254],[-117.256103594113,32.7361626650162],[-117.256167658366,32.7361715550679],[-117.256146209292,32.7361355157827]],[[-117.256012976559,32.7361989340036],[-117.256050435408,32.7362349400152],[-117.256082467534,32.7362393854155],[-117.256066431708,32.7362303971379],[-117.256076912352,32.7361627209333],[-117.256060812746,32.7361311807002],[-117.255953873701,32.7360592335632],[-117.255884512982,32.7360638852609],[-117.255868541834,32.7360774489329],[-117.255868632564,32.7361090209217],[-117.255890120266,32.7361585913849],[-117.256012976559,32.7361989340036]],[[-117.255943137935,32.7360367035049],[-117.255943086731,32.736018662679],[-117.255975028128,32.7359915345595],[-117.255911015977,32.7360006860786],[-117.255911118385,32.7360367692453],[-117.255943137935,32.7360367035049]],[[-117.256017307337,32.7358471163447],[-117.255963968968,32.7358562459652],[-117.255963994121,32.7358652667729],[-117.256017409745,32.7358831995736],[-117.256017307337,32.7358471163447]],[[-117.255995948993,32.7358429210413],[-117.25599593462,32.7358381393623],[-117.255985262634,32.7358381612758],[-117.255985287787,32.7358471820853],[-117.255995948993,32.7358429210413]],[[-117.256234293597,32.7355580102052],[-117.256229968209,32.7355670393551],[-117.256240641093,32.7355670181971],[-117.25624061594,32.7355579973593],[-117.256234293597,32.7355580102052]],[[-117.25624061594,32.7355579973593],[-117.256261959911,32.7355579535321],[-117.256261934758,32.7355489326933],[-117.256240588991,32.7355489765205],[-117.25624061594,32.7355579973593]],[[-117.256229890954,32.7355399775944],[-117.256219192019,32.7355309786674],[-117.256219243223,32.7355490203477],[-117.256240588991,32.7355489765205],[-117.256229890954,32.7355399775944]],[[-117.25624051982,32.7355252471311],[-117.256240563838,32.7355399556808],[-117.256261883554,32.7355308917687],[-117.256261858401,32.7355218709272],[-117.25624051982,32.7355252471311]],[[-117.256191593977,32.7353867040341],[-117.256186810448,32.7354047548112],[-117.256197483332,32.7354047328976],[-117.256197433026,32.7353866911882],[-117.256191593977,32.7353867040341]],[[-117.256186738582,32.7353791808608],[-117.25617605941,32.7353777141593],[-117.256176087258,32.7353867350154],[-117.256186760142,32.7353867131018],[-117.256186738582,32.7353791808608]],[[-117.256174925737,32.7349808054107],[-117.256174976042,32.7349988464467],[-117.256185650723,32.7349988252886],[-117.25618559862,32.734980783497],[-117.256174925737,32.7349808054107]],[[-117.256084972936,32.7349719681354],[-117.25607884373,32.7349719809814],[-117.256078867985,32.7349810011229],[-117.256089541767,32.7349809792092],[-117.256084972936,32.7349719681354]],[[-117.256089345934,32.7349123930135],[-117.25610003409,32.7349178132631],[-117.256099983784,32.7348997722107],[-117.256089309103,32.7348997941244],[-117.256089345934,32.7349123930135]],[[-117.25606791303,32.7348817961403],[-117.256067964234,32.7348998371963],[-117.256089309103,32.7348997941244],[-117.256089283951,32.734890773219],[-117.25606791303,32.7348817961403]],[[-117.256078559863,32.7348727533193],[-117.256078585016,32.7348817742265],[-117.256089257899,32.7348817523128],[-117.256089232747,32.7348727321612],[-117.256078559863,32.7348727533193]],[[-117.256110578514,32.7348726883337],[-117.256099905631,32.7348727102474],[-117.256099931682,32.734881730399],[-117.256110604566,32.7348817092409],[-117.256110578514,32.7348726883337]],[[-117.256099889461,32.7348673171984],[-117.256089205797,32.7348637112531],[-117.256089232747,32.7348727321612],[-117.256099905631,32.7348727102474],[-117.256099889461,32.7348673171984]],[[-117.2563768203,32.7346698635202],[-117.25639812744,32.7346556021706],[-117.256398049287,32.7346285408889],[-117.256430093091,32.7346374968351],[-117.256440740822,32.7346284539894],[-117.256451285247,32.7345833281579],[-117.256440586312,32.7345743298899],[-117.256376651417,32.7346105436056],[-117.256376728672,32.7346376056485],[-117.256366030635,32.7346286066304],[-117.256323366049,32.7346377144618],[-117.256323415456,32.7346557555673],[-117.256344762122,32.7346557124953],[-117.256355487109,32.7346737309276],[-117.2563768203,32.7346698635202]],[[-117.256471597054,32.7342224574563],[-117.256471623105,32.7342314784294],[-117.256492968873,32.7342314346015],[-117.256492942822,32.7342224136285],[-117.256471597054,32.7342224574563]],[[-117.256503589655,32.7342133714963],[-117.256492942822,32.7342224136285],[-117.256514289488,32.7342223705563],[-117.256514237386,32.7342043286075],[-117.256503589655,32.7342133714963]],[[-117.256556695359,32.7341230559153],[-117.256546023374,32.7341230778292],[-117.256546048526,32.7341320980566],[-117.25655672141,32.7341320761427],[-117.256556695359,32.7341230559153]],[[-117.256578015974,32.7341139911034],[-117.25656734309,32.7341140130174],[-117.256567367345,32.7341230340014],[-117.256578040229,32.7341230120874],[-117.256578015974,32.7341139911034]],[[-117.256587644117,32.7337495094887],[-117.256587628846,32.7337441216612],[-117.25657695686,32.7337441435752],[-117.256576982013,32.7337531645967],[-117.256587644117,32.7337495094887]],[[-117.256864524651,32.7335360779738],[-117.256864474345,32.7335180366418],[-117.256885793164,32.7335089725241],[-117.256875069076,32.7334909523449],[-117.256885482346,32.733400724444],[-117.256853541848,32.7334278518408],[-117.256842973169,32.7334639564519],[-117.256821628299,32.7334640002801],[-117.25677904007,32.7335001706187],[-117.256789765056,32.7335181892847],[-117.256800386736,32.7335001260349],[-117.256821730707,32.7335000822068],[-117.256811109926,32.7335181462122],[-117.256832456592,32.733518102384],[-117.256832507796,32.7335361437161],[-117.256864524651,32.7335360779738]],[[-117.257275025091,32.733395415184],[-117.257275051142,32.7334044362407],[-117.257280388034,32.7334044249059],[-117.257280361982,32.7333954046048],[-117.257275025091,32.733395415184]],[[-117.257408551573,32.7334357341167],[-117.257440412122,32.7333815443063],[-117.257408395267,32.7333816100486],[-117.257397645128,32.7333545702942],[-117.25737629936,32.7333546141225],[-117.257387050397,32.7333816538768],[-117.25737648082,32.7334177585066],[-117.257387204907,32.7334357779449],[-117.257408551573,32.7334357341167]],[[-117.256980865463,32.7331659900145],[-117.256980838514,32.7331569689336],[-117.256970166528,32.7331569908477],[-117.256970191681,32.7331660119286],[-117.256980865463,32.7331659900145]],[[-117.256991511398,32.7331569470194],[-117.256991485347,32.7331479266933],[-117.256980813361,32.7331479486075],[-117.256980838514,32.7331569689336],[-117.256991511398,32.7331569470194]]]}},{"type":"Feature","id":"215481","properties":{"site_id":"sunset-cliffs-reef","source_feature_id":215481,"source_dataset":"California Aquatic Resources Inventory (CARI) v3.3","source_class":"Marine Rocky Shore Natural Intertidal","source_legcode":"RS","source_attributes":{"OBJECTID":215481,"clickcode":"WMNrnIN","clicklabel":"Marine Rocky Shore Natural Intertidal","name":null,"orig_dataset":"Elevation Modeled Polygons via ESI Classification","orig_class":"6B/2A","organization":"San Francisco Estuary Institute (SFEI)","orig_dataset_pubyear":2022,"process_adjustment":null,"source_data":"ESI Classification; NOAA VDatum; USGS Modeled Dune Toe; 2016 El Nino DEM; USGS CoNED Topobathy DEM","source_estimatedyear":2016,"orig_scale":null,"legend_headings":"Estuarine and Marine","legcode":"RS","leglabellevel1":"Rocky Shore","leglabellevel2":"Rocky Shore","major_class":"Wetland","wetland_class":"Marine","anthropogenic_modifier":"Natural","wetland_type":"Rocky","wetland_subtype":"none","tidal_modifier":"Intertidal","vegetation_modifier":"Non-vegetated","salinity_modifier":"Saline","salinity_source":"CARI Marine","salinity_additional_information":"Wetland Mapping classified Marine","lastupdate":1770120526000,"CARI_id":215481,"Shape__Area":1146.92578125,"Shape__Length":298.08927313152566}},"geometry":{"type":"Polygon","coordinates":[[[-117.256616837567,32.7327633691736],[-117.256574062489,32.7327338279818],[-117.256536707844,32.7327339050596],[-117.256547122013,32.7326436763923],[-117.256531112238,32.7326437088859],[-117.256531061034,32.7326256673732],[-117.25646705068,32.732634819238],[-117.256466973425,32.7326077565871],[-117.256520207589,32.7325625450979],[-117.256503926523,32.7324678600897],[-117.256509224786,32.7324543185385],[-117.256551941475,32.7324632520331],[-117.256562562256,32.7324451885696],[-117.256583907126,32.7324451447409],[-117.256594501856,32.7324180608737],[-117.256637115238,32.7323909112552],[-117.256637063136,32.7323728696913],[-117.256669081788,32.7323728047039],[-117.256669029685,32.7323547631364],[-117.256690374555,32.7323547193076],[-117.256690477861,32.7323908024391],[-117.256701050134,32.732355562633],[-117.256775762118,32.7323568729609],[-117.256754488215,32.7323816505492],[-117.256754591521,32.7324177336697],[-117.25677596334,32.732426710241],[-117.256786764683,32.7324717918244],[-117.256755031696,32.7325710848797],[-117.256733711979,32.7325801490928],[-117.256733970694,32.7326703559101],[-117.256755366767,32.7326883535851],[-117.256755444921,32.7327154154559],[-117.25677681674,32.7327243927529],[-117.256776908368,32.7327567178156],[-117.256734203358,32.7327515415142],[-117.256734125204,32.73272448041],[-117.2567052273,32.7327335604765],[-117.256691435465,32.7327245673115],[-117.256680873972,32.7327634946138],[-117.256616837567,32.7327633691736]],[[-117.256669623472,32.7325622382975],[-117.256659106895,32.7326163847774],[-117.256669804932,32.7326253839987],[-117.256648460062,32.7326254270716],[-117.256648537317,32.7326524897171],[-117.256669908238,32.7326614655092],[-117.256659287456,32.7326795289289],[-117.256669985493,32.7326885281438],[-117.256712677029,32.7326884404866],[-117.256701771481,32.7326072767393],[-117.256712288956,32.7325531302539],[-117.256669623472,32.7325622382975]],[[-117.256669611794,32.7325577511522],[-117.256669598319,32.7325532179111],[-117.256658925435,32.7325532405812],[-117.256658951486,32.7325622602118],[-117.256669611794,32.7325577511522]]]}}]}