{"type":"FeatureCollection","properties":{"site_id":"swamis-reef","dataset_name":"California Aquatic Resources Inventory (CARI) v3.3","source_url":"https://www.sfei.org/data/california-aquatic-resource-inventory-cari-gis-data","dataset_date":"2026-02-19","resolution_meters":null,"provenance":"official-gis","outline_kind":"rocky-intertidal","geometry_status":"exploratory","disclaimer":"Static modeled rocky-intertidal habitat context, not a tide-specific waterline, surveyed boundary, navigational chart, safe route, or real-time access condition.","coordinate":{"latitude":33.035518,"longitude":-117.296246},"selection_radius_meters":350.0,"selection_method":"Original CARI Rocky Shore polygons intersecting a local-radius buffer; geometry is selected, not crop-clipped.","simplify_meters":1.0,"source":{"dataset_name":"California Aquatic Resources Inventory (CARI) v3.3","publisher":"San Francisco Estuary Institute","endpoint":"https://services2.arcgis.com/Uq9r85Potqm3MfRV/arcgis/rest/services/biosds2835_fpu/FeatureServer/0/query","dataset_url":"https://www.sfei.org/data/california-aquatic-resource-inventory-cari-gis-data","license":"GPL-3.0-or-later","license_url":"https://www.gnu.org/licenses/gpl-3.0.html","citation":"San Francisco Estuary Institute (SFEI). 2026. California Aquatic Resource Inventory (CARI), version 3.3. Accessed 2026-09-18.","accessed_at":"2026-09-18T16:45:12.968519+00:00"}},"features":[{"type":"Feature","id":"226154","properties":{"site_id":"swamis-reef","source_feature_id":226154,"source_dataset":"California Aquatic Resources Inventory (CARI) v3.3","source_class":"Marine Rocky Shore Natural Intertidal","source_legcode":"RS","source_attributes":{"OBJECTID":226154,"clickcode":"WMNrnIN","clicklabel":"Marine Rocky Shore Natural Intertidal","name":null,"orig_dataset":"Elevation Modeled Polygons via ESI Classification","orig_class":"6A/3A/2A","organization":"San Francisco Estuary Institute (SFEI)","orig_dataset_pubyear":2022,"process_adjustment":null,"source_data":"ESI Classification; NOAA VDatum; USGS Modeled Dune Toe; 2016 El Nino DEM; USGS CoNED Topobathy DEM","source_estimatedyear":2016,"orig_scale":null,"legend_headings":"Estuarine and Marine","legcode":"RS","leglabellevel1":"Rocky Shore","leglabellevel2":"Rocky Shore","major_class":"Wetland","wetland_class":"Marine","anthropogenic_modifier":"Natural","wetland_type":"Rocky","wetland_subtype":"none","tidal_modifier":"Intertidal","vegetation_modifier":"Non-vegetated","salinity_modifier":"Saline","salinity_source":"CARI Marine","salinity_additional_information":"Wetland Mapping classified Marine","lastupdate":1770120526000,"CARI_id":226154,"Shape__Area":25071.3828125,"Shape__Length":1312.786259113505}},"geometry":{"type":"Polygon","coordinates":[[[-117.296430696474,33.0392164422367],[-117.296419775655,33.0391533263703],[-117.296430454827,33.0391442806602],[-117.296419625637,33.0391082250772],[-117.296398176563,33.0390992561743],[-117.296398023849,33.0390541556066],[-117.296354825664,33.0389460143066],[-117.296365428479,33.0389144182527],[-117.296343874302,33.0388738788657],[-117.296311653529,33.0388468945175],[-117.296290236795,33.0388469449725],[-117.296290174811,33.0388289046965],[-117.296311595139,33.0388288534885],[-117.296311503511,33.0388017930676],[-117.296257804918,33.0387568188616],[-117.296225405381,33.0386757135666],[-117.29623605401,33.0386576476516],[-117.296203867373,33.0386396833959],[-117.296203775745,33.0386126229169],[-117.296160757223,33.0385586035972],[-117.296171316021,33.0385134771486],[-117.296149805861,33.038486467086],[-117.296149655843,33.0384413669577],[-117.296128177124,33.0384233770538],[-117.296116953573,33.0382700587041],[-117.29604117439,33.0380266907954],[-117.296008323001,33.0378102820372],[-117.295975954006,33.037738196875],[-117.295943163701,33.0375398287048],[-117.295889165071,33.0374046525595],[-117.295899812802,33.0373865863838],[-117.295856644261,33.0372874663463],[-117.295845635408,33.0371972896903],[-117.295813386787,33.0371612845195],[-117.295780866876,33.0370440987357],[-117.295716250159,33.0369360084367],[-117.295694801983,33.0369270385595],[-117.295694711253,33.0368999783075],[-117.295608617615,33.0367738983441],[-117.295608526885,33.036746837292],[-117.295565538905,33.0367018379385],[-117.295565448176,33.0366747776174],[-117.295533231895,33.0366477925957],[-117.295533141165,33.0366207322579],[-117.295479295248,33.0365306573382],[-117.295457876717,33.0365307070414],[-117.295468525346,33.0365126414395],[-117.295447106815,33.0365126926489],[-117.295447046628,33.0364946526479],[-117.295382580828,33.0364316628551],[-117.295815788882,33.0362592519488],[-117.295842590119,33.0362862483858],[-117.295864007752,33.0362861979294],[-117.295896045268,33.0362590614194],[-117.295895954538,33.0362320009623],[-117.295960178691,33.0362228284346],[-117.295960118504,33.0362047868682],[-117.296013664383,33.0362046603506],[-117.296024281572,33.0361775742719],[-117.296088446436,33.0361503616673],[-117.296131311346,33.0361592796608],[-117.296152821506,33.0361862896839],[-117.296131552993,33.0362314414231],[-117.296088717727,33.036231543089],[-117.296099576562,33.0362766187438],[-117.296078158929,33.0362766699533],[-117.296056831128,33.0363037808531],[-117.296024673237,33.0362948372694],[-117.296003376877,33.0363309693119],[-117.295939091638,33.0363221002859],[-117.295928503196,33.0363582074655],[-117.295907085563,33.0363582579219],[-117.29588581705,33.036403410326],[-117.295896586952,33.0364214247409],[-117.295960871292,33.0364302930038],[-117.295993090268,33.036457277339],[-117.295971762467,33.0364843881833],[-117.296014778294,33.0365384080217],[-117.296036197724,33.0365383575655],[-117.296047026915,33.0365744126941],[-117.296068446344,33.0365743614847],[-117.296100784796,33.0366374272364],[-117.296100964459,33.0366915486465],[-117.296122383889,33.0366914974372],[-117.296133213978,33.0367275525031],[-117.296154661255,33.0367365216475],[-117.296208660784,33.0368716988179],[-117.296230108959,33.0368806679476],[-117.296251677509,33.0369257176658],[-117.296305253033,33.0369346107294],[-117.296316264582,33.0370247876543],[-117.296337711859,33.0370337567684],[-117.296348573389,33.0370788327658],[-117.296370051209,33.0370968221912],[-117.296359524751,33.0371509681704],[-117.296402422001,33.0371689071251],[-117.296434911369,33.0372770731987],[-117.296477867908,33.0373130527178],[-117.296489333106,33.0375385326715],[-117.296521520641,33.0375564963986],[-117.296532382171,33.0376015713756],[-117.296564601147,33.0376285553521],[-117.296553982162,33.0376556417377],[-117.296596939599,33.0376916211023],[-117.296608162252,33.0378449389525],[-117.296651090044,33.0378718980032],[-117.296672659493,33.0379169479677],[-117.296672751121,33.0379440086603],[-117.296651391878,33.037962100326],[-117.296683521023,33.0379620227602],[-117.296662222866,33.037998155625],[-117.296683671041,33.03800712464],[-117.296705724681,33.0381964979121],[-117.296727174654,33.0382054669069],[-117.296705815411,33.0382235585189],[-117.296706027414,33.0382866991495],[-117.296759603836,33.0382955928288],[-117.296759725108,33.0383316728424],[-117.296727595964,33.0383317496549],[-117.296716978775,33.0383588358243],[-117.296727898696,33.0384219515068],[-117.296770766301,33.0384308700235],[-117.296770827387,33.038448910381],[-117.296749439398,33.0384579810136],[-117.296749559772,33.0384940624668],[-117.296781717663,33.0385030065803],[-117.296803619488,33.0386472780104],[-117.296846609264,33.0386922778764],[-117.296846911996,33.0387824801122],[-117.296900549504,33.0388094125191],[-117.296900761506,33.0388725542359],[-117.296943659654,33.03889049284],[-117.296933131399,33.038944639223],[-117.296965320731,33.0389626034164],[-117.296954700847,33.0389896893919],[-117.296997599894,33.0390076279722],[-117.29698707074,33.0390617750362],[-117.296997871185,33.0390888097734],[-117.297040648959,33.0390706671312],[-117.297030091059,33.0391157940474],[-117.297051509591,33.0391157428396],[-117.296430696474,33.0392164422367]]]}},{"type":"Feature","id":"226159","properties":{"site_id":"swamis-reef","source_feature_id":226159,"source_dataset":"California Aquatic Resources Inventory (CARI) v3.3","source_class":"Marine Rocky Shore Natural Intertidal","source_legcode":"RS","source_attributes":{"OBJECTID":226159,"clickcode":"WMNrnIN","clicklabel":"Marine Rocky Shore Natural Intertidal","name":null,"orig_dataset":"Elevation Modeled Polygons via ESI Classification","orig_class":"2A","organization":"San Francisco Estuary Institute (SFEI)","orig_dataset_pubyear":2022,"process_adjustment":null,"source_data":"ESI Classification; NOAA VDatum; USGS Modeled Dune Toe; 2016 El Nino DEM; USGS CoNED Topobathy DEM","source_estimatedyear":2016,"orig_scale":null,"legend_headings":"Estuarine and Marine","legcode":"RS","leglabellevel1":"Rocky Shore","leglabellevel2":"Rocky Shore","major_class":"Wetland","wetland_class":"Marine","anthropogenic_modifier":"Natural","wetland_type":"Rocky","wetland_subtype":"none","tidal_modifier":"Intertidal","vegetation_modifier":"Non-vegetated","salinity_modifier":"Saline","salinity_source":"CARI Marine","salinity_additional_information":"Wetland Mapping classified Marine","lastupdate":1770120526000,"CARI_id":226159,"Shape__Area":17913.51171875,"Shape__Length":968.1157189558413}},"geometry":{"type":"Polygon","coordinates":[[[-117.293330181932,33.0343347795992],[-117.293383666726,33.0343166133851],[-117.293373077385,33.0343527183742],[-117.293351689397,33.0343617894284],[-117.293351779228,33.0343888504599],[-117.293383935322,33.0343977957433],[-117.293383816745,33.0343617141187],[-117.29340517419,33.0343436232199],[-117.293415927024,33.034356681171],[-117.293405293666,33.0343797040988],[-117.293426741842,33.0343886742353],[-117.293480105363,33.0343344271496],[-117.293458987768,33.034424679033],[-117.293512501307,33.0344155334287],[-117.293512680072,33.0344696546974],[-117.293566225053,33.0344695281772],[-117.293566314884,33.0344965891757],[-117.293609120506,33.034487468431],[-117.293609180693,33.0345055088428],[-117.293577143177,33.0345326451398],[-117.293619948798,33.0345235236458],[-117.293673762376,33.0346045792934],[-117.293727307356,33.0346044542796],[-117.29379173902,33.0346584233071],[-117.293791800106,33.034676463684],[-117.293888270184,33.0347032979376],[-117.293909897124,33.0347663891275],[-117.293942112507,33.0347933732193],[-117.29396347175,33.0347752831622],[-117.294027724649,33.0347751310373],[-117.294049202469,33.0347931216861],[-117.294124133642,33.0347839241566],[-117.29416709018,33.0348199046938],[-117.294188897682,33.0349371167818],[-117.294248266441,33.0349369774598],[-117.29401241556,33.035181079882],[-117.294002269987,33.0351720842211],[-117.293975528039,33.0351811672404],[-117.29394331086,33.0351541825143],[-117.293841516467,33.035136380965],[-117.293820038647,33.0351183911393],[-117.293729058173,33.0351321357942],[-117.293627248508,33.0351098254868],[-117.293632571925,33.0351007921641],[-117.293525454115,33.0350920239285],[-117.293461110487,33.0350651144842],[-117.293466434801,33.03505608191],[-117.293445031541,33.0350606426296],[-117.293418185389,33.0350381545746],[-117.293380687912,33.0350337324226],[-117.293380643895,33.0350202016304],[-117.293343147317,33.0350157802306],[-117.293209002794,33.0349304029654],[-117.293192953493,33.0349349508889],[-117.293192908577,33.0349214208346],[-117.293155383253,33.0349079781368],[-117.293160677923,33.0348899257579],[-117.29304271655,33.0348405906532],[-117.293026577417,33.0348180776899],[-117.292951511497,33.0347866827378],[-117.292956835812,33.0347776508882],[-117.292908630417,33.0347732528221],[-117.292892507454,33.0347552508729],[-117.292849642544,33.034746331231],[-117.292849595832,33.0347328003946],[-117.292828194368,33.034737361884],[-117.292817410992,33.0347148360918],[-117.292785284542,33.0347149106481],[-117.292779810209,33.034678842709],[-117.292752947887,33.0346518450265],[-117.292693989658,33.0346339424609],[-117.292586945511,33.0346477255992],[-117.292554670839,33.0346026988153],[-117.292474383911,33.0346119054008],[-117.292426120125,33.034589469948],[-117.292420690708,33.0345669313153],[-117.292324236799,33.034544606556],[-117.292281103292,33.0344545054147],[-117.292216820749,33.0344456354467],[-117.292200683413,33.0344231223825],[-117.292104184589,33.0343872674504],[-117.292002135972,33.0342921015668],[-117.292643008469,33.0337895498018],[-117.292664475509,33.0338041464221],[-117.292664415322,33.0337861051135],[-117.292685832955,33.0337860554087],[-117.292675332548,33.0338492218125],[-117.292739645634,33.0338671117348],[-117.292750444282,33.0338941473129],[-117.292782569833,33.0338940720027],[-117.292761271676,33.0339302035235],[-117.292836322325,33.0339570869559],[-117.292868538606,33.0339840728017],[-117.292868597895,33.0340021133166],[-117.292890015528,33.0340020628589],[-117.292933000812,33.0340470635913],[-117.292954418445,33.0340470138867],[-117.292954537023,33.034083094134],[-117.292986694015,33.0340920386953],[-117.292997492663,33.0341190749574],[-117.29302958857,33.0341099790259],[-117.293019028874,33.0341551054706],[-117.29306186414,33.0341550045554],[-117.293072633144,33.03417301943],[-117.29310472905,33.0341639235041],[-117.293115587886,33.0342090002167],[-117.293158452796,33.0342179191599],[-117.293169281088,33.034253975238],[-117.293212116354,33.0342538743229],[-117.29322288446,33.0342718899304],[-117.293244302991,33.0342718394728],[-117.293223004834,33.0343079700856],[-117.293244391924,33.0342988997789],[-117.293276548916,33.0343078450714],[-117.293265958678,33.0343439508172],[-117.293308764299,33.0343348293036],[-117.293308645722,33.0342987491594],[-117.293340772171,33.0342986738496],[-117.293330181932,33.0343347795992]],[[-117.293321633564,33.0343347991797],[-117.293319533303,33.0343528448945],[-117.293330242119,33.0343528200423],[-117.293330181932,33.0343347795992],[-117.293321633564,33.0343347991797]]]}},{"type":"Feature","id":"226160","properties":{"site_id":"swamis-reef","source_feature_id":226160,"source_dataset":"California Aquatic Resources Inventory (CARI) v3.3","source_class":"Marine Rocky Shore Natural Intertidal","source_legcode":"RS","source_attributes":{"OBJECTID":226160,"clickcode":"WMNrnIN","clicklabel":"Marine Rocky Shore Natural Intertidal","name":null,"orig_dataset":"Elevation Modeled Polygons via ESI Classification","orig_class":"6B/3A/2A","organization":"San Francisco Estuary Institute (SFEI)","orig_dataset_pubyear":2022,"process_adjustment":null,"source_data":"ESI Classification; NOAA VDatum; USGS Modeled Dune Toe; 2016 El Nino DEM; USGS CoNED Topobathy DEM","source_estimatedyear":2016,"orig_scale":null,"legend_headings":"Estuarine and Marine","legcode":"RS","leglabellevel1":"Rocky Shore","leglabellevel2":"Rocky Shore","major_class":"Wetland","wetland_class":"Marine","anthropogenic_modifier":"Natural","wetland_type":"Rocky","wetland_subtype":"none","tidal_modifier":"Intertidal","vegetation_modifier":"Non-vegetated","salinity_modifier":"Saline","salinity_source":"CARI Marine","salinity_additional_information":"Wetland Mapping classified Marine","lastupdate":1770120526000,"CARI_id":226160,"Shape__Area":8645.2421875,"Shape__Length":602.552274514681}},"geometry":{"type":"Polygon","coordinates":[[[-117.294490810669,33.0355137017997],[-117.294789496908,33.0352063083944],[-117.294854081285,33.035305378057],[-117.294854171117,33.0353324387987],[-117.294875619293,33.0353414080851],[-117.294918696205,33.0354134688503],[-117.294918785139,33.0354405295589],[-117.294950942131,33.0354494732293],[-117.29498315931,33.035476458618],[-117.294983219497,33.0354944988274],[-117.295101288668,33.0355754022114],[-117.295101379398,33.0356024628702],[-117.295144425768,33.0356655029595],[-117.295165843401,33.0356654517497],[-117.295208829584,33.0357104523856],[-117.295294592643,33.0357373096699],[-117.295326959841,33.0358093957162],[-117.295359117731,33.0358183393491],[-117.295369885837,33.0358363546367],[-117.295466298423,33.035845146897],[-117.295498363787,33.0358270306979],[-117.295562617584,33.0358268778218],[-117.295541441598,33.0358990903128],[-117.295648651934,33.0359349167656],[-117.295670251027,33.0359889881506],[-117.295734655741,33.0360339366585],[-117.295734806658,33.0360790372662],[-117.295702739497,33.0360971549197],[-117.295702830227,33.0361242154182],[-117.295745726578,33.0361421538289],[-117.295745937682,33.0362052959511],[-117.295815788882,33.0362592519488],[-117.295382579032,33.0364308758872],[-117.295339475169,33.0363505825305],[-117.295296548275,33.0363236230142],[-117.295253471362,33.0362515629934],[-117.295189096292,33.0362156334973],[-117.295178267102,33.0361795789749],[-117.295146170297,33.0361886746928],[-117.295146049024,33.0361525945546],[-117.295124632289,33.036152644258],[-117.295103093384,33.0361166145616],[-117.295081705395,33.0361256854342],[-117.295070876204,33.036089630122],[-117.295038718314,33.0360806857635],[-117.295017150662,33.0360356356132],[-117.294995732131,33.0360356853167],[-117.294963514951,33.0360087008523],[-117.294963454764,33.0359906607482],[-117.294942036233,33.0359907119579],[-117.294856124054,33.0359187518249],[-117.294856064765,33.0359007117025],[-117.294813137871,33.0358737528016],[-117.29481304804,33.0358466922261],[-117.294748643325,33.0358017428695],[-117.294748584037,33.035783702723],[-117.294727165505,33.0357837524266],[-117.294716336315,33.0357476969745],[-117.29468414878,33.0357297328786],[-117.294641103308,33.0356666920821],[-117.294619684776,33.035666743292],[-117.294598086582,33.0356126717092],[-117.294490810669,33.0355137017997]]]}},{"type":"Feature","id":"226221","properties":{"site_id":"swamis-reef","source_feature_id":226221,"source_dataset":"California Aquatic Resources Inventory (CARI) v3.3","source_class":"Marine Rocky Shore Unnatural Intertidal","source_legcode":"RS","source_attributes":{"OBJECTID":226221,"clickcode":"WMUrnIN","clicklabel":"Marine Rocky Shore Unnatural Intertidal","name":null,"orig_dataset":"Elevation Modeled Polygons via ESI Classification","orig_class":"6B","organization":"San Francisco Estuary Institute (SFEI)","orig_dataset_pubyear":2022,"process_adjustment":null,"source_data":"ESI Classification; NOAA VDatum; USGS Modeled Dune Toe; 2016 El Nino DEM; USGS CoNED Topobathy DEM","source_estimatedyear":2016,"orig_scale":null,"legend_headings":"Estuarine and Marine","legcode":"RS","leglabellevel1":"Rocky Shore","leglabellevel2":"Rocky Shore","major_class":"Wetland","wetland_class":"Marine","anthropogenic_modifier":"Unnatural","wetland_type":"Rocky","wetland_subtype":"none","tidal_modifier":"Intertidal","vegetation_modifier":"Non-vegetated","salinity_modifier":"Saline","salinity_source":"CARI Marine","salinity_additional_information":"Wetland Mapping classified Marine","lastupdate":1770120526000,"CARI_id":226221,"Shape__Area":3319.3515625,"Shape__Length":299.1087823334424}},"geometry":{"type":"Polygon","coordinates":[[[-117.29401241556,33.035181079882],[-117.294248266441,33.0349369774598],[-117.29427453857,33.0349278944153],[-117.294360360019,33.0349727937605],[-117.294381987857,33.0350358847575],[-117.294424823123,33.0350357830902],[-117.294457069947,33.0350717883766],[-117.294510644572,33.0350806816273],[-117.294542861752,33.035107667129],[-117.294564248842,33.0350985961516],[-117.294660659632,33.0351073884854],[-117.294682167994,33.035134399584],[-117.294725032905,33.0351433176805],[-117.294746570912,33.0351793477749],[-117.294787804482,33.0352063114067],[-117.294469322968,33.0355359427207],[-117.294447830774,33.0355138042195],[-117.294426413141,33.0355138546764],[-117.294426352954,33.035495814471],[-117.29437805683,33.0354643565009],[-117.294340381487,33.03540581371],[-117.294308255037,33.0354058897719],[-117.294206159708,33.0352978870807],[-117.294168648757,33.0352889554443],[-117.294168587672,33.0352709151929],[-117.294152524896,33.0352709528473],[-117.29412563293,33.0352349348398],[-117.294082766223,33.0352260159996],[-117.294034471895,33.0351945586863],[-117.294034426979,33.0351810279188],[-117.29401241556,33.035181079882]]]}}]}