{"type":"FeatureCollection","properties":{"site_id":"white-point","dataset_name":"California Aquatic Resources Inventory (CARI) v3.3","source_url":"https://www.sfei.org/data/california-aquatic-resource-inventory-cari-gis-data","dataset_date":"2026-02-19","resolution_meters":null,"provenance":"official-gis","outline_kind":"rocky-intertidal","geometry_status":"exploratory","disclaimer":"Static modeled rocky-intertidal habitat context, not a tide-specific waterline, surveyed boundary, navigational chart, safe route, or real-time access condition.","coordinate":{"latitude":33.714668,"longitude":-118.31529},"selection_radius_meters":350.0,"selection_method":"Original CARI Rocky Shore polygons intersecting a local-radius buffer; geometry is selected, not crop-clipped.","simplify_meters":1.0,"source":{"dataset_name":"California Aquatic Resources Inventory (CARI) v3.3","publisher":"San Francisco Estuary Institute","endpoint":"https://services2.arcgis.com/Uq9r85Potqm3MfRV/arcgis/rest/services/biosds2835_fpu/FeatureServer/0/query","dataset_url":"https://www.sfei.org/data/california-aquatic-resource-inventory-cari-gis-data","license":"GPL-3.0-or-later","license_url":"https://www.gnu.org/licenses/gpl-3.0.html","citation":"San Francisco Estuary Institute (SFEI). 2026. California Aquatic Resource Inventory (CARI), version 3.3. Accessed 2026-10-04.","accessed_at":"2026-10-04T17:17:51.595980+00:00"}},"features":[{"type":"Feature","id":"185679","properties":{"site_id":"white-point","source_feature_id":185679,"source_dataset":"California Aquatic Resources Inventory (CARI) v3.3","source_class":"Marine Rocky Shore Natural Intertidal","source_legcode":"RS","source_attributes":{"OBJECTID":185679,"clickcode":"WMNrnIN","clicklabel":"Marine Rocky Shore Natural Intertidal","name":null,"orig_dataset":"Elevation Modeled Polygons via ESI Classification","orig_class":"2A","organization":"San Francisco Estuary Institute (SFEI)","orig_dataset_pubyear":2022,"process_adjustment":null,"source_data":"ESI Classification; NOAA VDatum; USGS Modeled Dune Toe; 2016 El Nino DEM; USGS CoNED Topobathy DEM","source_estimatedyear":2016,"orig_scale":null,"legend_headings":"Estuarine and Marine","legcode":"RS","leglabellevel1":"Rocky Shore","leglabellevel2":"Rocky Shore","major_class":"Wetland","wetland_class":"Marine","anthropogenic_modifier":"Natural","wetland_type":"Rocky","wetland_subtype":"none","tidal_modifier":"Intertidal","vegetation_modifier":"Non-vegetated","salinity_modifier":"Saline","salinity_source":"CARI Marine","salinity_additional_information":"Wetland Mapping classified Marine","lastupdate":1770120526000,"CARI_id":185679,"Shape__Area":8570.5234375,"Shape__Length":879.2619931692063}},"geometry":{"type":"Polygon","coordinates":[[[-118.317463593679,33.7144766384704],[-118.317368299495,33.7142431777374],[-118.317290843158,33.7141177455903],[-118.317290568274,33.7140997118365],[-118.317322730656,33.7140858401755],[-118.317332280645,33.7140045724023],[-118.317277712484,33.7139645728899],[-118.317261802422,33.7139827792834],[-118.317159162714,33.7139748548511],[-118.317138065779,33.7140066444857],[-118.317160402389,33.7140560075783],[-118.31710167862,33.7140972168207],[-118.316983473804,33.7141300420765],[-118.316972889853,33.714143682835],[-118.316843757031,33.7141676055296],[-118.316790221932,33.71419523076],[-118.316790496816,33.7142132659881],[-118.316651055826,33.7142688631268],[-118.316591603524,33.7142785151343],[-118.317067852558,33.7136487838189],[-118.317089467821,33.7136509358654],[-118.317078264931,33.713624000161],[-118.317143278703,33.7136413443136],[-118.317154343252,33.7136592615945],[-118.317337905896,33.7136663229957],[-118.317381478679,33.7136929119683],[-118.31744621577,33.713692223015],[-118.317522983997,33.713772568993],[-118.317652598316,33.7137802042631],[-118.317706959866,33.7138066803677],[-118.317749429517,33.7137611340203],[-118.317726747955,33.7136892303268],[-118.317747776617,33.7136529317389],[-118.317801450057,33.7136343225139],[-118.317801035934,33.7136072717296],[-118.317779457502,33.7136075018792],[-118.317778767596,33.7135624172198],[-118.317757050824,33.7135536304348],[-118.317756362715,33.7135085457472],[-118.317723855379,33.7134998747788],[-118.317713340599,33.7135180229862],[-118.317691486385,33.7135002192563],[-118.31761582039,33.7134920070922],[-118.317475693087,33.7135025215016],[-118.317464214415,33.7134575503676],[-118.31767987027,33.7134462319224],[-118.317777114696,33.7134542124464],[-118.317928859012,33.7134976853666],[-118.317961641232,33.7135243924553],[-118.31797353313,33.7135964121088],[-118.318038408561,33.7136047385904],[-118.318060815239,33.7136586100027],[-118.318082532011,33.713667396777],[-118.31810590348,33.7137843865496],[-118.3181386857,33.7138110913074],[-118.318150164372,33.713856061509],[-118.318128997369,33.7138833423637],[-118.318053469715,33.7138841478844],[-118.318020687495,33.7138574424021],[-118.317966600831,33.7138490016178],[-118.317902000283,33.7138587097153],[-118.317892081984,33.7139158389173],[-118.317458336738,33.7144857135921],[-118.317463593679,33.7144766384704]],[[-118.317912239281,33.7138225270207],[-118.317910586381,33.7137143225751],[-118.317888731268,33.7136965203804],[-118.317813341057,33.7137063428225],[-118.317792036611,33.713724606808],[-118.317792588177,33.7137606752165],[-118.317835884279,33.713769231084],[-118.317890798292,33.7138317740761],[-118.317912239281,33.7138225270207]]]}},{"type":"Feature","id":"185682","properties":{"site_id":"white-point","source_feature_id":185682,"source_dataset":"California Aquatic Resources Inventory (CARI) v3.3","source_class":"Marine Rocky Shore Natural Intertidal","source_legcode":"RS","source_attributes":{"OBJECTID":185682,"clickcode":"WMNrnIN","clicklabel":"Marine Rocky Shore Natural Intertidal","name":null,"orig_dataset":"Elevation Modeled Polygons via ESI Classification","orig_class":"5/2A","organization":"San Francisco Estuary Institute (SFEI)","orig_dataset_pubyear":2022,"process_adjustment":null,"source_data":"ESI Classification; NOAA VDatum; USGS Modeled Dune Toe; 2016 El Nino DEM; USGS CoNED Topobathy DEM","source_estimatedyear":2016,"orig_scale":null,"legend_headings":"Estuarine and Marine","legcode":"RS","leglabellevel1":"Rocky Shore","leglabellevel2":"Rocky Shore","major_class":"Wetland","wetland_class":"Marine","anthropogenic_modifier":"Natural","wetland_type":"Rocky","wetland_subtype":"none","tidal_modifier":"Intertidal","vegetation_modifier":"Non-vegetated","salinity_modifier":"Saline","salinity_source":"CARI Marine","salinity_additional_information":"Wetland Mapping classified Marine","lastupdate":1770120526000,"CARI_id":185682,"Shape__Area":24189.5546875,"Shape__Length":2546.28187138452}},"geometry":{"type":"Polygon","coordinates":[[[-118.318928918384,33.7146774401667],[-118.318896824273,33.7146958205135],[-118.318852489719,33.7146193729506],[-118.318960229163,33.714607838709],[-118.318992829923,33.714622647312],[-118.319015374942,33.7146855356496],[-118.319059085167,33.7147211426142],[-118.319124100735,33.7147384843035],[-118.319135166183,33.714756403597],[-118.319167536076,33.7147560576301],[-118.319178049958,33.7147379089372],[-118.319242788846,33.7147372170033],[-118.319265332966,33.714800105257],[-118.319287051535,33.7148088911673],[-118.319330210194,33.7148084301274],[-118.319351237958,33.7147721312655],[-118.319426904851,33.7147803418127],[-118.319437832857,33.7147892435453],[-118.31942787054,33.714843460181],[-118.319449725653,33.7148612636324],[-118.319395914771,33.7148708572896],[-118.319385676671,33.7149070395423],[-118.319429664476,33.7149606807389],[-118.319472823135,33.7149602196999],[-118.319504778905,33.7149328226199],[-118.319537148798,33.7149324774009],[-118.319515431128,33.7149236907561],[-118.319482095546,33.7148609184132],[-118.319525116763,33.7148514405752],[-118.319524289415,33.7147973382705],[-118.319556659308,33.7147969923038],[-118.319589442426,33.7148236974938],[-118.319600921997,33.7148686671651],[-118.319622638769,33.7148774538156],[-118.319601197779,33.7148867022518],[-118.319601749345,33.7149227679304],[-118.319623329573,33.7149225377844],[-118.319633567672,33.714886354791],[-118.319655146104,33.7148861246449],[-118.31968793012,33.7149128298072],[-118.319688205903,33.7149308633902],[-118.319731641243,33.7149484359302],[-118.319731917026,33.7149664695057],[-118.319699884002,33.7149888153228],[-118.319710750922,33.7149937515021],[-118.319700927844,33.7150569855336],[-118.319722782956,33.7150747881935],[-118.319734953332,33.7151648423221],[-118.319778663557,33.7152004490878],[-118.319781717829,33.7152472081643],[-118.319933586113,33.7154513092884],[-118.319944928241,33.7154872604048],[-118.319988640263,33.7155228677841],[-118.320011736847,33.7156218230891],[-118.320044521762,33.7156485280227],[-118.320044797545,33.7156665614511],[-118.320001361306,33.715648989058],[-118.319978402164,33.7155590512566],[-118.319934827584,33.7155324613673],[-118.319929019078,33.7155054687172],[-118.319847405337,33.7154612480964],[-118.319814208096,33.7154074928875],[-118.319759982192,33.7153900355137],[-118.319747951056,33.7153089983726],[-118.319731489428,33.7152911374778],[-118.319704928042,33.7153184761601],[-118.31968321127,33.7153096895547],[-118.319651530385,33.7153551200084],[-118.319685142648,33.7154359269613],[-118.31965733979,33.715382113453],[-118.319635622119,33.7153733268542],[-118.31966156277,33.7153054116978],[-118.319639568418,33.7152785923323],[-118.31965001313,33.7152559342509],[-118.319626639865,33.7151389449888],[-118.319636947134,33.7151072693518],[-118.319658733975,33.7151205647368],[-118.319669109517,33.7150933986007],[-118.319690552302,33.715084150934],[-118.319668833734,33.7150753643047],[-118.319689930668,33.7150435750659],[-118.319678381927,33.7149940967208],[-118.319688481686,33.7149488969693],[-118.319660886338,33.7149086087198],[-118.319644770562,33.7149132900993],[-118.319629275522,33.7149585481532],[-118.319652373004,33.7150575041085],[-118.319636326399,33.7150666934945],[-118.319625260053,33.7150487750129],[-118.319614608728,33.7150579076107],[-118.319614816239,33.715071433149],[-118.319647323574,33.7150801039587],[-118.319615021953,33.7150849586852],[-118.319604025676,33.7150715482218],[-118.319606508619,33.7152338522736],[-118.319590530285,33.7152475511403],[-118.319596408861,33.7152790526223],[-118.319574897803,33.7152837922651],[-118.319580568867,33.7153017674866],[-118.319602148197,33.7153015373416],[-118.319608440896,33.7153600897917],[-118.319576277615,33.7153739619941],[-118.319576691738,33.7154010122218],[-118.319603872962,33.715414249278],[-118.319637415157,33.7154905481832],[-118.319686659902,33.715535113258],[-118.319724424178,33.7155347097582],[-118.319741506542,33.7155931469771],[-118.319774083946,33.7156063264677],[-118.319796353182,33.715651180657],[-118.319839788522,33.7156687530497],[-118.31990590812,33.7157582304486],[-118.319922024795,33.7157535491152],[-118.319916973568,33.7157761487822],[-118.319993056381,33.7158114093318],[-118.320091406633,33.7158915239307],[-118.320123639084,33.715882160531],[-118.320123224961,33.7158551097076],[-118.320144943529,33.7158638970043],[-118.320134567988,33.7158910628966],[-118.320253049486,33.7158762687096],[-118.320275251348,33.7159166132937],[-118.320232367573,33.7159351091941],[-118.320269994407,33.7159256890106],[-118.320291849519,33.7159434914902],[-118.320318686688,33.7159341863793],[-118.3203074829,33.715907250644],[-118.320317996782,33.7158891021944],[-118.320339713554,33.7158978879932],[-118.320350089994,33.7158707221031],[-118.320317720101,33.7158710673183],[-118.320327957302,33.7158348839773],[-118.32030624053,33.715826098172],[-118.320305963849,33.7158080647771],[-118.320327405737,33.7157988171873],[-118.320284246179,33.7157992782219],[-118.320273179833,33.7157813598931],[-118.320273594854,33.7158084107397],[-118.320252014626,33.7158086408834],[-118.320251463061,33.7157725733352],[-118.320235277216,33.7157727466902],[-118.320230158615,33.7157908383757],[-118.320154629165,33.715791645373],[-118.320154904947,33.7158096795185],[-118.320117278113,33.7158191004621],[-118.320105729372,33.7157696218166],[-118.320121223514,33.7157243649375],[-118.320088716179,33.7157156941929],[-118.32005572555,33.7156754638391],[-118.320088095443,33.7156751178759],[-118.320120878561,33.7157018220457],[-118.320143425376,33.7157647103402],[-118.320261976044,33.7157544248571],[-118.320338195401,33.7157987021155],[-118.320370565294,33.7157983554056],[-118.320392697986,33.7158341927994],[-118.320435641948,33.715851769638],[-118.32043255354,33.7159122562619],[-118.320362812833,33.7159968436132],[-118.320233471602,33.716007244886],[-118.320179107358,33.7159807709543],[-118.320114367572,33.715981462131],[-118.320050456033,33.7160362563603],[-118.320040217933,33.7160724388692],[-118.319928019253,33.7162004759452],[-118.319870437243,33.71632918906],[-118.319909545399,33.7165695042832],[-118.319736978135,33.716707681029],[-118.319724728707,33.7166124062502],[-118.31970826708,33.7165945463738],[-118.319734551785,33.716549172617],[-118.319718229396,33.7165403286022],[-118.319722728159,33.7164816611389],[-118.319706542314,33.7164818344924],[-118.319710971907,33.7164186575513],[-118.319683306491,33.7163738620457],[-118.319688425092,33.716355770483],[-118.319699284825,33.7163601633587],[-118.319707935601,33.7162202853901],[-118.319691681485,33.7162159500429],[-118.319674185896,33.7161304617641],[-118.319646797161,33.7161036994447],[-118.319613047456,33.7160138756967],[-118.31952022903,33.7159427203609],[-118.319486962618,33.7158844559875],[-118.31944373389,33.7158804090498],[-118.319416207713,33.7158446292112],[-118.319394628383,33.7158448593547],[-118.319359981261,33.7156964263664],[-118.319208095909,33.7156439378443],[-118.319120741934,33.7155772326537],[-118.319028337631,33.7155331278894],[-118.318595776364,33.715474618149],[-118.318508905683,33.7154394717862],[-118.318487462897,33.7154487194146],[-118.318465608683,33.715430916085],[-118.318444165897,33.7154401629672],[-118.318303276823,33.7154010847024],[-118.318248983545,33.7153791185821],[-118.318248776034,33.7153655930923],[-118.318232729428,33.7153747824452],[-118.318237779757,33.7153521826727],[-118.318216061188,33.7153433953236],[-118.318205409864,33.71535252789],[-118.318183553853,33.7153347245405],[-118.318204031848,33.7152623581385],[-118.31818245162,33.7152625882836],[-118.318182245906,33.7152490627753],[-118.318171731126,33.7152672128547],[-118.31813922379,33.7152585413166],[-118.318106096618,33.7152092932407],[-118.318019846672,33.7152147233229],[-118.318024965273,33.7151966322632],[-118.318003315874,33.7151923536535],[-118.318003523385,33.7152058791706],[-118.317976410433,33.7151971500901],[-118.317796930633,33.7151043716106],[-118.317796724919,33.7150908460774],[-118.31777507552,33.7150865682096],[-118.317692981181,33.7150107875207],[-118.317681708223,33.7149793427295],[-118.317660059723,33.7149750648562],[-118.317582534216,33.7148451250049],[-118.317582120092,33.7148180738548],[-118.317603425436,33.7147998101018],[-118.31757071059,33.7147776129341],[-118.317580812145,33.7147324130687],[-118.317553217696,33.7146921247176],[-118.317590155522,33.7146376203029],[-118.317568162069,33.7146107992343],[-118.317594930967,33.7145969859398],[-118.31757874602,33.7145971592971],[-118.317578126183,33.7145565831989],[-118.317562079577,33.7145657726385],[-118.317556408512,33.7145477957684],[-118.317540292736,33.7145524771675],[-118.317528952404,33.7145165249124],[-118.317545206521,33.7145208603454],[-118.317539467184,33.7144983754216],[-118.317561114786,33.7145026533188],[-118.317566165114,33.7144800540638],[-118.317517197948,33.7144535206301],[-118.317516853894,33.7144309781519],[-118.317538570666,33.7144397655944],[-118.317532436969,33.7143914002769],[-118.317892081984,33.7139158381702],[-118.317892864417,33.7139670268115],[-118.317925508296,33.7139847153704],[-118.317937814317,33.7140837875222],[-118.31789493144,33.7141022815757],[-118.317862149221,33.7140755761612],[-118.317862424105,33.71409360992],[-118.317895206325,33.7141203153288],[-118.317852598333,33.7141568438672],[-118.317853149898,33.7141929113468],[-118.317971289138,33.7142637983817],[-118.317967684199,33.7143179466037],[-118.317846337974,33.7143819604959],[-118.317703144721,33.7144232532718],[-118.317746059937,33.7147042141391],[-118.317810572449,33.7148893870404],[-118.318201498599,33.7151728525754],[-118.318401056645,33.7152548253699],[-118.31863966715,33.7151677617307],[-118.31865221931,33.714887819357],[-118.318673271329,33.7148966127306],[-118.318694714114,33.7148873650426],[-118.318715741879,33.7148510669612],[-118.318703434959,33.7147519956947],[-118.31872446452,33.7147156975561],[-118.318756833515,33.7147153515891],[-118.318778687729,33.714733155067],[-118.318768312187,33.7147603213171],[-118.318779240193,33.7147692230518],[-118.318833327756,33.7147776637457],[-118.318887000298,33.7147590540172],[-118.318886448732,33.7147229860281],[-118.318929194166,33.7146954737991],[-118.318928918384,33.7146774401667]],[[-118.319564467464,33.7149547313178],[-118.319570207699,33.7149772161221],[-118.319591717858,33.7149724764625],[-118.319579549279,33.7148824228793],[-118.319558038222,33.7148871617967],[-118.319564467464,33.7149547313178]],[[-118.319443626092,33.715167955262],[-118.31945482988,33.715194890482],[-118.319492594156,33.7151944869806],[-118.319486234084,33.7151314264066],[-118.319453864191,33.7151317716248],[-118.319443626092,33.715167955262]],[[-118.318939708049,33.7146773250934],[-118.318939570606,33.7146683082758],[-118.318928780941,33.7146684233491],[-118.318928918384,33.7146774401667],[-118.318939708049,33.7146773250934]]]}},{"type":"Feature","id":"185945","properties":{"site_id":"white-point","source_feature_id":185945,"source_dataset":"California Aquatic Resources Inventory (CARI) v3.3","source_class":"Marine Rocky Shore Natural Intertidal","source_legcode":"RS","source_attributes":{"OBJECTID":185945,"clickcode":"WMNrnIN","clicklabel":"Marine Rocky Shore Natural Intertidal","name":null,"orig_dataset":"Elevation Modeled Polygons via ESI Classification","orig_class":"6A/2A","organization":"San Francisco Estuary Institute (SFEI)","orig_dataset_pubyear":2022,"process_adjustment":null,"source_data":"ESI Classification; NOAA VDatum; USGS Modeled Dune Toe; 2016 El Nino DEM; USGS CoNED Topobathy DEM","source_estimatedyear":2016,"orig_scale":null,"legend_headings":"Estuarine and Marine","legcode":"RS","leglabellevel1":"Rocky Shore","leglabellevel2":"Rocky Shore","major_class":"Wetland","wetland_class":"Marine","anthropogenic_modifier":"Natural","wetland_type":"Rocky","wetland_subtype":"none","tidal_modifier":"Intertidal","vegetation_modifier":"Non-vegetated","salinity_modifier":"Saline","salinity_source":"CARI Marine","salinity_additional_information":"Wetland Mapping classified Marine","lastupdate":1770120526000,"CARI_id":185945,"Shape__Area":123014.14453125,"Shape__Length":6693.872148444794}},"geometry":{"type":"Polygon","coordinates":[[[-118.314878854044,33.7148198305882],[-118.314695152161,33.7148037487423],[-118.314694945549,33.7147902231618],[-118.314678898943,33.7147994133236],[-118.314651580277,33.714777157872],[-118.314619347826,33.7147865191504],[-118.314608352447,33.7147731086405],[-118.314570588171,33.7147735099022],[-118.314548663888,33.7147511976544],[-118.314532548112,33.7147558782952],[-118.314494439781,33.7147337379056],[-118.314397469341,33.7147437881338],[-118.314289227739,33.7147223942228],[-118.314149166013,33.7147374127772],[-118.314095491675,33.7147560202687],[-118.31408456367,33.7147471177854],[-118.313890484449,33.7147582014293],[-118.313793787995,33.7147862852679],[-118.313545484668,33.7147799084201],[-118.313524041882,33.7147891553724],[-118.313512977332,33.7147712353384],[-118.31348074578,33.7147805973648],[-118.313448101002,33.7147629074755],[-118.31339415178,33.7147634813471],[-118.313361370458,33.7147367746437],[-118.313339928571,33.7147460208534],[-118.313242407464,33.7147200030899],[-118.313209626142,33.7146932963731],[-118.313133959249,33.7146850828287],[-118.313014448282,33.714632241743],[-118.312743879312,33.7145810086643],[-118.312732814763,33.7145630885869],[-118.312646084219,33.7145369556944],[-118.312635019669,33.714519036355],[-118.312417988493,33.7144401773189],[-118.312352426749,33.7143867629557],[-118.312287413875,33.7143694174592],[-118.312287139889,33.7143513830111],[-118.312265423117,33.7143425955595],[-118.312233053224,33.7143429392864],[-118.312232779238,33.71432490558],[-118.312102478606,33.7142721793465],[-118.312058771076,33.7142365699542],[-118.311993757304,33.7142192244273],[-118.311982693653,33.7142013042744],[-118.311809509246,33.7141670705101],[-118.311787517589,33.7141402485473],[-118.311706251497,33.7141185660534],[-118.311504926465,33.7140079730699],[-118.311483347136,33.7140082032183],[-118.311472283485,33.7139902830213],[-118.311450704155,33.7139905124227],[-118.311406996625,33.7139549029134],[-118.311385416397,33.7139551323148],[-118.311363425638,33.7139283102857],[-118.311287349114,33.7138930444794],[-118.311287076026,33.7138750106784],[-118.311254706133,33.7138753544072],[-118.31117821818,33.7138130378596],[-118.311156639748,33.7138132665141],[-118.311156364864,33.7137952326964],[-118.311134784636,33.713795461351],[-118.311025380614,33.7136974200548],[-118.310960231196,33.7136710567495],[-118.310959956312,33.713653022902],[-118.310927450773,33.7136443497065],[-118.310894396364,33.7135996080491],[-118.310862027369,33.7135999510317],[-118.310872543048,33.7135818035889],[-118.310829247845,33.7135732439665],[-118.31082897296,33.7135552108456],[-118.310752485905,33.7134928933185],[-118.310730906576,33.7134931219739],[-118.310588722131,33.7133683732036],[-118.310403653911,33.7132621154976],[-118.310403448197,33.7132485904215],[-118.310370874386,33.7132354083273],[-118.310370599502,33.7132173743883],[-118.31032744174,33.7132178324477],[-118.310316240647,33.7131908958603],[-118.310251091229,33.7131645316522],[-118.310223570442,33.7131287499346],[-118.310131036782,33.7130756209498],[-118.31006657188,33.7130943416351],[-118.310055508229,33.7130764219946],[-118.309952733774,33.7130594752615],[-118.309876520705,33.713015192107],[-118.309762955687,33.7129983589429],[-118.309719249954,33.7129627490222],[-118.309692138798,33.7129540174719],[-118.309676091294,33.712963207083],[-118.309654169706,33.7129408936176],[-118.309638122202,33.7129500817356],[-118.309632522105,33.7129366134009],[-118.309616406328,33.7129412933934],[-118.309621594997,33.712927710729],[-118.309589089459,33.7129190367129],[-118.309588883745,33.7129055115827],[-118.309551326081,33.712919437236],[-118.30955658392,33.7129103634432],[-118.309513425261,33.712910820757],[-118.30950236161,33.7128929018255],[-118.309448414184,33.7128934734679],[-118.309426560868,33.7128756688613],[-118.30940504981,33.7128804056477],[-118.309301933097,33.7128409159802],[-118.309232073812,33.7128596935073],[-118.309242452947,33.7128325281504],[-118.30923152584,33.7128236254676],[-118.309183383327,33.7128511913509],[-118.309156136526,33.7128334427789],[-118.309123767532,33.7128337857645],[-118.309080950232,33.7128567859762],[-118.308956938705,33.7128626100054],[-118.308859284647,33.7128275709239],[-118.308837705318,33.7128278003284],[-118.308832584022,33.7128458911398],[-118.308745993615,33.7128287717474],[-118.30864806647,33.7127756986205],[-118.308583054494,33.7127583513041],[-118.308561132906,33.7127360362909],[-118.30837688934,33.7126838784839],[-118.308322325669,33.7126438738727],[-118.308289957573,33.7126442161119],[-118.308278757378,33.7126172793445],[-118.308268241699,33.7126354277384],[-118.30826257333,33.7126174504642],[-118.308219483841,33.7126224159225],[-118.308213883743,33.7126089482837],[-118.308181514749,33.7126092912703],[-118.308137740743,33.7125691715483],[-118.308116229685,33.7125739090988],[-118.308061597743,33.7125293955416],[-118.307964012855,33.7124988637265],[-118.307903987428,33.7124544076685],[-118.307692154803,33.712361957257],[-118.307686486433,33.7123439806727],[-118.307637934289,33.7123444947805],[-118.307540007143,33.7122914206069],[-118.307339443883,33.7122304150821],[-118.30721488618,33.7122001693578],[-118.307187979841,33.7122049629725],[-118.307192965491,33.7121778549469],[-118.307133691055,33.7121829915511],[-118.307117164749,33.7121606203446],[-118.307084796653,33.7121609625857],[-118.306971778708,33.7121801960847],[-118.30686859552,33.7121361956852],[-118.306803790157,33.7121323719991],[-118.306743969546,33.712101440263],[-118.306711668823,33.7121062914217],[-118.306706069624,33.7120928229547],[-118.306624737955,33.7120666280357],[-118.306527564495,33.7120631473353],[-118.306511175631,33.7120497931911],[-118.306478943181,33.7120591525252],[-118.306446301098,33.7120414605807],[-118.306332943591,33.7120381502528],[-118.306289511843,33.7120205726336],[-118.306278858722,33.7120297040589],[-118.30626779597,33.7120117841963],[-118.306208248446,33.7119988866155],[-118.30617062251,33.7120083027464],[-118.306089290841,33.7119821070543],[-118.306013832357,33.7119874147912],[-118.305948753907,33.7119655568965],[-118.305889480369,33.7119706927663],[-118.305840722511,33.7119576801024],[-118.305824675006,33.7119668690728],[-118.305754269546,33.7119495768897],[-118.305689668999,33.7119592777294],[-118.305624727092,33.7119464361848],[-118.305592563812,33.7119603044551],[-118.305554662991,33.7119516871325],[-118.305565316112,33.711942555699],[-118.305495321182,33.7119523133307],[-118.305478932318,33.7119389591693],[-118.305392547625,33.7119353633867],[-118.305332795286,33.7119089390128],[-118.305289638423,33.7119093948374],[-118.305284038326,33.7118959270868],[-118.305267990821,33.7119051153166],[-118.305251465413,33.7118827440377],[-118.305235417909,33.7118919315217],[-118.30513783392,33.7118613979854],[-118.305099798352,33.7118437635387],[-118.305115846755,33.7118345753024],[-118.305104919648,33.7118256725161],[-118.305007746189,33.7118221903114],[-118.304974901087,33.7117909722651],[-118.304877589287,33.711778472938],[-118.304790591943,33.7117343004639],[-118.304736644517,33.7117348698723],[-118.304666103411,33.7117085597667],[-118.30462294565,33.7117090155925],[-118.30462321784,33.711727049101],[-118.30460170768,33.7117317859508],[-118.304585387088,33.7117229399453],[-118.304595767121,33.7116957749761],[-118.304579514801,33.7116914371587],[-118.304569134768,33.7117186028765],[-118.304471551677,33.7116880692786],[-118.304465952478,33.7116745999987],[-118.304433788299,33.7116884675657],[-118.304374106028,33.7116665520563],[-118.304363452907,33.711675682772],[-118.304292706985,33.7116358473182],[-118.304260406263,33.7116406970087],[-118.304222370695,33.7116230617695],[-118.304222166778,33.7116095364352],[-118.304200654822,33.7116142732914],[-118.304135509895,33.7115879056103],[-118.304075485367,33.7115434475862],[-118.30403219196,33.7115348855188],[-118.304031987144,33.7115213601707],[-118.304005013431,33.7115216448756],[-118.304004809513,33.7115081195253],[-118.303994156392,33.7115172502578],[-118.303993951576,33.7115037249069],[-118.303901491577,33.7114551001319],[-118.303912075528,33.7114414596935],[-118.30389596065,33.7114461397675],[-118.303841467947,33.7114106412918],[-118.303841194859,33.7113926077168],[-118.303825079083,33.7113972870462],[-118.30381941251,33.7113793095127],[-118.303803363209,33.7113884977978],[-118.303781376044,33.7113616742198],[-118.303683589036,33.7113176143675],[-118.303661533599,33.7112862825544],[-118.303623498031,33.7112686472424],[-118.303590993391,33.7112599715642],[-118.30358034027,33.7112691030704],[-118.303563884032,33.7112512390935],[-118.303537045965,33.7112605409757],[-118.30346097483,33.7112252703374],[-118.303439463772,33.7112300064676],[-118.30342853936,33.7112211036187],[-118.303444586864,33.7112119153157],[-118.303406619569,33.7111987882061],[-118.30337971323,33.7112035818767],[-118.30341228704,33.7112167657773],[-118.303407028302,33.7112258397491],[-118.303374591934,33.7112216730304],[-118.303357930881,33.7111902836434],[-118.303325630158,33.7111951348535],[-118.303320439692,33.7112087162974],[-118.303195816413,33.7111739582582],[-118.302996144281,33.7111715558176],[-118.303001333849,33.7111579728733],[-118.303012260057,33.711166876476],[-118.303033701945,33.7111576313754],[-118.303049409886,33.7111259012143],[-118.303038415405,33.7111124893853],[-118.302957836524,33.7111358853586],[-118.302963503097,33.711153862943],[-118.302936188923,33.711131605052],[-118.302947455593,33.711163050505],[-118.302888181157,33.7111681849281],[-118.302828567158,33.7111507775061],[-118.302753041301,33.7111515733381],[-118.302731189781,33.7111337676231],[-118.302709679622,33.7111385030111],[-118.302628281477,33.711107797337],[-118.302388804097,33.7109705366895],[-118.302394062835,33.710961463438],[-118.302372415233,33.7109571823754],[-118.302383068354,33.7109480508361],[-118.302312529045,33.7109217397423],[-118.30216537512,33.7108240889727],[-118.302138401407,33.7108243729326],[-118.302111088131,33.7108021142089],[-118.302116074679,33.7107750072349],[-118.302067793826,33.7107935528148],[-118.302056731971,33.7107756326943],[-118.301877414766,33.710691847992],[-118.301839107907,33.7106561780809],[-118.301795813602,33.7106476159251],[-118.301795405767,33.7106205649472],[-118.30175238455,33.7106300365267],[-118.30169809756,33.7106080624606],[-118.301627150416,33.7105546995167],[-118.301583857009,33.710546138098],[-118.301523834277,33.7105016772928],[-118.301486003525,33.7104975665839],[-118.301474942569,33.7104796464016],[-118.301426186507,33.7104666327645],[-118.301425982589,33.7104531079953],[-118.301415329468,33.7104622380928],[-118.301306687218,33.7104137816103],[-118.301170527774,33.7103295407218],[-118.301056492038,33.7102811402095],[-118.301040376262,33.7102858195994],[-118.301040172345,33.7102722940546],[-118.300942524575,33.7102372486854],[-118.300909748643,33.7102105383325],[-118.300855665572,33.7102020904643],[-118.300839209334,33.7101842262655],[-118.300747025118,33.7101536330878],[-118.300676825372,33.7101498631168],[-118.300562586617,33.710087936182],[-118.300340930016,33.7100587059897],[-118.300270391605,33.7100323931288],[-118.300184212626,33.7100423191133],[-118.300108348104,33.7100205713195],[-118.3000382858,33.7100258179014],[-118.300021829562,33.7100079551605],[-118.300016639096,33.7100215367922],[-118.299978876617,33.7100219343398],[-118.299903011196,33.7100001865409],[-118.299870779644,33.7100095446038],[-118.299854392576,33.7099961886458],[-118.29981669747,33.7100010952213],[-118.299751621715,33.709979233832],[-118.299638402548,33.7099849347568],[-118.299627409864,33.7099715220024],[-118.299530237303,33.7099680359861],[-118.299475951212,33.709946060256],[-118.299411351563,33.7099557590802],[-118.299254567698,33.7099348624058],[-118.299162314312,33.709899759359],[-118.299092116362,33.7098959878824],[-118.298978082423,33.7098475863784],[-118.298870052824,33.709839704159],[-118.298821094641,33.709813162566],[-118.298718324677,33.7097962062216],[-118.29869504843,33.7097784151709],[-118.298837930866,33.709443230132],[-118.299134082957,33.7094581517168],[-118.299361199519,33.7094918366171],[-118.299469636055,33.709526769452],[-118.29976121662,33.7095417381006],[-118.300129002169,33.7096009961681],[-118.300539401998,33.709623730469],[-118.301059461869,33.7097625483425],[-118.301178144589,33.7097612981561],[-118.301330145823,33.7098228255361],[-118.301362513021,33.7098224855275],[-118.301427793593,33.7098578710744],[-118.301460161689,33.7098575303187],[-118.30154715544,33.7099017052526],[-118.301785472196,33.7099623231039],[-118.3018723312,33.7099974814231],[-118.301883392156,33.710015401706],[-118.302035259541,33.7100679116032],[-118.302046320497,33.7100858311242],[-118.30212225419,33.7101120864289],[-118.302155165767,33.7101478133584],[-118.302176745097,33.7101475854414],[-118.302198732261,33.7101744093987],[-118.302285591265,33.7102095668837],[-118.302307577531,33.7102363908217],[-118.302350870938,33.7102449522712],[-118.302361932792,33.7102628732498],[-118.302492221746,33.7103156094177],[-118.302503283601,33.7103335296343],[-118.302981011262,33.7105268967604],[-118.302992073116,33.7105448169328],[-118.303078795576,33.7105709570184],[-118.30308985743,33.7105888771817],[-118.303176580788,33.7106150172539],[-118.303187642642,33.710632937408],[-118.303252651922,33.7106502888901],[-118.303350710222,33.7107123820592],[-118.30350271505,33.7107739080105],[-118.303513776904,33.7107918281314],[-118.303654856421,33.7108444496433],[-118.303665918276,33.7108623697495],[-118.303752642532,33.7108885097384],[-118.303763704386,33.7109064290882],[-118.303861353952,33.7109414726897],[-118.303905056991,33.7109770841959],[-118.304057063615,33.7110386092103],[-118.304068124571,33.711056529276],[-118.304209205885,33.7111091498784],[-118.304220267739,33.7111270699294],[-118.304654435194,33.7112938343526],[-118.304719308829,33.7113021685301],[-118.304903820093,33.7113723659902],[-118.30496869283,33.7113806986655],[-118.304990546146,33.7113985050766],[-118.305218078628,33.7114592302237],[-118.305694316882,33.7115533988027],[-118.306104862238,33.7115851317949],[-118.30723052046,33.7118077017976],[-118.30750066812,33.7118318978907],[-118.308039869293,33.7118081508975],[-118.308105016914,33.7118345162693],[-118.3082142799,33.7119235433338],[-118.308214552988,33.7119415767973],[-118.308269047488,33.711977073559],[-118.308269320576,33.7119951077585],[-118.308334741285,33.7120395065158],[-118.308335016169,33.7120575407022],[-118.308542615035,33.7122266915318],[-118.308564194365,33.7122264628732],[-118.308673320807,33.7123064732129],[-118.308857974904,33.7123856816796],[-118.308890343898,33.7123853386922],[-118.309009712932,33.7124291656022],[-118.309399095776,33.7124881668656],[-118.309637287667,33.7125397523995],[-118.31013675905,33.7127418782622],[-118.310169127146,33.7127415352762],[-118.310256128083,33.7127857042431],[-118.310288497078,33.71278536051],[-118.31042958468,33.7128379748224],[-118.310473290413,33.7128735847948],[-118.310560155705,33.7129087366914],[-118.310582146463,33.7129355582916],[-118.310636367875,33.7129530199007],[-118.310658358633,33.7129798422343],[-118.310712580045,33.7129973030871],[-118.310734570804,33.7130241261542],[-118.310756150133,33.7130238960031],[-118.310799856765,33.7130595058984],[-118.310886722056,33.7130946569717],[-118.310908712815,33.7131214792611],[-118.310962935125,33.7131389408323],[-118.310984924985,33.7131657623607],[-118.311006505213,33.7131655337045],[-118.311061138054,33.7132100454374],[-118.311061412938,33.7132280801252],[-118.311126836342,33.7132724767505],[-118.31112710943,33.7132905114253],[-118.311170679518,33.7133171042505],[-118.311170953504,33.7133351374213],[-118.311225450699,33.7133706328597],[-118.311225724685,33.7133886675138],[-118.311422269781,33.7135398931887],[-118.311443849111,33.7135396645334],[-118.311454911864,33.71355758333],[-118.311476492092,33.7135573539276],[-118.311487556641,33.7135752742149],[-118.311639708792,33.7136458060741],[-118.311813166287,33.7136980738881],[-118.312083183692,33.713713241322],[-118.312169913338,33.7137393759597],[-118.312290109719,33.7138373013862],[-118.312311689049,33.7138370719846],[-118.312322890142,33.7138640083693],[-118.312563282906,33.7140598595736],[-118.312584863134,33.7140596294253],[-118.312639496873,33.7141041414421],[-118.312693720081,33.714121601319],[-118.312715712636,33.7141484232876],[-118.312769934947,33.7141658839028],[-118.312889995683,33.7142547919818],[-118.313171765746,33.7143329614928],[-118.313226950153,33.7144135407548],[-118.31328158479,33.7144580518408],[-118.313390169548,33.7145019890305],[-118.313616892648,33.714508596046],[-118.313681220107,33.7144808573373],[-118.313744997797,33.7144170497548],[-118.313744722014,33.7143990153167],[-118.313798121468,33.7143623740493],[-118.313873650919,33.7143615700275],[-118.313906294798,33.7143792592523],[-118.314003540122,33.7143872434258],[-118.314132606469,33.7143588149825],[-118.314175352802,33.7143313056258],[-118.314304280808,33.7142938588127],[-118.314375433667,33.7142840827662],[-118.314509286238,33.714291676893],[-118.314562960576,33.714273069301],[-118.314605569466,33.7142365415593],[-118.314659518689,33.7142359676842],[-118.31467058234,33.7142538870826],[-118.314703090574,33.7142625587221],[-118.314824801515,33.7144596688494],[-118.314868509943,33.714495277402],[-118.314933386273,33.7145036052909],[-118.314965481282,33.7144852263975],[-118.314985960175,33.7144128607739],[-118.315018055184,33.7143944826083],[-118.315017780299,33.7143764481655],[-118.31506052753,33.7143489380672],[-118.315060252646,33.7143309036148],[-118.315124028539,33.7142670951736],[-118.315145470427,33.7142578489123],[-118.315210346757,33.7142661768243],[-118.315384495954,33.7143635240396],[-118.315459887064,33.7143537031671],[-118.315491705392,33.7143172905336],[-118.315479541305,33.7142272355161],[-118.315500432525,33.7141819210342],[-118.315564758187,33.7141541807255],[-118.315629497075,33.7141534910285],[-118.315705437954,33.71417973687],[-118.31573739552,33.7141523417827],[-118.315747496177,33.7141071415881],[-118.315811409513,33.7140523506111],[-118.315832988843,33.71405212121],[-118.315832714857,33.7140340866953],[-118.315886662283,33.7140335113243],[-118.315941023832,33.714059988098],[-118.316092080937,33.7140583778071],[-118.316113247042,33.714031097008],[-118.316242449034,33.7140116838399],[-118.316285883477,33.7140292580626],[-118.31635158446,33.7140916865384],[-118.316394744018,33.714091226242],[-118.31645906968,33.7140634851567],[-118.316501677672,33.7140269573258],[-118.316522568893,33.7139816427382],[-118.316640430553,33.7139262755623],[-118.316650944435,33.7139081259468],[-118.316715408438,33.7138894024499],[-118.316757740648,33.7138348399885],[-118.316584142117,33.7137735628186],[-118.316485520574,33.7136754116534],[-118.316463941244,33.7136756410555],[-118.316441948689,33.7136488204336],[-118.316398515145,33.7136312461331],[-118.316376385148,33.7135954085671],[-118.316386761588,33.7135682434429],[-118.316452051143,33.7136036207212],[-118.316538368462,33.7136027001231],[-118.316690525105,33.7136732259819],[-118.31675498821,33.7136545009394],[-118.316907558077,33.7137520775028],[-118.316961505503,33.71375150213],[-118.316993462171,33.7137241061588],[-118.316992498279,33.7136609877148],[-118.316970505724,33.7136341663411],[-118.316981020505,33.7136160181583],[-118.317013389499,33.7136156721868],[-118.317046171719,33.7136423784916],[-118.31706775015,33.7136421483422],[-118.316622546892,33.7142376018832],[-118.316521647221,33.714274750575],[-118.316489071614,33.7142615701328],[-118.316462097003,33.7142618578175],[-118.316462304514,33.7142753834813],[-118.316408217849,33.7142669412436],[-118.316397565626,33.7142760731772],[-118.316375778785,33.7142627784086],[-118.316370659287,33.7142808689178],[-118.316338014509,33.7142631811672],[-118.316327432355,33.7142768211573],[-118.31633829119,33.7142812148866],[-118.316251902904,33.7142776259271],[-118.316246715134,33.7142912083781],[-118.31621427607,33.7142870462915],[-118.316176787577,33.7143054820171],[-118.316128027023,33.7142924734431],[-118.316095658029,33.7142928194119],[-118.316090537632,33.714310910662],[-118.316031057482,33.7143025252175],[-118.316026006255,33.7143251260135],[-118.315999031643,33.714325413698],[-118.31597786464,33.7143526936564],[-118.315929241529,33.714348702689],[-118.315870173706,33.714367369296],[-118.315881169983,33.7143807791222],[-118.315805709703,33.7143860926886],[-118.315730594375,33.7144139479961],[-118.315682865088,33.7144685676264],[-118.31570465103,33.7144818623631],[-118.315699531531,33.7144999535734],[-118.315640256197,33.7145050945221],[-118.315640599354,33.7145276377281],[-118.315613763083,33.7145369414971],[-118.315603454017,33.71456861585],[-118.315485454914,33.7146149642941],[-118.315480335415,33.7146330562235],[-118.315399754738,33.7146564609516],[-118.315389239957,33.7146746089145],[-118.315346012127,33.7146705611726],[-118.315297870513,33.7146981287046],[-118.315189902897,33.714694769162],[-118.315158014501,33.7147266728559],[-118.315141693011,33.7147178286534],[-118.31509887661,33.714740830602],[-118.315066439343,33.7147366670428],[-118.315055924563,33.7147548149888],[-118.315072246053,33.7147636599347],[-118.315050597553,33.7147593813034],[-118.315056199447,33.7147728493521],[-118.315013039889,33.7147733096449],[-118.314997198998,33.7147960238958],[-118.314970155216,33.7147918028027],[-118.31491661832,33.7148194285795],[-118.314878854044,33.7148198305882]],[[-118.310380909466,33.7131857010314],[-118.310391425145,33.7131675520066],[-118.310375035382,33.7131541987814],[-118.310337135461,33.7131455815787],[-118.310249859639,33.7130833788297],[-118.310239686219,33.7131240692051],[-118.31030531354,33.7131819939619],[-118.310380909466,33.7131857010314]],[[-118.310217558018,33.7130882306801],[-118.310211684833,33.7130567283944],[-118.310179179294,33.7130480551386],[-118.310168594445,33.7130616945745],[-118.31017364657,33.7130390956876],[-118.31011942426,33.7130216333489],[-118.31014141412,33.7130484556611],[-118.310162994348,33.7130482270046],[-118.310180000354,33.713102157051],[-118.310217558018,33.7130882306801]]]}}]}