{"type":"FeatureCollection","properties":{"site_id":"windansea-reef","dataset_name":"California Aquatic Resources Inventory (CARI) v3.3","source_url":"https://www.sfei.org/data/california-aquatic-resource-inventory-cari-gis-data","dataset_date":"2026-02-19","resolution_meters":null,"provenance":"official-gis","outline_kind":"rocky-intertidal","geometry_status":"exploratory","disclaimer":"Static modeled rocky-intertidal habitat context, not a tide-specific waterline, surveyed boundary, navigational chart, safe route, or real-time access condition.","coordinate":{"latitude":32.832298,"longitude":-117.282405},"selection_radius_meters":350.0,"selection_method":"Original CARI Rocky Shore polygons intersecting a local-radius buffer; geometry is selected, not crop-clipped.","simplify_meters":1.0,"source":{"dataset_name":"California Aquatic Resources Inventory (CARI) v3.3","publisher":"San Francisco Estuary Institute","endpoint":"https://services2.arcgis.com/Uq9r85Potqm3MfRV/arcgis/rest/services/biosds2835_fpu/FeatureServer/0/query","dataset_url":"https://www.sfei.org/data/california-aquatic-resource-inventory-cari-gis-data","license":"GPL-3.0-or-later","license_url":"https://www.gnu.org/licenses/gpl-3.0.html","citation":"San Francisco Estuary Institute (SFEI). 2026. California Aquatic Resource Inventory (CARI), version 3.3. Accessed 2026-09-18.","accessed_at":"2026-09-18T16:45:10.389559+00:00"}},"features":[{"type":"Feature","id":"224603","properties":{"site_id":"windansea-reef","source_feature_id":224603,"source_dataset":"California Aquatic Resources Inventory (CARI) v3.3","source_class":"Marine Rocky Shore Natural Intertidal","source_legcode":"RS","source_attributes":{"OBJECTID":224603,"clickcode":"WMNrnIN","clicklabel":"Marine Rocky Shore Natural Intertidal","name":null,"orig_dataset":"Elevation Modeled Polygons via ESI Classification","orig_class":"2A","organization":"San Francisco Estuary Institute (SFEI)","orig_dataset_pubyear":2022,"process_adjustment":null,"source_data":"ESI Classification; NOAA VDatum; USGS Modeled Dune Toe; 2016 El Nino DEM; USGS CoNED Topobathy DEM","source_estimatedyear":2016,"orig_scale":null,"legend_headings":"Estuarine and Marine","legcode":"RS","leglabellevel1":"Rocky Shore","leglabellevel2":"Rocky Shore","major_class":"Wetland","wetland_class":"Marine","anthropogenic_modifier":"Natural","wetland_type":"Rocky","wetland_subtype":"none","tidal_modifier":"Intertidal","vegetation_modifier":"Non-vegetated","salinity_modifier":"Saline","salinity_source":"CARI Marine","salinity_additional_information":"Wetland Mapping classified Marine","lastupdate":1770120526000,"CARI_id":224603,"Shape__Area":139.3125,"Shape__Length":81.07328960468553}},"geometry":{"type":"Polygon","coordinates":[[[-117.282773869721,32.8334651598283],[-117.282773755635,32.8334290776638],[-117.282752414359,32.8334381467028],[-117.282752357765,32.8334201059943],[-117.282720217841,32.8333931162542],[-117.282752214933,32.8333750030748],[-117.28276278451,32.8333388967197],[-117.282816150727,32.8333207352213],[-117.282880258997,32.8333205895428],[-117.282816208219,32.83333877595],[-117.282816265711,32.8333568174298],[-117.282837634835,32.8333567683672],[-117.282827149699,32.8334199361621],[-117.282773869721,32.8334651598283]]]}},{"type":"Feature","id":"224604","properties":{"site_id":"windansea-reef","source_feature_id":224604,"source_dataset":"California Aquatic Resources Inventory (CARI) v3.3","source_class":"Marine Rocky Shore Natural Intertidal","source_legcode":"RS","source_attributes":{"OBJECTID":224604,"clickcode":"WMNrnIN","clicklabel":"Marine Rocky Shore Natural Intertidal","name":null,"orig_dataset":"Elevation Modeled Polygons via ESI Classification","orig_class":"2A","organization":"San Francisco Estuary Institute (SFEI)","orig_dataset_pubyear":2022,"process_adjustment":null,"source_data":"ESI Classification; NOAA VDatum; USGS Modeled Dune Toe; 2016 El Nino DEM; USGS CoNED Topobathy DEM","source_estimatedyear":2016,"orig_scale":null,"legend_headings":"Estuarine and Marine","legcode":"RS","leglabellevel1":"Rocky Shore","leglabellevel2":"Rocky Shore","major_class":"Wetland","wetland_class":"Marine","anthropogenic_modifier":"Natural","wetland_type":"Rocky","wetland_subtype":"none","tidal_modifier":"Intertidal","vegetation_modifier":"Non-vegetated","salinity_modifier":"Saline","salinity_source":"CARI Marine","salinity_additional_information":"Wetland Mapping classified Marine","lastupdate":1770120526000,"CARI_id":224604,"Shape__Area":52.59765625,"Shape__Length":47.72397119088844}},"geometry":{"type":"Polygon","coordinates":[[[-117.282231411257,32.8342437552168],[-117.282220607219,32.83420609583],[-117.282263232279,32.8341699173518],[-117.282273801857,32.8341338113199],[-117.282295171879,32.8341337630124],[-117.282284658895,32.8341879096005],[-117.282263317619,32.834196978562],[-117.282263431705,32.8342330604145],[-117.282242119175,32.8342511492652],[-117.282231411257,32.8342437552168]]]}},{"type":"Feature","id":"224605","properties":{"site_id":"windansea-reef","source_feature_id":224605,"source_dataset":"California Aquatic Resources Inventory (CARI) v3.3","source_class":"Marine Rocky Shore Natural Intertidal","source_legcode":"RS","source_attributes":{"OBJECTID":224605,"clickcode":"WMNrnIN","clicklabel":"Marine Rocky Shore Natural Intertidal","name":null,"orig_dataset":"Elevation Modeled Polygons via ESI Classification","orig_class":"2A","organization":"San Francisco Estuary Institute (SFEI)","orig_dataset_pubyear":2022,"process_adjustment":null,"source_data":"ESI Classification; NOAA VDatum; USGS Modeled Dune Toe; 2016 El Nino DEM; USGS CoNED Topobathy DEM","source_estimatedyear":2016,"orig_scale":null,"legend_headings":"Estuarine and Marine","legcode":"RS","leglabellevel1":"Rocky Shore","leglabellevel2":"Rocky Shore","major_class":"Wetland","wetland_class":"Marine","anthropogenic_modifier":"Natural","wetland_type":"Rocky","wetland_subtype":"none","tidal_modifier":"Intertidal","vegetation_modifier":"Non-vegetated","salinity_modifier":"Saline","salinity_source":"CARI Marine","salinity_additional_information":"Wetland Mapping classified Marine","lastupdate":1770120526000,"CARI_id":224605,"Shape__Area":36.9453125,"Shape__Length":35.773027610762675}},"geometry":{"type":"Polygon","coordinates":[[[-117.28233868178,32.8343771521796],[-117.28232791098,32.8343501823553],[-117.282338510202,32.834323097038],[-117.282359936818,32.8343410900105],[-117.282402676863,32.8343409949055],[-117.28240279005,32.8343770751898],[-117.282349338494,32.8343681753223],[-117.282338710526,32.8343862407466],[-117.28233868178,32.8343771521796]]]}},{"type":"Feature","id":"224606","properties":{"site_id":"windansea-reef","source_feature_id":224606,"source_dataset":"California Aquatic Resources Inventory (CARI) v3.3","source_class":"Marine Rocky Shore Natural Intertidal","source_legcode":"RS","source_attributes":{"OBJECTID":224606,"clickcode":"WMNrnIN","clicklabel":"Marine Rocky Shore Natural Intertidal","name":null,"orig_dataset":"Elevation Modeled Polygons via ESI Classification","orig_class":"2A","organization":"San Francisco Estuary Institute (SFEI)","orig_dataset_pubyear":2022,"process_adjustment":null,"source_data":"ESI Classification; NOAA VDatum; USGS Modeled Dune Toe; 2016 El Nino DEM; USGS CoNED Topobathy DEM","source_estimatedyear":2016,"orig_scale":null,"legend_headings":"Estuarine and Marine","legcode":"RS","leglabellevel1":"Rocky Shore","leglabellevel2":"Rocky Shore","major_class":"Wetland","wetland_class":"Marine","anthropogenic_modifier":"Natural","wetland_type":"Rocky","wetland_subtype":"none","tidal_modifier":"Intertidal","vegetation_modifier":"Non-vegetated","salinity_modifier":"Saline","salinity_source":"CARI Marine","salinity_additional_information":"Wetland Mapping classified Marine","lastupdate":1770120526000,"CARI_id":224606,"Shape__Area":45.5,"Shape__Length":40.54244536678556}},"geometry":{"type":"Polygon","coordinates":[[[-117.282114643745,32.8344859718768],[-117.282125300459,32.8344769278532],[-117.282136042513,32.8344949441934],[-117.282050763647,32.8345582810086],[-117.282050592068,32.8345041580452],[-117.282114643745,32.8344859718768]]]}},{"type":"Feature","id":"224607","properties":{"site_id":"windansea-reef","source_feature_id":224607,"source_dataset":"California Aquatic Resources Inventory (CARI) v3.3","source_class":"Marine Rocky Shore Natural Intertidal","source_legcode":"RS","source_attributes":{"OBJECTID":224607,"clickcode":"WMNrnIN","clicklabel":"Marine Rocky Shore Natural Intertidal","name":null,"orig_dataset":"Elevation Modeled Polygons via ESI Classification","orig_class":"2A","organization":"San Francisco Estuary Institute (SFEI)","orig_dataset_pubyear":2022,"process_adjustment":null,"source_data":"ESI Classification; NOAA VDatum; USGS Modeled Dune Toe; 2016 El Nino DEM; USGS CoNED Topobathy DEM","source_estimatedyear":2016,"orig_scale":null,"legend_headings":"Estuarine and Marine","legcode":"RS","leglabellevel1":"Rocky Shore","leglabellevel2":"Rocky Shore","major_class":"Wetland","wetland_class":"Marine","anthropogenic_modifier":"Natural","wetland_type":"Rocky","wetland_subtype":"none","tidal_modifier":"Intertidal","vegetation_modifier":"Non-vegetated","salinity_modifier":"Saline","salinity_source":"CARI Marine","salinity_additional_information":"Wetland Mapping classified Marine","lastupdate":1770120526000,"CARI_id":224607,"Shape__Area":65.38671875,"Shape__Length":45.28956063573743}},"geometry":{"type":"Polygon","coordinates":[[[-117.281901575936,32.8346849046868],[-117.281922887568,32.8346668151696],[-117.281933629622,32.8346848329809],[-117.281912431178,32.8347390041412],[-117.281816268323,32.8347392207684],[-117.281837608701,32.8347301518623],[-117.281848180075,32.8346940453035],[-117.281901575936,32.8346849046868]]]}},{"type":"Feature","id":"224616","properties":{"site_id":"windansea-reef","source_feature_id":224616,"source_dataset":"California Aquatic Resources Inventory (CARI) v3.3","source_class":"Marine Rocky Shore Natural Intertidal","source_legcode":"RS","source_attributes":{"OBJECTID":224616,"clickcode":"WMNrnIN","clicklabel":"Marine Rocky Shore Natural Intertidal","name":null,"orig_dataset":"Elevation Modeled Polygons via ESI Classification","orig_class":"2A","organization":"San Francisco Estuary Institute (SFEI)","orig_dataset_pubyear":2022,"process_adjustment":null,"source_data":"ESI Classification; NOAA VDatum; USGS Modeled Dune Toe; 2016 El Nino DEM; USGS CoNED Topobathy DEM","source_estimatedyear":2016,"orig_scale":null,"legend_headings":"Estuarine and Marine","legcode":"RS","leglabellevel1":"Rocky Shore","leglabellevel2":"Rocky Shore","major_class":"Wetland","wetland_class":"Marine","anthropogenic_modifier":"Natural","wetland_type":"Rocky","wetland_subtype":"none","tidal_modifier":"Intertidal","vegetation_modifier":"Non-vegetated","salinity_modifier":"Saline","salinity_source":"CARI Marine","salinity_additional_information":"Wetland Mapping classified Marine","lastupdate":1770120526000,"CARI_id":224616,"Shape__Area":211.7890625,"Shape__Length":81.12828930249351}},"geometry":{"type":"Polygon","coordinates":[[[-117.282888798382,32.8326440274897],[-117.282877913496,32.8325809082059],[-117.282845744825,32.8325448988993],[-117.282845602891,32.8324997955352],[-117.282888226155,32.8324636178713],[-117.282888169561,32.83244557621],[-117.282909537787,32.8324455286564],[-117.282920422673,32.8325086472816],[-117.282952533851,32.8325266157129],[-117.282942048715,32.8325897840984],[-117.282963446585,32.8325987566066],[-117.282963533722,32.8326258175409],[-117.282942221192,32.832643906719],[-117.282888798382,32.8326440274897]]]}},{"type":"Feature","id":"224617","properties":{"site_id":"windansea-reef","source_feature_id":224617,"source_dataset":"California Aquatic Resources Inventory (CARI) v3.3","source_class":"Marine Rocky Shore Natural Intertidal","source_legcode":"RS","source_attributes":{"OBJECTID":224617,"clickcode":"WMNrnIN","clicklabel":"Marine Rocky Shore Natural Intertidal","name":null,"orig_dataset":"Elevation Modeled Polygons via ESI Classification","orig_class":"2A","organization":"San Francisco Estuary Institute (SFEI)","orig_dataset_pubyear":2022,"process_adjustment":null,"source_data":"ESI Classification; NOAA VDatum; USGS Modeled Dune Toe; 2016 El Nino DEM; USGS CoNED Topobathy DEM","source_estimatedyear":2016,"orig_scale":null,"legend_headings":"Estuarine and Marine","legcode":"RS","leglabellevel1":"Rocky Shore","leglabellevel2":"Rocky Shore","major_class":"Wetland","wetland_class":"Marine","anthropogenic_modifier":"Natural","wetland_type":"Rocky","wetland_subtype":"none","tidal_modifier":"Intertidal","vegetation_modifier":"Non-vegetated","salinity_modifier":"Saline","salinity_source":"CARI Marine","salinity_additional_information":"Wetland Mapping classified Marine","lastupdate":1770120526000,"CARI_id":224617,"Shape__Area":25815.875,"Shape__Length":2245.714375401386}},"geometry":{"type":"Polygon","coordinates":[[[-117.282278693184,32.8323026225972],[-117.282342600231,32.8322393355006],[-117.282374396999,32.8321580783472],[-117.282416992415,32.8321128789243],[-117.282427448805,32.832040690837],[-117.282448789183,32.8320316216553],[-117.28245918808,32.8319413932476],[-117.282480556306,32.8319413441842],[-117.282480499712,32.8319233039264],[-117.282565747138,32.8318509473593],[-117.282587116262,32.8318508982958],[-117.282651080802,32.8318056511627],[-117.282693818151,32.8318055553001],[-117.282725985923,32.8318415641517],[-117.282758039609,32.8318414924435],[-117.282758210289,32.8318956162751],[-117.282779636905,32.831913607475],[-117.282736870809,32.8319046832063],[-117.282715558279,32.8319227732861],[-117.282694561058,32.8320400884894],[-117.282726613846,32.8320400152717],[-117.28278015164,32.8320759764744],[-117.282780265726,32.8321120591888],[-117.282716244592,32.832139265197],[-117.282716302084,32.8321573061658],[-117.282684333738,32.8321844404521],[-117.282652280951,32.8321845121601],[-117.282620312605,32.8322116464382],[-117.282620370097,32.8322296873922],[-117.282577688443,32.8322478249596],[-117.282577888767,32.8323109686344],[-117.282652737295,32.8323288412436],[-117.282652794787,32.832346881419],[-117.282620741101,32.8323469546364],[-117.28261020027,32.8323920807227],[-117.282578202279,32.8324101948575],[-117.28244993184,32.8323924430356],[-117.282492869514,32.8324554899909],[-117.282546320171,32.8324643892953],[-117.282546378562,32.832482430198],[-117.282482470616,32.8325457186309],[-117.282482584702,32.8325818011543],[-117.282450559762,32.8325908936792],[-117.282461386258,32.8326359720881],[-117.282418677654,32.8326450895164],[-117.282408049686,32.8326631545365],[-117.282429533795,32.832699188704],[-117.282493582776,32.8326810029207],[-117.28248275628,32.8326359245347],[-117.282578802354,32.8325996246459],[-117.2826215415,32.8325995280294],[-117.282663993185,32.8325092262268],[-117.28269604777,32.8325091545191],[-117.282706903012,32.8325632537896],[-117.282738985444,32.8325722013915],[-117.282739070784,32.8325992630887],[-117.282792637324,32.8326442448768],[-117.282814006448,32.8326441965686],[-117.282835518404,32.8326892515511],[-117.282856916274,32.8326982232944],[-117.28283586156,32.8327974973929],[-117.282868086825,32.8328515474248],[-117.282889484695,32.8328605199065],[-117.282889598781,32.8328966023021],[-117.282932452013,32.832932587312],[-117.282921967775,32.8329957546539],[-117.282889971582,32.8330138686655],[-117.282890056922,32.8330409302281],[-117.282815292835,32.8330501200769],[-117.28279409529,32.8331042907249],[-117.28276207035,32.8331133839511],[-117.282762127842,32.8331314247219],[-117.282740786566,32.8331404937914],[-117.282730244836,32.833185620984],[-117.282762298522,32.8331855477673],[-117.282783582306,32.8331584379408],[-117.28280495143,32.8331583903876],[-117.282805037668,32.8331854511514],[-117.282783667646,32.8331855002141],[-117.282730387668,32.8332307224901],[-117.282719874684,32.8332848696289],[-117.282645167192,32.8333121001865],[-117.282666680945,32.8333571555849],[-117.2826239409,32.8333572514458],[-117.282613456662,32.8334204192404],[-117.282560033853,32.8334205392552],[-117.282527893928,32.83339355027],[-117.282463785658,32.8333936951936],[-117.282474366015,32.8333605341161],[-117.28246361408,32.8333395722751],[-117.28236739553,32.8333217481772],[-117.282388849994,32.8333487613382],[-117.282388993724,32.8333938635162],[-117.282421104902,32.8334118325231],[-117.282410448188,32.83342087741],[-117.28242121809,32.8334479146947],[-117.282517352198,32.8334386773341],[-117.282474728036,32.8334748561103],[-117.28247486997,32.8335199589791],[-117.282517637863,32.8335288823307],[-117.282517723203,32.8335559437363],[-117.282507095235,32.8335740085711],[-117.282464385733,32.8335831266579],[-117.282474984955,32.8335560403518],[-117.282442902523,32.8335470920943],[-117.282442959116,32.8335651335318],[-117.282400277462,32.8335832708263],[-117.282400164275,32.833547187955],[-117.282432131722,32.8335200548398],[-117.282442673452,32.8334749278171],[-117.282421246836,32.8334569354239],[-117.282399906458,32.8334660044601],[-117.28239982022,32.8334389422722],[-117.282303744502,32.8334662210904],[-117.28230391608,32.8335203439317],[-117.282325284306,32.8335202956239],[-117.282325428036,32.8335653984697],[-117.282272262145,32.8336467033977],[-117.282293745355,32.8336827371661],[-117.282325855634,32.8337007061145],[-117.282315313905,32.8337458330224],[-117.282326055959,32.833763849511],[-117.282347425083,32.8337638019581],[-117.282347510423,32.8337908625374],[-117.282315514229,32.8338089763868],[-117.282315599569,32.8338360377071],[-117.282272860422,32.8338361335675],[-117.282272803829,32.8338180929398],[-117.282251433806,32.8338181412474],[-117.282251606283,32.833872264629],[-117.282283802801,32.8339172940798],[-117.282262546865,32.8339534251082],[-117.282273459599,32.8340255648427],[-117.282252090475,32.8340256131502],[-117.282241319675,32.8339985752866],[-117.282198524833,32.8339806313071],[-117.282209320786,32.8340158263518],[-117.282198781751,32.8340618150862],[-117.282156127945,32.8340889729443],[-117.282156298624,32.8341430961608],[-117.282124301532,32.8341612099384],[-117.282124359025,32.8341792504963],[-117.282156441457,32.8341881986902],[-117.282177925565,32.8342242322388],[-117.282113788549,32.8342153572645],[-117.282102989002,32.8341792988037],[-117.282081619878,32.8341793463563],[-117.282081733964,32.8342154289707],[-117.282039023564,32.8342245454821],[-117.282071305422,32.8342966381985],[-117.282146127001,32.8343054890111],[-117.282157069379,32.8343866498491],[-117.282093074296,32.8344228773012],[-117.28206102061,32.8344229490073],[-117.282061105052,32.8344500108953],[-117.282018538382,32.8345042297513],[-117.282018680316,32.834549332852],[-117.281986711072,32.8345764664075],[-117.281965341948,32.8345765139599],[-117.28193340145,32.8346126681189],[-117.281912032326,32.834612716426],[-117.281880090929,32.8346488705703],[-117.281826724713,32.834667031797],[-117.281837466767,32.8346850496082],[-117.281805496625,32.8347121831222],[-117.281805611609,32.8347482655201],[-117.281784269434,32.8347573329148],[-117.281795581919,32.8349557609125],[-117.281743348478,32.835332853574],[-117.281374746361,32.8353421337608],[-117.281438421643,32.8352046299004],[-117.281433008395,32.8351820902186],[-117.281390169536,32.8351506152667],[-117.281347145624,32.8350605062671],[-117.28135754542,32.8349702771634],[-117.281458724467,32.8348663129179],[-117.281437055306,32.8347716454025],[-117.281452897994,32.8347129764158],[-117.281447299693,32.8346318037992],[-117.28142058739,32.8346318634284],[-117.281420530796,32.8346138229624],[-117.281558920757,32.8344511408325],[-117.281596331995,32.8344555669859],[-117.281628257222,32.8344149028248],[-117.281660269586,32.8344012997929],[-117.281644072063,32.8343472129644],[-117.281665426814,32.8343426547151],[-117.281644043317,32.8343381930803],[-117.281644000198,32.8343246617429],[-117.281676011663,32.8343110594521],[-117.281675940696,32.8342885074666],[-117.28165451408,32.8342705144835],[-117.281611818053,32.834284141689],[-117.281601061625,32.8342616138504],[-117.281622317562,32.834225484457],[-117.281622146882,32.8341713612908],[-117.281680841904,32.8341486771793],[-117.28170733951,32.834080963717],[-117.281701911889,32.8340539145482],[-117.281760720998,32.8340673123265],[-117.281803360431,32.834035645259],[-117.281835071859,32.8339273262008],[-117.28183500179,32.8339047756276],[-117.281808289487,32.8339048352572],[-117.281808217622,32.8338822846782],[-117.28184562886,32.8338867093504],[-117.281898782175,32.8338008946727],[-117.281920122553,32.8337918264255],[-117.281904038218,32.8337738212648],[-117.281920023738,32.8337602543655],[-117.281909123581,32.8336926243906],[-117.281919680582,32.8336520081877],[-117.282004858837,32.8335571001032],[-117.282004588444,32.8334714058765],[-117.28203647145,32.8334172097889],[-117.282036286397,32.8333585768928],[-117.282057483943,32.8333044056451],[-117.282046742787,32.8332863890634],[-117.282067940333,32.8332322170168],[-117.282056827275,32.8330969335668],[-117.282078140703,32.8330788444809],[-117.282099595167,32.8331058577158],[-117.282120963393,32.8331058101626],[-117.282110193491,32.8330787727737],[-117.282120764865,32.833042667053],[-117.282099338249,32.8330246738173],[-117.282131306595,32.8329975397877],[-117.282130993083,32.8328983142209],[-117.282109509873,32.8328622801342],[-117.282120108197,32.8328351951178],[-117.28210932482,32.8328036468717],[-117.282082555923,32.8327856664196],[-117.282066600047,32.8328082535082],[-117.282034517615,32.8327993051752],[-117.282023604881,32.8327271651992],[-117.282044974005,32.832727116891],[-117.282055601973,32.832709051884],[-117.282055486988,32.8326729694122],[-117.282098069828,32.8326232602222],[-117.282135194504,32.8325374820642],[-117.282140108288,32.8324021620793],[-117.28211868257,32.8323841687138],[-117.282033519586,32.8324835873337],[-117.281980053657,32.8324701772394],[-117.281985154292,32.8323934907238],[-117.281947786172,32.8324025953451],[-117.281926389201,32.8323936235719],[-117.281942273211,32.8323484838996],[-117.28191553306,32.8323395234433],[-117.281904891617,32.8323530784826],[-117.281883509019,32.8323486167478],[-117.281835285658,32.8323036227328],[-117.281824486111,32.8322675642505],[-117.281792405476,32.8322586158631],[-117.281802947206,32.832213489709],[-117.281792162032,32.8321819419967],[-117.281749467802,32.832195568768],[-117.281690574252,32.8321551081281],[-117.281685090037,32.8321100173981],[-117.281647679697,32.8321055926372],[-117.2816580759,32.8320142011245],[-117.281903662722,32.8319643345627],[-117.281893138959,32.8320148336652],[-117.281935876308,32.832014737048],[-117.281957330772,32.8320417506065],[-117.281989413204,32.8320506990157],[-117.281989526392,32.8320867809856],[-117.282010867668,32.8320777125633],[-117.28200032504,32.8321228387865],[-117.282053890682,32.832167820816],[-117.28206477467,32.8322309411482],[-117.282118311566,32.8322669022736],[-117.28219304511,32.8322486930023],[-117.282204044082,32.832347894386],[-117.282257410298,32.832329732685],[-117.28225732406,32.8323026716604],[-117.282278693184,32.8323026225972]],[[-117.282077028589,32.8327270451836],[-117.282077113929,32.8327541060787],[-117.282125222306,32.8327630189399],[-117.282162461966,32.8327133211226],[-117.282130393907,32.83270888356],[-117.282119652751,32.8326908661026],[-117.282077028589,32.8327270451836]],[[-117.28227872193,32.8323116441976],[-117.282300091054,32.8323115958892],[-117.282300063206,32.8323025750435],[-117.282278693184,32.8323026225972],[-117.28227872193,32.8323116441976]]]}},{"type":"Feature","id":"224618","properties":{"site_id":"windansea-reef","source_feature_id":224618,"source_dataset":"California Aquatic Resources Inventory (CARI) v3.3","source_class":"Marine Rocky Shore Natural Intertidal","source_legcode":"RS","source_attributes":{"OBJECTID":224618,"clickcode":"WMNrnIN","clicklabel":"Marine Rocky Shore Natural Intertidal","name":null,"orig_dataset":"Elevation Modeled Polygons via ESI Classification","orig_class":"2A","organization":"San Francisco Estuary Institute (SFEI)","orig_dataset_pubyear":2022,"process_adjustment":null,"source_data":"ESI Classification; NOAA VDatum; USGS Modeled Dune Toe; 2016 El Nino DEM; USGS CoNED Topobathy DEM","source_estimatedyear":2016,"orig_scale":null,"legend_headings":"Estuarine and Marine","legcode":"RS","leglabellevel1":"Rocky Shore","leglabellevel2":"Rocky Shore","major_class":"Wetland","wetland_class":"Marine","anthropogenic_modifier":"Natural","wetland_type":"Rocky","wetland_subtype":"none","tidal_modifier":"Intertidal","vegetation_modifier":"Non-vegetated","salinity_modifier":"Saline","salinity_source":"CARI Marine","salinity_additional_information":"Wetland Mapping classified Marine","lastupdate":1770120526000,"CARI_id":224618,"Shape__Area":52.60546875,"Shape__Length":50.102378255101854}},"geometry":{"type":"Polygon","coordinates":[[[-117.28297573464,32.8331038801069],[-117.282964935094,32.8330678219495],[-117.283007587103,32.8330406645339],[-117.28300753051,32.8330226237446],[-117.283039497957,32.8329954897143],[-117.283039727028,32.8330676536263],[-117.283007673342,32.8330677253335],[-117.282997102866,32.8331038325537],[-117.282965077926,32.8331129250251],[-117.28297573464,32.8331038801069]]]}}]}